station,valid,tmpf,dwpf,relh,drct,sknt,p01i,alti,mslp,vsby,gust,skyc1,skyc2,skyc3,skyc4,skyl1,skyl2,skyl3,skyl4,wxcodes,ice_accretion_1hr,ice_accretion_3hr,ice_accretion_6hr,peak_wind_gust,peak_wind_drct,peak_wind_time,feel,metar,snowdepth
MCJ,2020-01-01 00:15,57.20,17.60,20.99,0.00,0.00,0.00,30.15,M,10.00,M,CLR,M,M,M,M,M,M,M,M,M,M,M,M,M,M,57.20,KMCJ 010015Z AUTO 00000KT 10SM CLR 14/M08 A3015 RMK A01,M
MCJ,2020-01-01 00:35,57.20,17.60,20.99,0.00,0.00,0.00,30.15,M,10.00,M,CLR,M,M,M,M,M,M,M,M,M,M,M,M,M,M,57.20,KMCJ 010035Z AUTO 00000KT 10SM CLR 14/M08 A3015 RMK A01,M
MCJ,2020-01-01 00:55,57.20,19.40,22.68,0.00,0.00,0.00,30.15,M,10.00,M,CLR,M,M,M,M,M,M,M,M,M,M,M,M,M,M,57.20,KMCJ 010055Z AUTO 00000KT 10SM CLR 14/M07 A3015 RMK A01,M
MCJ,2020-01-01 01:15,57.20,19.40,22.68,0.00,0.00,0.00,30.15,M,10.00,M,CLR,M,M,M,M,M,M,M,M,M,M,M,M,M,M,57.20,KMCJ 010115Z AUTO 00000KT 10SM CLR 14/M07 A3015 RMK A01,M
MCJ,2020-01-01 01:35,55.40,19.40,24.21,0.00,0.00,0.00,30.16,M,10.00,M,FEW,M,M,M,6500.00,M,M,M,M,M,M,M,M,M,M,55.40,KMCJ 010135Z AUTO 00000KT 10SM FEW065 13/M07 A3016 RMK A01,M
MCJ,2020-01-01 01:55,57.20,21.20,24.49,0.00,0.00,0.00,30.15,M,10.00,M,CLR,M,M,M,M,M,M,M,M,M,M,M,M,M,M,57.20,KMCJ 010155Z AUTO 00000KT 10SM CLR 14/M06 A3015 RMK A01,M
MCJ,2020-01-01 02:15,55.40,21.20,26.13,0.00,0.00,0.00,30.16,M,10.00,M,CLR,M,M,M,M,M,M,M,M,M,M,M,M,M,M,55.40,KMCJ 010215Z AUTO 00000KT 10SM CLR 13/M06 A3016 RMK A01,M
MCJ,2020-01-01 02:35,55.40,21.20,26.13,0.00,0.00,0.00,30.15,M,4.00,M,CLR,M,M,M,M,M,M,M,HZ,M,M,M,M,M,M,55.40,KMCJ 010235Z AUTO 00000KT 4SM HZ CLR 13/M06 A3015 RMK A01,M
MCJ,2020-01-01 02:55,55.40,21.20,26.13,0.00,0.00,0.00,30.16,M,8.00,M,CLR,M,M,M,M,M,M,M,M,M,M,M,M,M,M,55.40,KMCJ 010255Z AUTO 00000KT 8SM CLR 13/M06 A3016 RMK A01,M
MCJ,2020-01-01 03:15,55.40,21.20,26.13,0.00,0.00,0.00,30.16,M,10.00,M,CLR,M,M,M,M,M,M,M,M,M,M,M,M,M,M,55.40,KMCJ 010315Z AUTO 00000KT 10SM CLR 13/M06 A3016 RMK A01,M
MCJ,2020-01-01 03:35,55.40,23.00,28.20,M,3.00,0.00,30.15,M,10.00,M,CLR,M,M,M,M,M,M,M,M,M,M,M,M,M,M,55.40,KMCJ 010335Z AUTO VRB03KT 10SM CLR 13/M05 A3015 RMK A01,M
MCJ,2020-01-01 03:55,55.40,26.60,32.76,M,3.00,0.00,30.15,M,5.00,10.00,CLR,M,M,M,M,M,M,M,HZ,M,M,M,M,M,M,55.40,KMCJ 010355Z AUTO VRB03G10KT 5SM HZ CLR 13/M03 A3015 RMK A01,M
MCJ,2020-01-01 04:15,55.40,28.40,35.28,M,4.00,0.00,30.16,M,10.00,M,SCT,M,M,M,6000.00,M,M,M,M,M,M,M,M,M,M,55.40,KMCJ 010415Z AUTO VRB04KT 10SM SCT060 13/M02 A3016 RMK A01,M
MCJ,2020-01-01 04:35,55.40,28.40,35.28,M,3.00,0.00,30.16,M,9.00,M,OVC,M,M,M,6000.00,M,M,M,M,M,M,M,M,M,M,55.40,KMCJ 010435Z AUTO VRB03KT 9SM OVC060 13/M02 A3016 RMK A01,M
MCJ,2020-01-01 04:55,55.40,28.40,35.28,M,3.00,0.00,30.16,M,10.00,M,OVC,M,M,M,6000.00,M,M,M,M,M,M,M,M,M,M,55.40,KMCJ 010455Z AUTO VRB03KT 10SM OVC060 13/M02 A3016 RMK A01,M
MCJ,2020-01-01 05:15,55.40,28.40,35.28,M,3.00,0.00,30.16,M,9.00,M,OVC,M,M,M,6000.00,M,M,M,M,M,M,M,M,M,M,55.40,KMCJ 010515Z AUTO VRB03KT 9SM OVC060 13/M02 A3016 RMK A01,M
MCJ,2020-01-01 05:35,55.40,28.40,35.28,M,3.00,0.00,30.14,M,10.00,M,OVC,M,M,M,6000.00,M,M,M,M,M,M,M,M,M,M,55.40,KMCJ 010535Z AUTO VRB03KT 10SM OVC060 13/M02 A3014 RMK A01,M
MCJ,2020-01-01 05:55,55.40,28.40,35.28,0.00,0.00,0.00,30.14,M,10.00,M,OVC,M,M,M,6000.00,M,M,M,M,M,M,M,M,M,M,55.40,KMCJ 010555Z AUTO 00000KT 10SM OVC060 13/M02 A3014 RMK A01,M
MCJ,2020-01-01 06:15,55.40,28.40,35.28,0.00,0.00,0.00,30.13,M,9.00,M,OVC,M,M,M,6000.00,M,M,M,M,M,M,M,M,M,M,55.40,KMCJ 010615Z AUTO 00000KT 9SM OVC060 13/M02 A3013 RMK A01,M
MCJ,2020-01-01 06:35,55.40,30.20,37.97,0.00,0.00,0.00,30.12,M,10.00,M,OVC,M,M,M,6000.00,M,M,M,M,M,M,M,M,M,M,55.40,KMCJ 010635Z AUTO 00000KT 10SM OVC060 13/M01 A3012 RMK A01,M
MCJ,2020-01-01 06:55,55.40,30.20,37.97,0.00,0.00,0.00,30.12,M,10.00,M,OVC,M,M,M,6000.00,M,M,M,M,M,M,M,M,M,M,55.40,KMCJ 010655Z AUTO 00000KT 10SM OVC060 13/M01 A3012 RMK A01,M
MCJ,2020-01-01 07:15,55.40,30.20,37.97,0.00,0.00,0.00,30.10,M,10.00,M,OVC,M,M,M,6000.00,M,M,M,M,M,M,M,M,M,M,55.40,KMCJ 010715Z AUTO 00000KT 10SM OVC060 13/M01 A3010 RMK A01,M
MCJ,2020-01-01 07:35,55.40,30.20,37.97,0.00,0.00,0.00,30.10,M,10.00,M,OVC,M,M,M,6000.00,M,M,M,M,M,M,M,M,M,M,55.40,KMCJ 010735Z AUTO 00000KT 10SM OVC060 13/M01 A3010 RMK A01,M
MCJ,2020-01-01 07:55,55.40,30.20,37.97,M,4.00,0.00,30.10,M,10.00,M,OVC,M,M,M,5500.00,M,M,M,M,M,M,M,M,M,M,55.40,KMCJ 010755Z AUTO VRB04KT 10SM OVC055 13/M01 A3010 RMK A01,M
MCJ,2020-01-01 08:15,55.40,30.20,37.97,0.00,0.00,0.00,30.11,M,9.00,M,OVC,M,M,M,5500.00,M,M,M,M,M,M,M,M,M,M,55.40,KMCJ 010815Z AUTO 00000KT 9SM OVC055 13/M01 A3011 RMK A01,M
MCJ,2020-01-01 08:35,55.40,30.20,37.97,0.00,0.00,0.00,30.12,M,10.00,M,OVC,M,M,M,5500.00,M,M,M,M,M,M,M,M,M,M,55.40,KMCJ 010835Z AUTO 00000KT 10SM OVC055 13/M01 A3012 RMK A01,M
MCJ,2020-01-01 08:55,53.60,32.00,43.61,0.00,0.00,0.00,30.11,M,10.00,M,OVC,M,M,M,5500.00,M,M,M,M,M,M,M,M,M,M,53.60,KMCJ 010855Z AUTO 00000KT 10SM OVC055 12/M00 A3011 RMK A01,M
MCJ,2020-01-01 09:15,55.40,30.20,37.97,0.00,0.00,0.00,30.11,M,10.00,M,OVC,M,M,M,5500.00,M,M,M,M,M,M,M,M,M,M,55.40,KMCJ 010915Z AUTO 00000KT 10SM OVC055 13/M01 A3011 RMK A01,M
MCJ,2020-01-01 09:35,53.60,32.00,43.61,0.00,0.00,0.00,30.10,M,3.00,M,OVC,M,M,M,5500.00,M,M,M,HZ,M,M,M,M,M,M,53.60,KMCJ 010935Z AUTO 00000KT 3SM HZ OVC055 12/00 A3010 RMK A01,M
MCJ,2020-01-01 09:55,53.60,33.80,46.88,0.00,0.00,0.00,30.11,M,10.00,M,OVC,M,M,M,5500.00,M,M,M,M,M,M,M,M,M,M,53.60,KMCJ 010955Z AUTO 00000KT 10SM OVC055 12/01 A3011 RMK A01,M
MCJ,2020-01-01 10:15,53.60,33.80,46.88,0.00,0.00,0.00,30.09,M,9.00,M,OVC,M,M,M,5000.00,M,M,M,M,M,M,M,M,M,M,53.60,KMCJ 011015Z AUTO 00000KT 9SM OVC050 12/01 A3009 RMK A01,M
MCJ,2020-01-01 10:35,53.60,32.00,43.61,0.00,0.00,0.00,30.09,M,10.00,M,OVC,M,M,M,5000.00,M,M,M,M,M,M,M,M,M,M,53.60,KMCJ 011035Z AUTO 00000KT 10SM OVC050 12/00 A3009 RMK A01,M
MCJ,2020-01-01 10:55,53.60,32.00,43.61,0.00,0.00,0.00,30.08,M,4.00,M,OVC,M,M,M,5000.00,M,M,M,HZ,M,M,M,M,M,M,53.60,KMCJ 011055Z AUTO 00000KT 4SM HZ OVC050 12/00 A3008 RMK A01,M
MCJ,2020-01-01 11:15,53.60,33.80,46.88,0.00,0.00,0.00,30.07,M,10.00,M,OVC,M,M,M,5000.00,M,M,M,M,M,M,M,M,M,M,53.60,KMCJ 011115Z AUTO 00000KT 10SM OVC050 12/01 A3007 RMK A01,M
MCJ,2020-01-01 11:35,53.60,33.80,46.88,0.00,0.00,0.00,30.06,M,3.00,M,OVC,M,M,M,5000.00,M,M,M,HZ,M,M,M,M,M,M,53.60,KMCJ 011135Z AUTO 00000KT 3SM HZ OVC050 12/01 A3006 RMK A01,M
MCJ,2020-01-01 11:55,53.60,33.80,46.88,0.00,0.00,0.00,30.05,M,10.00,M,OVC,M,M,M,4900.00,M,M,M,M,M,M,M,M,M,M,53.60,KMCJ 011155Z AUTO 00000KT 10SM OVC049 12/01 A3005 RMK A01,M
MCJ,2020-01-01 12:15,53.60,33.80,46.88,0.00,0.00,0.00,30.05,M,3.00,M,OVC,M,M,M,4900.00,M,M,M,HZ,M,M,M,M,M,M,53.60,KMCJ 011215Z AUTO 00000KT 3SM HZ OVC049 12/01 A3005 RMK A01,M
MCJ,2020-01-01 12:35,53.60,35.60,50.36,0.00,0.00,0.00,30.06,M,6.00,M,OVC,M,M,M,4900.00,M,M,M,HZ,M,M,M,M,M,M,53.60,KMCJ 011235Z AUTO 00000KT 6SM HZ OVC049 12/02 A3006 RMK A01,M
MCJ,2020-01-01 12:55,53.60,35.60,50.36,0.00,0.00,0.00,30.06,M,7.00,M,OVC,M,M,M,4900.00,M,M,M,M,M,M,M,M,M,M,53.60,KMCJ 011255Z AUTO 00000KT 7SM OVC049 12/02 A3006 RMK A01,M
MCJ,2020-01-01 13:15,53.60,32.00,43.61,40.00,5.00,0.00,30.05,M,2.00,M,OVC,M,M,M,4900.00,M,M,M,HZ,M,M,M,M,M,M,53.60,KMCJ 011315Z AUTO 04005KT 2SM HZ OVC049 12/00 A3005 RMK A01 VIS 1 1/2V5,M
MCJ,2020-01-01 13:35,53.60,32.00,43.61,40.00,5.00,0.00,30.06,M,3.00,M,OVC,M,M,M,4900.00,M,M,M,HZ,M,M,M,M,M,M,53.60,KMCJ 011335Z AUTO 04005KT 3SM HZ OVC049 12/00 A3006 RMK A01,M
MCJ,2020-01-01 13:55,53.60,30.20,40.54,0.00,0.00,0.00,30.06,M,6.00,M,OVC,M,M,M,4900.00,M,M,M,HZ,M,M,M,M,M,M,53.60,KMCJ 011355Z AUTO 00000KT 6SM HZ OVC049 12/M01 A3006 RMK A01,M
MCJ,2020-01-01 14:15,53.60,32.00,43.61,60.00,6.00,0.00,30.05,M,3.00,M,OVC,M,M,M,4800.00,M,M,M,HZ,M,M,M,M,M,M,53.60,KMCJ 011415Z AUTO 06006KT 3SM HZ OVC048 12/M00 A3005 RMK A01,M
MCJ,2020-01-01 14:35,55.40,30.20,37.97,0.00,0.00,0.00,30.04,M,5.00,M,OVC,M,M,M,4700.00,M,M,M,HZ,M,M,M,M,M,M,55.40,KMCJ 011435Z AUTO 00000KT 5SM HZ OVC047 13/M01 A3004 RMK A01,M
MCJ,2020-01-01 14:55,55.40,32.00,40.84,0.00,0.00,0.00,30.06,M,3.00,M,OVC,M,M,M,4700.00,M,M,M,HZ,M,M,M,M,M,M,55.40,KMCJ 011455Z AUTO 00000KT 3SM HZ OVC047 13/00 A3006 RMK A01,M
MCJ,2020-01-01 15:15,55.40,32.00,40.84,0.00,0.00,0.00,30.07,M,3.00,M,OVC,M,M,M,4800.00,M,M,M,HZ,M,M,M,M,M,M,55.40,KMCJ 011515Z AUTO 00000KT 3SM HZ OVC048 13/00 A3007 RMK A01,M
MCJ,2020-01-01 15:35,55.40,32.00,40.84,0.00,0.00,0.00,30.07,M,6.00,M,OVC,M,M,M,4800.00,M,M,M,HZ,M,M,M,M,M,M,55.40,KMCJ 011535Z AUTO 00000KT 6SM HZ OVC048 13/00 A3007 RMK A01,M
MCJ,2020-01-01 15:55,55.40,32.00,40.84,0.00,0.00,0.00,30.08,M,2.50,M,OVC,M,M,M,4900.00,M,M,M,HZ,M,M,M,M,M,M,55.40,KMCJ 011555Z AUTO 00000KT 2 1/2SM HZ OVC049 13/M00 A3008 RMK A01 VIS 1 3/4V5,M
MCJ,2020-01-01 16:15,57.20,28.40,33.05,0.00,0.00,0.00,30.08,M,9.00,M,OVC,M,M,M,4800.00,M,M,M,M,M,M,M,M,M,M,57.20,KMCJ 011615Z AUTO 00000KT 9SM OVC048 14/M02 A3008 RMK A01,M
MCJ,2020-01-01 16:35,57.20,30.20,35.57,M,4.00,0.00,30.07,M,3.00,M,OVC,M,M,M,4600.00,M,M,M,HZ,M,M,M,M,M,M,57.20,KMCJ 011635Z AUTO VRB04KT 3SM HZ OVC046 14/M01 A3007 RMK A01,M
MCJ,2020-01-01 16:55,55.40,32.00,40.84,M,5.00,0.00,30.05,M,9.00,M,OVC,M,M,M,4500.00,M,M,M,M,M,M,M,M,M,M,55.40,KMCJ 011655Z AUTO VRB05KT 9SM OVC045 13/00 A3005 RMK A01,M
MCJ,2020-01-01 17:15,57.20,33.80,41.13,0.00,0.00,0.00,30.03,M,6.00,M,OVC,M,M,M,4200.00,M,M,M,HZ,M,M,M,M,M,M,57.20,KMCJ 011715Z AUTO 00000KT 6SM HZ OVC042 14/01 A3003 RMK A01,M
MCJ,2020-01-01 17:35,57.20,35.60,44.19,0.00,0.00,0.00,30.03,M,10.00,M,OVC,M,M,M,4100.00,M,M,M,M,M,M,M,M,M,M,57.20,KMCJ 011735Z AUTO 00000KT 10SM OVC041 14/02 A3003 RMK A01,M
MCJ,2020-01-01 17:55,57.20,37.40,47.44,0.00,0.00,0.00,30.01,M,10.00,M,OVC,M,M,M,4000.00,M,M,M,M,M,M,M,M,M,M,57.20,KMCJ 011755Z AUTO 00000KT 10SM OVC040 14/03 A3001 RMK A01,M
MCJ,2020-01-01 18:15,57.20,39.20,50.91,0.00,0.00,0.00,30.00,M,10.00,M,OVC,M,M,M,3600.00,M,M,M,M,M,M,M,M,M,M,57.20,KMCJ 011815Z AUTO 00000KT 10SM OVC036 14/04 A3000 RMK A01,M
MCJ,2020-01-01 18:35,57.20,41.00,54.60,0.00,0.00,0.00,29.98,M,8.00,M,OVC,M,M,M,3300.00,M,M,M,M,M,M,M,M,M,M,57.20,KMCJ 011835Z AUTO 00000KT 8SM OVC033 14/05 A2998 RMK A01,M
MCJ,2020-01-01 18:55,59.00,42.80,54.86,0.00,0.00,0.00,29.97,M,10.00,M,OVC,M,M,M,3100.00,M,M,M,M,M,M,M,M,M,M,59.00,KMCJ 011855Z AUTO 00000KT 10SM OVC031 15/06 A2997 RMK A01,M
MCJ,2020-01-01 19:15,59.00,42.80,54.86,M,5.00,0.00,29.94,M,10.00,M,OVC,M,M,M,2900.00,M,M,M,M,M,M,M,M,M,M,59.00,KMCJ 011915Z AUTO VRB05KT 10SM OVC029 15/06 A2994 RMK A01,M
MCJ,2020-01-01 19:35,59.00,44.60,58.77,0.00,0.00,0.00,29.94,M,10.00,M,OVC,M,M,M,2800.00,M,M,M,M,M,M,M,M,M,M,59.00,KMCJ 011935Z AUTO 00000KT 10SM OVC028 15/07 A2994 RMK A01,M
MCJ,2020-01-01 19:55,59.00,44.60,58.77,0.00,0.00,0.00,29.93,M,10.00,M,OVC,M,M,M,2700.00,M,M,M,M,M,M,M,M,M,M,59.00,KMCJ 011955Z AUTO 00000KT 10SM OVC027 15/07 A2993 RMK A01,M
MCJ,2020-01-01 20:15,59.00,44.60,58.77,0.00,0.00,0.00,29.91,M,4.00,M,OVC,M,M,M,2700.00,M,M,M,HZ,M,M,M,M,M,M,59.00,KMCJ 012015Z AUTO 00000KT 4SM HZ OVC027 15/07 A2991 RMK A01,M
MCJ,2020-01-01 20:35,60.80,46.40,59.01,M,3.00,0.00,29.90,M,10.00,M,OVC,M,M,M,2800.00,M,M,M,M,M,M,M,M,M,M,60.80,KMCJ 012035Z AUTO VRB03KT 10SM OVC028 16/08 A2990 RMK A01,M
MCJ,2020-01-01 20:55,60.80,46.40,59.01,M,3.00,0.00,29.91,M,3.00,M,OVC,M,M,M,2800.00,M,M,M,HZ,M,M,M,M,M,M,60.80,KMCJ 012055Z AUTO VRB03KT 3SM HZ OVC028 16/08 A2991 RMK A01,M
MCJ,2020-01-01 21:15,59.00,46.40,62.92,40.00,3.00,0.00,29.91,M,2.00,M,OVC,M,M,M,2900.00,M,M,M,HZ,M,M,M,M,M,M,59.00,KMCJ 012115Z AUTO 04003KT 2SM HZ OVC029 15/08 A2991 RMK A01,M
MCJ,2020-01-01 21:35,59.00,48.20,67.33,60.00,7.00,0.00,29.90,M,7.00,M,OVC,M,M,M,2900.00,M,M,M,M,M,M,M,M,M,M,59.00,KMCJ 012135Z AUTO 06007KT 7SM OVC029 15/09 A2990 RMK A01,M
MCJ,2020-01-01 21:55,59.00,50.00,72.01,60.00,7.00,0.00,29.88,M,3.00,M,OVC,M,M,M,2700.00,M,M,M,HZ,M,M,M,M,M,M,59.00,KMCJ 012155Z AUTO 06007KT 3SM HZ OVC027 15/10 A2988 RMK A01,M
MCJ,2020-01-01 22:15,59.00,50.00,72.01,0.00,0.00,0.00,29.87,M,5.00,M,OVC,M,M,M,2500.00,M,M,M,HZ,M,M,M,M,M,M,59.00,KMCJ 012215Z AUTO 00000KT 5SM HZ OVC025 15/10 A2987 RMK A01,M
MCJ,2020-01-01 22:35,59.00,50.00,72.01,0.00,0.00,0.00,29.87,M,7.00,M,OVC,M,M,M,2400.00,M,M,M,M,M,M,M,M,M,M,59.00,KMCJ 012235Z AUTO 00000KT 7SM OVC024 15/10 A2987 RMK A01,M
MCJ,2020-01-01 22:55,59.00,50.00,72.01,0.00,0.00,0.00,29.86,M,9.00,M,OVC,M,M,M,2300.00,M,M,M,M,M,M,M,M,M,M,59.00,KMCJ 012255Z AUTO 00000KT 9SM OVC023 15/10 A2986 RMK A01,M
MCJ,2020-01-01 23:15,59.00,50.00,72.01,0.00,0.00,0.00,29.85,M,7.00,M,OVC,M,M,M,2200.00,M,M,M,M,M,M,M,M,M,M,59.00,KMCJ 012315Z AUTO 00000KT 7SM OVC022 15/10 A2985 RMK A01,M
MCJ,2020-01-01 23:35,59.00,51.80,76.98,M,3.00,0.00,29.85,M,9.00,M,OVC,M,M,M,2100.00,M,M,M,M,M,M,M,M,M,M,59.00,KMCJ 012335Z AUTO VRB03KT 9SM OVC021 15/11 A2985 RMK A01,M
MCJ,2020-01-01 23:55,57.20,51.80,82.12,0.00,0.00,0.00,29.87,M,6.00,M,BKN,OVC,M,M,2100.00,2500.00,M,M,HZ,M,M,M,M,M,M,57.20,KMCJ 012355Z AUTO 00000KT 6SM HZ BKN021 OVC025 14/11 A2987 RMK A01,M
MCJ,2020-01-02 00:15,57.20,53.60,87.74,0.00,0.00,0.00,29.86,M,6.00,M,BKN,OVC,M,M,2100.00,2700.00,M,M,HZ,M,M,M,M,M,M,57.20,KMCJ 020015Z AUTO 00000KT 6SM HZ BKN021 OVC027 14/12 A2986 RMK A01,M
MCJ,2020-01-02 00:35,57.20,53.60,87.74,0.00,0.00,0.00,29.86,M,10.00,M,SCT,SCT,M,M,2100.00,2600.00,M,M,M,M,M,M,M,M,M,57.20,KMCJ 020035Z AUTO 00000KT 10SM SCT021 SCT026 14/12 A2986 RMK A01,M
MCJ,2020-01-02 00:55,57.20,53.60,87.74,20.00,4.00,0.00,29.86,M,8.00,M,BKN,M,M,M,1800.00,M,M,M,M,M,M,M,M,M,M,57.20,KMCJ 020055Z AUTO 02004KT 8SM BKN018 14/12 A2986 RMK A01,M
MCJ,2020-01-02 01:15,57.20,55.40,93.69,0.00,0.00,0.00,29.86,M,10.00,M,OVC,M,M,M,1800.00,M,M,M,M,M,M,M,M,M,M,57.20,KMCJ 020115Z AUTO 00000KT 10SM OVC018 14/13 A2986 RMK A01,M
MCJ,2020-01-02 01:35,57.20,55.40,93.69,0.00,0.00,0.00,29.84,M,7.00,M,SCT,M,M,M,1700.00,M,M,M,M,M,M,M,M,M,M,57.20,KMCJ 020135Z AUTO 00000KT 7SM SCT017 14/13 A2984 RMK A01,M
MCJ,2020-01-02 01:55,57.20,55.40,93.69,M,4.00,0.00,29.84,M,9.00,M,FEW,FEW,M,M,1800.00,7000.00,M,M,M,M,M,M,M,M,M,57.20,KMCJ 020155Z AUTO VRB04KT 9SM FEW018 FEW070 14/13 A2984 RMK A01,M
MCJ,2020-01-02 02:15,57.20,57.20,100.00,M,3.00,0.00,29.83,M,4.00,M,FEW,FEW,FEW,M,200.00,700.00,1700.00,M,BR,M,M,M,M,M,M,57.20,KMCJ 020215Z AUTO VRB03KT 4SM BR FEW002 FEW007 FEW017 14/14 A2983 RMK A01,M
MCJ,2020-01-02 02:35,57.20,57.20,100.00,0.00,0.00,0.00,29.82,M,4.00,14.00,CLR,M,M,M,M,M,M,M,BR,M,M,M,M,M,M,57.20,KMCJ 020235Z AUTO 00000G14KT 4SM BR CLR 14/14 A2982 RMK A01,M
MCJ,2020-01-02 02:55,59.00,57.20,93.74,0.00,0.00,0.00,29.83,M,2.00,M,SCT,SCT,BKN,M,200.00,700.00,2400.00,M,BR,M,M,M,M,M,M,59.00,KMCJ 020255Z AUTO 00000KT 2SM BR SCT002 SCT007 BKN024 15/14 A2983 RMK A01,M
MCJ,2020-01-02 03:15,59.00,59.00,100.00,0.00,0.00,0.00,29.82,M,4.00,M,FEW,FEW,SCT,M,300.00,2000.00,2900.00,M,BR,M,M,M,M,M,M,59.00,KMCJ 020315Z AUTO 00000KT 4SM BR FEW003 FEW020 SCT029 15/15 A2982 RMK A01,M
MCJ,2020-01-02 03:35,59.00,59.00,100.00,0.00,0.00,0.00,29.84,M,5.00,M,FEW,FEW,FEW,M,1100.00,1800.00,3000.00,M,BR,M,M,M,M,M,M,59.00,KMCJ 020335Z AUTO 00000KT 5SM BR FEW011 FEW018 FEW030 15/15 A2984 RMK A01,M
MCJ,2020-01-02 03:55,59.00,59.00,100.00,0.00,0.00,0.00,29.83,M,2.50,M,FEW,SCT,BKN,M,300.00,700.00,1100.00,M,BR,M,M,M,M,M,M,59.00,KMCJ 020355Z AUTO 00000KT 2 1/2SM BR FEW003 SCT007 BKN011 15/15 A2983 RMK A01,M
MCJ,2020-01-02 04:15,59.00,59.00,100.00,0.00,0.00,0.00,29.82,M,5.00,M,BKN,BKN,OVC,M,300.00,700.00,4300.00,M,BR,M,M,M,M,M,M,59.00,KMCJ 020415Z AUTO 00000KT 5SM BR BKN003 BKN007 OVC043 15/15 A2982 RMK A01,M
MCJ,2020-01-02 04:35,59.00,59.00,100.00,0.00,0.00,0.00,29.82,M,3.00,M,OVC,M,M,M,200.00,M,M,M,BR,M,M,M,M,M,M,59.00,KMCJ 020435Z AUTO 00000KT 3SM BR OVC002 15/15 A2982 RMK A01,M
MCJ,2020-01-02 04:55,59.00,59.00,100.00,0.00,0.00,0.00,29.82,M,2.50,M,OVC,M,M,M,200.00,M,M,M,BR,M,M,M,M,M,M,59.00,KMCJ 020455Z AUTO 00000KT 2 1/2SM BR OVC002 15/15 A2982 RMK A01,M
MCJ,2020-01-02 05:15,59.00,59.00,100.00,0.00,0.00,0.00,29.81,M,4.00,M,OVC,M,M,M,200.00,M,M,M,BR,M,M,M,M,M,M,59.00,KMCJ 020515Z AUTO 00000KT 4SM BR OVC002 15/15 A2981 RMK A01,M
MCJ,2020-01-02 05:35,59.00,59.00,100.00,0.00,0.00,0.00,29.79,M,4.00,M,OVC,M,M,M,100.00,M,M,M,BR,M,M,M,M,M,M,59.00,KMCJ 020535Z AUTO 00000KT 4SM BR OVC001 15/15 A2979 RMK A01,M
MCJ,2020-01-02 05:55,59.00,59.00,100.00,0.00,0.00,0.00,29.78,M,3.00,M,OVC,M,M,M,100.00,M,M,M,BR,M,M,M,M,M,M,59.00,KMCJ 020555Z AUTO 00000KT 3SM BR OVC001 15/15 A2978 RMK A01,M
MCJ,2020-01-02 06:15,59.00,59.00,100.00,0.00,0.00,0.00,29.78,M,3.00,M,M,M,M,M,M,M,M,M,BR,M,M,M,M,M,M,59.00,KMCJ 020615Z AUTO 00000KT 3SM BR 15/15 A2978 RMK A01,M
MCJ,2020-01-02 06:35,59.00,59.00,100.00,0.00,0.00,0.00,29.78,M,4.00,M,M,M,M,M,M,M,M,M,BR,M,M,M,M,M,M,59.00,KMCJ 020635Z AUTO 00000KT 4SM BR 15/15 A2978 RMK A01,M
MCJ,2020-01-02 06:55,59.00,59.00,100.00,0.00,0.00,0.00,29.76,M,5.00,M,M,M,M,M,M,M,M,M,BR,M,M,M,M,M,M,59.00,KMCJ 020655Z AUTO 00000KT 5SM BR 15/15 A2976 RMK A01,M
MCJ,2020-01-02 07:15,59.00,59.00,100.00,0.00,0.00,0.00,29.75,M,4.00,M,OVC,M,M,M,100.00,M,M,M,BR,M,M,M,M,M,M,59.00,KMCJ 020715Z AUTO 00000KT 4SM BR OVC001 15/15 A2975 RMK A01,M
MCJ,2020-01-02 07:35,59.00,59.00,100.00,0.00,0.00,0.00,29.74,M,3.00,M,OVC,M,M,M,100.00,M,M,M,BR,M,M,M,M,M,M,59.00,KMCJ 020735Z AUTO 00000KT 3SM BR OVC001 15/15 A2974 RMK A01,M
MCJ,2020-01-02 07:55,59.00,59.00,100.00,0.00,0.00,0.00,29.74,M,1.25,M,OVC,M,M,M,100.00,M,M,M,BR,M,M,M,M,M,M,59.00,KMCJ 020755Z AUTO 00000KT 1 1/4SM BR OVC001 15/15 A2974 RMK A01,M
MCJ,2020-01-02 08:15,60.80,60.80,100.00,0.00,0.00,0.00,29.74,M,2.50,M,OVC,M,M,M,100.00,M,M,M,BR,M,M,M,M,M,M,60.80,KMCJ 020815Z AUTO 00000KT 2 1/2SM BR OVC001 16/16 A2974 RMK A01,M
MCJ,2020-01-02 08:35,60.80,60.80,100.00,0.00,0.00,0.00,29.74,M,3.00,M,OVC,M,M,M,100.00,M,M,M,BR,M,M,M,M,M,M,60.80,KMCJ 020835Z AUTO 00000KT 3SM BR OVC001 16/16 A2974 RMK A01,M
MCJ,2020-01-02 08:55,60.80,60.80,100.00,0.00,0.00,0.00,29.73,M,4.00,M,OVC,M,M,M,100.00,M,M,M,BR,M,M,M,M,M,M,60.80,KMCJ 020855Z AUTO 00000KT 4SM BR OVC001 16/16 A2973 RMK A01,M
MCJ,2020-01-02 09:15,60.80,60.80,100.00,0.00,0.00,0.00,29.73,M,2.00,M,OVC,M,M,M,200.00,M,M,M,BR,M,M,M,M,M,M,60.80,KMCJ 020915Z AUTO 00000KT 2SM BR OVC002 16/16 A2973 RMK A01,M
MCJ,2020-01-02 09:35,60.80,60.80,100.00,0.00,0.00,0.00,29.73,M,0.50,M,OVC,M,M,M,100.00,M,M,M,BR,M,M,M,M,M,M,60.80,KMCJ 020935Z AUTO 00000KT 1/2SM BR OVC001 16/16 A2973 RMK A01,M
MCJ,2020-01-02 09:55,60.80,60.80,100.00,0.00,0.00,0.00,29.71,M,0.50,M,OVC,M,M,M,100.00,M,M,M,BR,M,M,M,M,M,M,60.80,KMCJ 020955Z AUTO 00000KT 1/2SM BR OVC001 16/16 A2971 RMK A01,M
MCJ,2020-01-02 10:15,60.80,60.80,100.00,0.00,0.00,0.00,29.70,M,0.25,M,OVC,M,M,M,100.00,M,M,M,FG,M,M,M,M,M,M,60.80,KMCJ 021015Z AUTO 00000KT M1/4SM FG OVC001 16/16 A2970 RMK A01,M
MCJ,2020-01-02 10:35,60.80,60.80,100.00,0.00,0.00,0.00,29.69,M,0.25,M,OVC,M,M,M,100.00,M,M,M,FG,M,M,M,M,M,M,60.80,KMCJ 021035Z AUTO 00000KT M1/4SM FG OVC001 16/16 A2969 RMK A01,M
MCJ,2020-01-02 10:55,60.80,60.80,100.00,0.00,0.00,0.00,29.69,M,0.25,M,OVC,M,M,M,100.00,M,M,M,FG,M,M,M,M,M,M,60.80,KMCJ 021055Z AUTO 00000KT M1/4SM FG OVC001 16/16 A2969 RMK A01,M
MCJ,2020-01-02 11:15,60.80,60.80,100.00,0.00,0.00,0.00,29.68,M,0.25,M,OVC,M,M,M,100.00,M,M,M,FG,M,M,M,M,M,M,60.80,KMCJ 021115Z AUTO 00000KT 1/4SM FG OVC001 16/16 A2968 RMK A01,M
MCJ,2020-01-02 11:35,60.80,60.80,100.00,0.00,0.00,0.00,29.67,M,0.25,M,OVC,M,M,M,100.00,M,M,M,FG,M,M,M,M,M,M,60.80,KMCJ 021135Z AUTO 00000KT 1/4SM FG OVC001 16/16 A2967 RMK A01,M
MCJ,2020-01-02 11:55,60.80,60.80,100.00,0.00,0.00,0.00,29.68,M,0.25,M,OVC,M,M,M,100.00,M,M,M,FG,M,M,M,M,M,M,60.80,KMCJ 021155Z AUTO 00000KT 1/4SM FG OVC001 16/16 A2968 RMK A01 VIS M1/4V5,M
MCJ,2020-01-02 12:15,60.80,60.80,100.00,0.00,0.00,0.00,29.69,M,0.25,M,OVC,M,M,M,100.00,M,M,M,FG,M,M,M,M,M,M,60.80,KMCJ 021215Z AUTO 00000KT M1/4SM FG OVC001 16/16 A2969 RMK A01,M
MCJ,2020-01-02 12:35,60.80,60.80,100.00,0.00,0.00,0.00,29.69,M,0.25,M,OVC,M,M,M,100.00,M,M,M,FG,M,M,M,M,M,M,60.80,KMCJ 021235Z AUTO 00000KT M1/4SM FG OVC001 16/16 A2969 RMK A01,M
MCJ,2020-01-02 12:55,60.80,60.80,100.00,0.00,0.00,0.00,29.68,M,0.25,M,OVC,M,M,M,100.00,M,M,M,FG,M,M,M,M,M,M,60.80,KMCJ 021255Z AUTO 00000KT M1/4SM FG OVC001 16/16 A2968 RMK A01,M
MCJ,2020-01-02 13:15,60.80,60.80,100.00,0.00,0.00,0.00,29.68,M,0.25,M,OVC,M,M,M,100.00,M,M,M,FG,M,M,M,M,M,M,60.80,KMCJ 021315Z AUTO 00000KT M1/4SM FG OVC001 16/16 A2968 RMK A01,M
MCJ,2020-01-02 13:35,60.80,60.80,100.00,0.00,0.00,0.00,29.70,M,0.25,M,OVC,M,M,M,100.00,M,M,M,FG,M,M,M,M,M,M,60.80,KMCJ 021335Z AUTO 00000KT M1/4SM FG OVC001 16/16 A2970 RMK A01,M
MCJ,2020-01-02 13:55,60.80,60.80,100.00,0.00,0.00,0.00,29.71,M,0.25,M,OVC,M,M,M,100.00,M,M,M,FG,M,M,M,M,M,M,60.80,KMCJ 021355Z AUTO 00000KT 1/4SM FG OVC001 16/16 A2971 RMK A01,M
MCJ,2020-01-02 14:15,60.80,60.80,100.00,0.00,0.00,0.00,29.71,M,0.25,M,OVC,M,M,M,100.00,M,M,M,FG,M,M,M,M,M,M,60.80,KMCJ 021415Z AUTO 00000KT M1/4SM FG OVC001 16/16 A2971 RMK A01,M
MCJ,2020-01-02 14:35,60.80,60.80,100.00,0.00,0.00,0.00,29.72,M,0.25,M,OVC,M,M,M,100.00,M,M,M,FG,M,M,M,M,M,M,60.80,KMCJ 021435Z AUTO 00000KT M1/4SM FG OVC001 16/16 A2972 RMK A01,M
MCJ,2020-01-02 14:55,60.80,60.80,100.00,0.00,0.00,0.00,29.72,M,0.25,M,OVC,M,M,M,100.00,M,M,M,FG,M,M,M,M,M,M,60.80,KMCJ 021455Z AUTO 00000KT M1/4SM FG OVC001 16/16 A2972 RMK A01,M
MCJ,2020-01-02 15:15,60.80,60.80,100.00,0.00,0.00,0.00,29.72,M,1.00,M,OVC,M,M,M,100.00,M,M,M,BR,M,M,M,M,M,M,60.80,KMCJ 021515Z AUTO 00000KT 1SM BR OVC001 16/16 A2972 RMK A01,M
MCJ,2020-01-02 15:35,60.80,60.80,100.00,0.00,0.00,0.00,29.73,M,0.25,M,OVC,M,M,M,100.00,M,M,M,FG,M,M,M,M,M,M,60.80,KMCJ 021535Z AUTO 00000KT 1/4SM FG OVC001 16/16 A2973 RMK A01,M
MCJ,2020-01-02 15:55,60.80,60.80,100.00,0.00,0.00,0.00,29.70,M,0.25,M,OVC,M,M,M,100.00,M,M,M,FG,M,M,M,M,M,M,60.80,KMCJ 021555Z AUTO 00000KT M1/4SM FG OVC001 16/16 A2970 RMK A01,M
MCJ,2020-01-02 16:15,60.80,60.80,100.00,0.00,0.00,0.00,29.71,M,0.25,M,OVC,M,M,M,100.00,M,M,M,FG,M,M,M,M,M,M,60.80,KMCJ 021615Z AUTO 00000KT M1/4SM FG OVC001 16/16 A2971 RMK A01,M
MCJ,2020-01-02 16:35,60.80,60.80,100.00,0.00,0.00,0.00,29.71,M,0.25,M,OVC,M,M,M,100.00,M,M,M,FG,M,M,M,M,M,M,60.80,KMCJ 021635Z AUTO 00000KT 1/4SM FG OVC001 16/16 A2971 RMK A01,M
MCJ,2020-01-02 16:55,60.80,60.80,100.00,0.00,0.00,0.00,29.70,M,0.25,M,OVC,M,M,M,100.00,M,M,M,FG,M,M,M,M,M,M,60.80,KMCJ 021655Z AUTO 00000KT 1/4SM FG OVC001 16/16 A2970 RMK A01,M
MCJ,2020-01-02 17:15,62.60,62.60,100.00,0.00,0.00,0.00,29.70,M,0.25,M,OVC,M,M,M,100.00,M,M,M,FG,M,M,M,M,M,M,62.60,KMCJ 021715Z AUTO 00000KT M1/4SM FG OVC001 17/17 A2970 RMK A01,M
MCJ,2020-01-02 17:35,62.60,62.60,100.00,0.00,0.00,0.00,29.69,M,0.25,M,OVC,M,M,M,100.00,M,M,M,FG,M,M,M,M,M,M,62.60,KMCJ 021735Z AUTO 00000KT M1/4SM FG OVC001 17/17 A2969 RMK A01,M
MCJ,2020-01-02 17:55,62.60,62.60,100.00,M,3.00,0.00,29.68,M,0.25,M,OVC,M,M,M,100.00,M,M,M,FG,M,M,M,M,M,M,62.60,KMCJ 021755Z AUTO VRB03KT M1/4SM FG OVC001 17/17 A2968 RMK A01,M
MCJ,2020-01-02 18:15,62.60,62.60,100.00,0.00,0.00,0.00,29.67,M,0.25,M,OVC,M,M,M,100.00,M,M,M,FG,M,M,M,M,M,M,62.60,KMCJ 021815Z AUTO 00000KT M1/4SM FG OVC001 17/17 A2967 RMK A01,M
MCJ,2020-01-02 18:35,62.60,62.60,100.00,0.00,0.00,0.00,29.66,M,0.25,M,OVC,M,M,M,100.00,M,M,M,FG,M,M,M,M,M,M,62.60,KMCJ 021835Z AUTO 00000KT 1/4SM FG OVC001 17/17 A2966 RMK A01,M
MCJ,2020-01-02 18:55,64.40,64.40,100.00,M,4.00,0.00,29.65,M,4.00,11.00,OVC,M,M,M,300.00,M,M,M,BR,M,M,M,M,M,M,64.40,KMCJ 021855Z AUTO VRB04G11KT 4SM BR OVC003 18/18 A2965 RMK A01,M
MCJ,2020-01-02 19:15,64.40,64.40,100.00,0.00,0.00,0.00,29.65,M,2.00,M,OVC,M,M,M,300.00,M,M,M,BR,M,M,M,M,M,M,64.40,KMCJ 021915Z AUTO 00000KT 2SM BR OVC003 18/18 A2965 RMK A01 VIS 1 1/2V4,M
MCJ,2020-01-02 19:35,62.60,64.40,M,0.00,0.00,0.00,29.63,M,3.00,M,OVC,M,M,M,400.00,M,M,M,BR,M,M,M,M,M,M,M,KMCJ 021935Z AUTO 00000KT 3SM BR OVC004 17/18 A2963 RMK A01,M
MCJ,2020-01-02 19:55,62.60,64.40,M,M,5.00,0.00,29.63,M,2.00,M,BKN,OVC,M,M,300.00,1300.00,M,M,BR,M,M,M,M,M,M,M,KMCJ 021955Z AUTO VRB05KT 2SM BR BKN003 OVC013 17/18 A2963 RMK A01,M
MCJ,2020-01-02 20:15,62.60,62.60,100.00,0.00,0.00,0.00,29.61,M,3.00,M,BKN,BKN,OVC,M,300.00,1200.00,8000.00,M,BR,M,M,M,M,M,M,62.60,KMCJ 022015Z AUTO 00000KT 3SM BR BKN003 BKN012 OVC080 17/17 A2961 RMK A01,M
MCJ,2020-01-02 20:35,62.60,62.60,100.00,0.00,0.00,0.00,29.61,M,7.00,M,FEW,SCT,OVC,M,400.00,900.00,8500.00,M,M,M,M,M,M,M,M,62.60,KMCJ 022035Z AUTO 00000KT 7SM FEW004 SCT009 OVC085 17/17 A2961 RMK A01,M
MCJ,2020-01-02 20:55,64.40,64.40,100.00,0.00,0.00,0.00,29.61,M,5.00,M,BKN,BKN,OVC,M,800.00,1200.00,9000.00,M,BR,M,M,M,M,M,M,64.40,KMCJ 022055Z AUTO 00000KT 5SM BR BKN008 BKN012 OVC090 18/18 A2961 RMK A01,M
MCJ,2020-01-02 21:15,64.40,64.40,100.00,0.00,0.00,0.00,29.61,M,6.00,M,SCT,OVC,M,M,800.00,1200.00,M,M,BR,M,M,M,M,M,M,64.40,KMCJ 022115Z AUTO 00000KT 6SM BR SCT008 OVC012 18/18 A2961 RMK A01,M
MCJ,2020-01-02 21:35,64.40,64.40,100.00,0.00,0.00,0.00,29.61,M,7.00,M,BKN,OVC,M,M,900.00,1200.00,M,M,M,M,M,M,M,M,M,64.40,KMCJ 022135Z AUTO 00000KT 7SM BKN009 OVC012 18/18 A2961 RMK A01,M
MCJ,2020-01-02 21:55,64.40,64.40,100.00,0.00,0.00,0.00,29.61,M,6.00,M,FEW,BKN,OVC,M,600.00,1000.00,9000.00,M,BR,M,M,M,M,M,M,64.40,KMCJ 022155Z AUTO 00000KT 6SM BR FEW006 BKN010 OVC090 18/18 A2961 RMK A01,M
MCJ,2020-01-02 22:15,64.40,64.40,100.00,M,5.00,0.00,29.63,M,3.00,10.00,SCT,SCT,BKN,M,900.00,3800.00,4600.00,M,BR,M,M,M,M,M,M,64.40,KMCJ 022215Z AUTO VRB05G10KT 3SM BR SCT009 SCT038 BKN046 18/18 A2963 RMK A01,M
MCJ,2020-01-02 22:35,64.40,64.40,100.00,0.00,0.00,0.00,29.61,M,6.00,M,FEW,FEW,FEW,M,1000.00,2400.00,3400.00,M,BR,M,M,M,M,M,M,64.40,KMCJ 022235Z AUTO 00000KT 6SM BR FEW010 FEW024 FEW034 18/18 A2961 RMK A01,M
MCJ,2020-01-02 22:55,64.40,64.40,100.00,M,4.00,0.00,29.62,M,3.00,M,CLR,M,M,M,M,M,M,M,BR,M,M,M,M,M,M,64.40,KMCJ 022255Z AUTO VRB04KT 3SM BR CLR 18/18 A2962 RMK A01,M
MCJ,2020-01-02 23:15,64.40,64.40,100.00,200.00,6.00,0.00,29.63,M,7.00,M,FEW,M,M,M,8500.00,M,M,M,M,M,M,M,M,M,M,64.40,KMCJ 022315Z AUTO 20006KT 7SM FEW085 18/18 A2963 RMK A01,M
MCJ,2020-01-02 23:35,64.40,64.40,100.00,M,3.00,0.00,29.62,M,9.00,12.00,SCT,M,M,M,8000.00,M,M,M,M,M,M,M,M,M,M,64.40,KMCJ 022335Z AUTO VRB03G12KT 9SM SCT080 18/18 A2962 RMK A01,M
MCJ,2020-01-02 23:55,64.40,62.60,93.88,M,4.00,0.00,29.63,M,9.00,M,SCT,M,M,M,8000.00,M,M,M,M,M,M,M,M,M,M,64.40,KMCJ 022355Z AUTO VRB04KT 9SM SCT080 18/17 A2963 RMK A01,M
MCJ,2020-01-03 00:15,64.40,62.60,93.88,0.00,0.00,0.00,29.64,M,9.00,M,BKN,M,M,M,8000.00,M,M,M,M,M,M,M,M,M,M,64.40,KMCJ 030015Z AUTO 00000KT 9SM BKN080 18/17 A2964 RMK A01,M
MCJ,2020-01-03 00:35,64.40,62.60,93.88,0.00,0.00,0.00,29.65,M,9.00,M,BKN,M,M,M,8000.00,M,M,M,M,M,M,M,M,M,M,64.40,KMCJ 030035Z AUTO 00000KT 9SM BKN080 18/17 A2965 RMK A01,M
MCJ,2020-01-03 00:55,64.40,64.40,100.00,0.00,0.00,0.00,29.63,M,6.00,M,BKN,M,M,M,8000.00,M,M,M,BR,M,M,M,M,M,M,64.40,KMCJ 030055Z AUTO 00000KT 6SM BR BKN080 18/18 A2963 RMK A01,M
MCJ,2020-01-03 01:15,64.40,62.60,93.88,0.00,0.00,0.00,29.64,M,10.00,M,BKN,M,M,M,8000.00,M,M,M,M,M,M,M,M,M,M,64.40,KMCJ 030115Z AUTO 00000KT 10SM BKN080 18/17 A2964 RMK A01,M
MCJ,2020-01-03 01:35,64.40,62.60,93.88,M,5.00,0.00,29.65,M,4.00,M,FEW,SCT,BKN,M,3400.00,4600.00,6500.00,M,BR,M,M,M,M,M,M,64.40,KMCJ 030135Z AUTO VRB05KT 4SM BR FEW034 SCT046 BKN065 18/17 A2965 RMK A01,M
MCJ,2020-01-03 01:55,64.40,62.60,93.88,M,4.00,0.00,29.66,M,7.00,M,FEW,FEW,M,M,4500.00,6500.00,M,M,M,M,M,M,M,M,M,64.40,KMCJ 030155Z AUTO VRB04KT 7SM FEW045 FEW065 18/17 A2966 RMK A01,M
MCJ,2020-01-03 02:15,64.40,62.60,93.88,M,6.00,0.00,29.67,M,8.00,M,CLR,M,M,M,M,M,M,M,M,M,M,M,M,M,M,64.40,KMCJ 030215Z AUTO VRB06KT 8SM CLR 18/17 A2967 RMK A01,M
MCJ,2020-01-03 02:35,64.40,62.60,93.88,M,4.00,0.00,29.66,M,5.00,10.00,FEW,M,M,M,11000.00,M,M,M,BR,M,M,M,M,M,M,64.40,KMCJ 030235Z AUTO VRB04G10KT 5SM BR FEW110 18/17 A2966 RMK A01,M
MCJ,2020-01-03 02:55,64.40,60.80,88.09,200.00,7.00,0.00,29.69,M,10.00,M,FEW,M,M,M,11000.00,M,M,M,M,M,M,M,M,M,M,64.40,KMCJ 030255Z AUTO 20007KT 140V230 10SM FEW110 18/16 A2969 RMK A01,M
MCJ,2020-01-03 03:15,64.40,60.80,88.09,M,5.00,0.00,29.69,M,9.00,M,CLR,M,M,M,M,M,M,M,M,M,M,M,M,M,M,64.40,KMCJ 030315Z AUTO VRB05KT 9SM CLR 18/16 A2969 RMK A01,M
MCJ,2020-01-03 03:35,64.40,60.80,88.09,M,5.00,0.00,29.70,M,7.00,10.00,SCT,M,M,M,12000.00,M,M,M,M,M,M,M,M,M,M,64.40,KMCJ 030335Z AUTO VRB05G10KT 7SM SCT120 18/16 A2970 RMK A01,M
MCJ,2020-01-03 03:55,64.40,60.80,88.09,200.00,9.00,0.00,29.70,M,10.00,M,BKN,M,M,M,12000.00,M,M,M,M,M,M,M,M,M,M,64.40,KMCJ 030355Z AUTO 20009KT 150V230 10SM BKN120 18/16 A2970 RMK A01,M
MCJ,2020-01-03 04:15,64.40,60.80,88.09,M,5.00,0.00,29.71,M,9.00,12.00,SCT,M,M,M,12000.00,M,M,M,M,M,M,M,M,M,M,64.40,KMCJ 030415Z AUTO VRB05G12KT 9SM SCT120 18/16 A2971 RMK A01,M
MCJ,2020-01-03 04:35,62.60,60.80,93.83,M,5.00,0.00,29.71,M,9.00,M,FEW,M,M,M,12000.00,M,M,M,M,M,M,M,M,M,M,62.60,KMCJ 030435Z AUTO VRB05KT 9SM FEW120 17/16 A2971 RMK A01,M
MCJ,2020-01-03 04:55,62.60,60.80,93.83,M,3.00,0.00,29.71,M,7.00,10.00,FEW,M,M,M,12000.00,M,M,M,M,M,M,M,M,M,M,62.60,KMCJ 030455Z AUTO VRB03G10KT 7SM FEW120 17/16 A2971 RMK A01,M
MCJ,2020-01-03 05:15,62.60,60.80,93.83,M,5.00,0.00,29.72,M,9.00,M,FEW,M,M,M,12000.00,M,M,M,M,M,M,M,M,M,M,62.60,KMCJ 030515Z AUTO VRB05KT 9SM FEW120 17/16 A2972 RMK A01,M
MCJ,2020-01-03 05:35,62.60,59.00,88.00,M,5.00,0.00,29.73,M,10.00,10.00,CLR,M,M,M,M,M,M,M,M,M,M,M,M,M,M,62.60,KMCJ 030535Z AUTO VRB05G10KT 10SM CLR 17/15 A2973 RMK A01,M
MCJ,2020-01-03 05:55,62.60,59.00,88.00,M,5.00,0.00,29.73,M,7.00,12.00,CLR,M,M,M,M,M,M,M,M,M,M,M,M,M,M,62.60,KMCJ 030555Z AUTO VRB05G12KT 7SM CLR 17/15 A2973 RMK A01,M
MCJ,2020-01-03 06:15,62.60,59.00,88.00,0.00,0.00,0.00,29.73,M,9.00,M,CLR,M,M,M,M,M,M,M,M,M,M,M,M,M,M,62.60,KMCJ 030615Z AUTO 00000KT 9SM CLR 17/15 A2973 RMK A01,M
MCJ,2020-01-03 06:35,62.60,60.80,93.83,0.00,0.00,0.00,29.73,M,10.00,M,CLR,M,M,M,M,M,M,M,M,M,M,M,M,M,M,62.60,KMCJ 030635Z AUTO 00000KT 10SM CLR 17/16 A2973 RMK A01,M
MCJ,2020-01-03 06:55,60.80,60.80,100.00,0.00,0.00,0.00,29.72,M,9.00,M,CLR,M,M,M,M,M,M,M,M,M,M,M,M,M,M,60.80,KMCJ 030655Z AUTO 00000KT 9SM CLR 16/16 A2972 RMK A01,M
MCJ,2020-01-03 07:15,60.80,60.80,100.00,M,3.00,0.00,29.73,M,8.00,M,CLR,M,M,M,M,M,M,M,M,M,M,M,M,M,M,60.80,KMCJ 030715Z AUTO VRB03KT 8SM CLR 16/16 A2973 RMK A01,M
MCJ,2020-01-03 07:35,60.80,59.00,93.79,0.00,0.00,0.00,29.72,M,10.00,M,CLR,M,M,M,M,M,M,M,M,M,M,M,M,M,M,60.80,KMCJ 030735Z AUTO 00000KT 10SM CLR 16/15 A2972 RMK A01,M
MCJ,2020-01-03 07:55,60.80,59.00,93.79,M,4.00,0.00,29.72,M,8.00,M,CLR,M,M,M,M,M,M,M,M,M,M,M,M,M,M,60.80,KMCJ 030755Z AUTO VRB04KT 8SM CLR 16/15 A2972 RMK A01,M
MCJ,2020-01-03 08:15,60.80,59.00,93.79,250.00,7.00,0.00,29.72,M,10.00,M,CLR,M,M,M,M,M,M,M,M,M,M,M,M,M,M,60.80,KMCJ 030815Z AUTO 25007KT 10SM CLR 16/15 A2972 RMK A01,M
MCJ,2020-01-03 08:35,60.80,59.00,93.79,0.00,0.00,0.00,29.73,M,10.00,M,CLR,M,M,M,M,M,M,M,M,M,M,M,M,M,M,60.80,KMCJ 030835Z AUTO 00000KT 10SM CLR 16/15 A2973 RMK A01,M
MCJ,2020-01-03 08:55,60.80,59.00,93.79,250.00,6.00,0.00,29.73,M,10.00,M,CLR,M,M,M,M,M,M,M,M,M,M,M,M,M,M,60.80,KMCJ 030855Z AUTO 25006KT 10SM CLR 16/15 A2973 RMK A01,M
MCJ,2020-01-03 09:15,60.80,59.00,93.79,0.00,0.00,0.00,29.74,M,10.00,M,CLR,M,M,M,M,M,M,M,M,M,M,M,M,M,M,60.80,KMCJ 030915Z AUTO 00000KT 10SM CLR 16/15 A2974 RMK A01,M
MCJ,2020-01-03 09:35,59.00,59.00,100.00,0.00,0.00,0.00,29.74,M,6.00,M,CLR,M,M,M,M,M,M,M,BR,M,M,M,M,M,M,59.00,KMCJ 030935Z AUTO 00000KT 6SM BR CLR 15/15 A2974 RMK A01,M
MCJ,2020-01-03 09:55,59.00,59.00,100.00,0.00,0.00,0.00,29.73,M,9.00,M,CLR,M,M,M,M,M,M,M,M,M,M,M,M,M,M,59.00,KMCJ 030955Z AUTO 00000KT 9SM CLR 15/15 A2973 RMK A01,M
MCJ,2020-01-03 10:15,59.00,59.00,100.00,0.00,0.00,0.00,29.75,M,5.00,M,SCT,M,M,M,12000.00,M,M,M,BR,M,M,M,M,M,M,59.00,KMCJ 031015Z AUTO 00000KT 5SM BR SCT120 15/15 A2975 RMK A01,M
MCJ,2020-01-03 10:35,59.00,59.00,100.00,0.00,0.00,0.00,29.76,M,10.00,M,SCT,M,M,M,12000.00,M,M,M,M,M,M,M,M,M,M,59.00,KMCJ 031035Z AUTO 00000KT 10SM SCT120 15/15 A2976 RMK A01,M
MCJ,2020-01-03 10:55,59.00,59.00,100.00,0.00,0.00,0.00,29.77,M,10.00,M,FEW,M,M,M,12000.00,M,M,M,M,M,M,M,M,M,M,59.00,KMCJ 031055Z AUTO 00000KT 10SM FEW120 15/15 A2977 RMK A01,M
MCJ,2020-01-03 11:15,59.00,57.20,93.74,0.00,0.00,0.00,29.77,M,10.00,M,CLR,M,M,M,M,M,M,M,M,M,M,M,M,M,M,59.00,KMCJ 031115Z AUTO 00000KT 10SM CLR 15/14 A2977 RMK A01,M
MCJ,2020-01-03 11:35,60.80,57.20,87.92,0.00,0.00,0.00,29.78,M,10.00,M,CLR,M,M,M,M,M,M,M,M,M,M,M,M,M,M,60.80,KMCJ 031135Z AUTO 00000KT 10SM CLR 16/14 A2978 RMK A01,M
MCJ,2020-01-03 11:55,59.00,57.20,93.74,0.00,0.00,0.00,29.79,M,8.00,M,CLR,M,M,M,M,M,M,M,M,M,M,M,M,M,M,59.00,KMCJ 031155Z AUTO 00000KT 8SM CLR 15/14 A2979 RMK A01,M
MCJ,2020-01-03 12:15,59.00,57.20,93.74,250.00,3.00,0.00,29.80,M,7.00,M,CLR,M,M,M,M,M,M,M,M,M,M,M,M,M,M,59.00,KMCJ 031215Z AUTO 25003KT 7SM CLR 15/14 A2980 RMK A01,M
MCJ,2020-01-03 12:55,59.00,57.20,93.74,0.00,0.00,0.00,29.82,M,5.00,M,CLR,M,M,M,M,M,M,M,BR,M,M,M,M,M,M,59.00,KMCJ 031255Z AUTO 00000KT 5SM BR CLR 15/14 A2982 RMK A01,M
MCJ,2020-01-03 13:15,59.00,55.40,87.83,0.00,0.00,0.00,29.82,M,10.00,M,CLR,M,M,M,M,M,M,M,M,M,M,M,M,M,M,59.00,KMCJ 031315Z AUTO 00000KT 10SM CLR 15/13 A2982 RMK A01,M
MCJ,2020-01-03 13:35,59.00,55.40,87.83,0.00,0.00,0.00,29.82,M,10.00,M,CLR,M,M,M,M,M,M,M,M,M,M,M,M,M,M,59.00,KMCJ 031335Z AUTO 00000KT 10SM CLR 15/13 A2982 RMK A01,M
MCJ,2020-01-03 13:55,59.00,55.40,87.83,0.00,0.00,0.00,29.82,M,9.00,M,CLR,M,M,M,M,M,M,M,M,M,M,M,M,M,M,59.00,KMCJ 031355Z AUTO 00000KT 9SM CLR 15/13 A2982 RMK A01,M
MCJ,2020-01-03 14:15,59.00,57.20,93.74,0.00,0.00,0.00,29.84,M,9.00,M,CLR,M,M,M,M,M,M,M,M,M,M,M,M,M,M,59.00,KMCJ 031415Z AUTO 00000KT 9SM CLR 15/14 A2984 RMK A01,M
MCJ,2020-01-03 14:35,57.20,55.40,93.69,0.00,0.00,0.00,29.84,M,6.00,M,CLR,M,M,M,M,M,M,M,BR,M,M,M,M,M,M,57.20,KMCJ 031435Z AUTO 00000KT 6SM BR CLR 14/13 A2984 RMK A01,M
MCJ,2020-01-03 14:55,59.00,55.40,87.83,0.00,0.00,0.00,29.84,M,10.00,M,CLR,M,M,M,M,M,M,M,M,M,M,M,M,M,M,59.00,KMCJ 031455Z AUTO 00000KT 10SM CLR 15/13 A2984 RMK A01,M
MCJ,2020-01-03 15:15,59.00,53.60,82.25,0.00,0.00,0.00,29.86,M,10.00,M,CLR,M,M,M,M,M,M,M,M,M,M,M,M,M,M,59.00,KMCJ 031515Z AUTO 00000KT 10SM CLR 15/12 A2986 RMK A01,M
MCJ,2020-01-03 15:35,60.80,53.60,77.14,M,3.00,0.00,29.87,M,10.00,M,BKN,M,M,M,12000.00,M,M,M,M,M,M,M,M,M,M,60.80,KMCJ 031535Z AUTO VRB03KT 10SM BKN120 16/12 A2987 RMK A01,M
MCJ,2020-01-03 15:55,60.80,51.80,72.20,290.00,7.00,0.00,29.89,M,10.00,13.00,BKN,M,M,M,12000.00,M,M,M,M,M,M,M,M,M,M,60.80,KMCJ 031555Z AUTO 29007G13KT 270V350 10SM BKN120 16/11 A2989 RMK A01,M
MCJ,2020-01-03 16:15,62.60,50.00,63.38,M,4.00,0.00,29.89,M,10.00,10.00,FEW,M,M,M,12000.00,M,M,M,M,M,M,M,M,M,M,62.60,KMCJ 031615Z AUTO VRB04G10KT 10SM FEW120 17/10 A2989 RMK A01,M
MCJ,2020-01-03 16:35,64.40,50.00,59.50,M,4.00,0.00,29.89,M,10.00,M,CLR,M,M,M,M,M,M,M,M,M,M,M,M,M,M,64.40,KMCJ 031635Z AUTO VRB04KT 10SM CLR 18/10 A2989 RMK A01,M
MCJ,2020-01-03 16:55,64.40,48.20,55.63,300.00,7.00,0.00,29.89,M,10.00,M,CLR,M,M,M,M,M,M,M,M,M,M,M,M,M,M,64.40,KMCJ 031655Z AUTO 30007KT 270V330 10SM CLR 18/09 A2989 RMK A01,M
MCJ,2020-01-03 17:15,66.20,48.20,52.25,0.00,0.00,0.00,29.89,M,10.00,M,SCT,M,M,M,12000.00,M,M,M,M,M,M,M,M,M,M,66.20,KMCJ 031715Z AUTO 00000KT 10SM SCT120 19/09 A2989 RMK A01,M
MCJ,2020-01-03 17:35,66.20,46.40,48.83,0.00,0.00,0.00,29.89,M,9.00,M,SCT,M,M,M,12000.00,M,M,M,M,M,M,M,M,M,M,66.20,KMCJ 031735Z AUTO 00000KT 9SM SCT120 19/08 A2989 RMK A01,M
MCJ,2020-01-03 17:55,66.20,48.20,52.25,0.00,0.00,0.00,29.90,M,10.00,M,BKN,M,M,M,12000.00,M,M,M,M,M,M,M,M,M,M,66.20,KMCJ 031755Z AUTO 00000KT 10SM BKN120 19/09 A2990 RMK A01,M
MCJ,2020-01-03 18:15,68.00,48.20,49.10,M,5.00,0.00,29.90,M,10.00,M,FEW,M,M,M,12000.00,M,M,M,M,M,M,M,M,M,M,68.00,KMCJ 031815Z AUTO VRB05KT 10SM FEW120 20/09 A2990 RMK A01,M
MCJ,2020-01-03 18:35,68.00,48.20,49.10,M,3.00,0.00,29.89,M,10.00,M,CLR,M,M,M,M,M,M,M,M,M,M,M,M,M,M,68.00,KMCJ 031835Z AUTO VRB03KT 10SM CLR 20/09 A2989 RMK A01,M
MCJ,2020-01-03 18:55,69.80,46.40,43.13,0.00,0.00,0.00,29.88,M,9.00,M,CLR,M,M,M,M,M,M,M,M,M,M,M,M,M,M,69.80,KMCJ 031855Z AUTO 00000KT 9SM CLR 21/08 A2988 RMK A01,M
MCJ,2020-01-03 19:15,69.80,46.40,43.13,M,3.00,0.00,29.87,M,10.00,M,CLR,M,M,M,M,M,M,M,M,M,M,M,M,M,M,69.80,KMCJ 031915Z AUTO VRB03KT 10SM CLR 21/08 A2987 RMK A01,M
MCJ,2020-01-03 19:35,68.00,46.40,45.88,M,6.00,0.00,29.88,M,10.00,11.00,CLR,M,M,M,M,M,M,M,M,M,M,M,M,M,M,68.00,KMCJ 031935Z AUTO VRB06G11KT 10SM CLR 20/08 A2988 RMK A01,M
MCJ,2020-01-03 19:55,69.80,44.60,40.29,M,5.00,0.00,29.88,M,10.00,12.00,CLR,M,M,M,M,M,M,M,M,M,M,M,M,M,M,69.80,KMCJ 031955Z AUTO VRB05G12KT 10SM CLR 21/07 A2988 RMK A01,M
MCJ,2020-01-03 20:15,69.80,42.80,37.61,300.00,7.00,0.00,29.89,M,10.00,15.00,CLR,M,M,M,M,M,M,M,M,M,M,M,M,M,M,69.80,KMCJ 032015Z AUTO 30007G15KT 280V340 10SM CLR 21/06 A2989 RMK A01,M
MCJ,2020-01-03 20:35,68.00,44.60,42.85,320.00,8.00,0.00,29.89,M,10.00,M,CLR,M,M,M,M,M,M,M,M,M,M,M,M,M,M,68.00,KMCJ 032035Z AUTO 32008KT 290V360 10SM CLR 20/07 A2989 RMK A01,M
MCJ,2020-01-03 20:55,69.80,44.60,40.29,300.00,7.00,0.00,29.90,M,9.00,M,CLR,M,M,M,M,M,M,M,M,M,M,M,M,M,M,69.80,KMCJ 032055Z AUTO 30007KT 260V320 9SM CLR 21/07 A2990 RMK A01,M
MCJ,2020-01-03 21:15,69.80,46.40,43.13,300.00,8.00,0.00,29.91,M,10.00,14.00,CLR,M,M,M,M,M,M,M,M,M,M,M,M,M,M,69.80,KMCJ 032115Z AUTO 30008G14KT 10SM CLR 21/08 A2991 RMK A01,M
MCJ,2020-01-03 21:35,68.00,48.20,49.10,300.00,9.00,0.00,29.92,M,9.00,14.00,CLR,M,M,M,M,M,M,M,M,M,M,M,M,M,M,68.00,KMCJ 032135Z AUTO 30009G14KT 280V340 9SM CLR 20/09 A2992 RMK A01,M
MCJ,2020-01-03 21:55,66.20,50.00,55.88,310.00,9.00,0.00,29.93,M,10.00,17.00,CLR,M,M,M,M,M,M,M,M,M,M,M,M,M,M,66.20,KMCJ 032155Z AUTO 31009G17KT 280V340 10SM CLR 19/10 A2993 RMK A01,M
MCJ,2020-01-03 22:15,64.40,50.00,59.50,310.00,11.00,0.00,29.95,M,10.00,19.00,CLR,M,M,M,M,M,M,M,M,M,M,M,M,M,M,64.40,KMCJ 032215Z AUTO 31011G19KT 10SM CLR 18/10 A2995 RMK A01,M
MCJ,2020-01-03 22:35,60.80,48.20,63.15,300.00,11.00,0.00,29.97,M,9.00,16.00,CLR,M,M,M,M,M,M,M,M,M,M,M,M,M,M,60.80,KMCJ 032235Z AUTO 30011G16KT 9SM CLR 16/09 A2997 RMK A01,M
MCJ,2020-01-03 22:55,59.00,48.20,67.33,320.00,11.00,0.00,29.99,M,9.00,19.00,BKN,M,M,M,1900.00,M,M,M,M,M,M,M,M,M,M,59.00,KMCJ 032255Z AUTO 32011G19KT 9SM BKN019 15/09 A2999 RMK A01,M
MCJ,2020-01-03 23:15,57.20,48.20,71.83,310.00,9.00,0.00,30.00,M,9.00,21.00,M,M,M,M,M,M,M,M,M,M,M,M,M,M,M,57.20,KMCJ 032315Z AUTO 31009G21KT 270V360 9SM 14/09 A3000 RMK A01,M
MCJ,2020-01-03 23:35,57.20,48.20,71.83,310.00,9.00,0.00,30.01,M,9.00,14.00,OVC,M,M,M,1800.00,M,M,M,M,M,M,M,M,M,M,57.20,KMCJ 032335Z AUTO 31009G14KT 290V010 9SM OVC018 14/09 A3001 RMK A01,M
MCJ,2020-01-03 23:55,57.20,48.20,71.83,M,6.00,0.00,30.02,M,8.00,M,SCT,M,M,M,1800.00,M,M,M,M,M,M,M,M,M,M,57.20,KMCJ 032355Z AUTO VRB06KT 8SM SCT018 14/09 A3002 RMK A01,M
MCJ,2020-01-04 00:15,55.40,48.20,76.66,290.00,9.00,0.00,30.03,M,10.00,M,CLR,M,M,M,M,M,M,M,M,M,M,M,M,M,M,55.40,KMCJ 040015Z AUTO 29009KT 10SM CLR 13/09 A3003 RMK A01,M
MCJ,2020-01-04 00:35,55.40,48.20,76.66,320.00,5.00,0.00,30.04,M,10.00,M,CLR,M,M,M,M,M,M,M,M,M,M,M,M,M,M,55.40,KMCJ 040035Z AUTO 32005KT 10SM CLR 13/09 A3004 RMK A01,M
MCJ,2020-01-04 00:55,55.40,48.20,76.66,320.00,4.00,0.00,30.05,M,10.00,M,CLR,M,M,M,M,M,M,M,M,M,M,M,M,M,M,55.40,KMCJ 040055Z AUTO 32004KT 10SM CLR 13/09 A3005 RMK A01,M
MCJ,2020-01-04 01:15,55.40,48.20,76.66,M,5.00,0.00,30.06,M,10.00,M,CLR,M,M,M,M,M,M,M,M,M,M,M,M,M,M,55.40,KMCJ 040115Z AUTO VRB05KT 10SM CLR 13/09 A3006 RMK A01,M
MCJ,2020-01-04 01:35,55.40,48.20,76.66,300.00,6.00,0.00,30.07,M,10.00,M,CLR,M,M,M,M,M,M,M,M,M,M,M,M,M,M,55.40,KMCJ 040135Z AUTO 30006KT 10SM CLR 13/09 A3007 RMK A01,M
MCJ,2020-01-04 01:55,55.40,48.20,76.66,0.00,0.00,0.00,30.08,M,10.00,M,CLR,M,M,M,M,M,M,M,M,M,M,M,M,M,M,55.40,KMCJ 040155Z AUTO 00000KT 10SM CLR 13/09 A3008 RMK A01,M
MCJ,2020-01-04 02:15,55.40,48.20,76.66,M,3.00,0.00,30.09,M,10.00,11.00,CLR,M,M,M,M,M,M,M,M,M,M,M,M,M,M,55.40,KMCJ 040215Z AUTO VRB03G11KT 10SM CLR 13/09 A3009 RMK A01,M
MCJ,2020-01-04 02:35,55.40,48.20,76.66,M,4.00,0.00,30.10,M,10.00,M,CLR,M,M,M,M,M,M,M,M,M,M,M,M,M,M,55.40,KMCJ 040235Z AUTO VRB04KT 10SM CLR 13/09 A3010 RMK A01,M
MCJ,2020-01-04 02:55,55.40,48.20,76.66,260.00,6.00,0.00,30.11,M,10.00,M,CLR,M,M,M,M,M,M,M,M,M,M,M,M,M,M,55.40,KMCJ 040255Z AUTO 26006KT 10SM CLR 13/09 A3011 RMK A01,M
MCJ,2020-01-04 03:15,55.40,48.20,76.66,M,5.00,0.00,30.12,M,9.00,10.00,CLR,M,M,M,M,M,M,M,M,M,M,M,M,M,M,55.40,KMCJ 040315Z AUTO VRB05G10KT 9SM CLR 13/09 A3012 RMK A01,M
MCJ,2020-01-04 03:35,55.40,48.20,76.66,260.00,6.00,0.00,30.13,M,10.00,M,CLR,M,M,M,M,M,M,M,M,M,M,M,M,M,M,55.40,KMCJ 040335Z AUTO 26006KT 10SM CLR 13/09 A3013 RMK A01,M
MCJ,2020-01-04 03:55,55.40,46.40,71.64,300.00,9.00,0.00,30.14,M,10.00,15.00,CLR,M,M,M,M,M,M,M,M,M,M,M,M,M,M,55.40,KMCJ 040355Z AUTO 30009G15KT 270V340 10SM CLR 13/08 A3014 RMK A01,M
MCJ,2020-01-04 04:15,57.20,42.80,58.52,M,6.00,0.00,30.16,M,10.00,15.00,CLR,M,M,M,M,M,M,M,M,M,M,M,M,M,M,57.20,KMCJ 040415Z AUTO VRB06G15KT 10SM CLR 14/06 A3016 RMK A01,M
MCJ,2020-01-04 04:35,57.20,44.60,62.69,300.00,14.00,0.00,30.16,M,10.00,19.00,CLR,M,M,M,M,M,M,M,M,M,M,M,M,M,M,57.20,KMCJ 040435Z AUTO 30014G19KT 10SM CLR 14/07 A3016 RMK A01,M
MCJ,2020-01-04 04:55,55.40,42.80,62.46,310.00,8.00,0.00,30.17,M,10.00,16.00,CLR,M,M,M,M,M,M,M,M,M,M,M,M,M,M,55.40,KMCJ 040455Z AUTO 31008G16KT 10SM CLR 13/06 A3017 RMK A01,M
MCJ,2020-01-04 05:15,55.40,41.00,58.27,310.00,10.00,0.00,30.17,M,10.00,17.00,CLR,M,M,M,M,M,M,M,M,M,M,M,M,M,M,55.40,KMCJ 040515Z AUTO 31010G17KT 10SM CLR 13/05 A3017 RMK A01,M
MCJ,2020-01-04 05:35,55.40,39.20,54.34,320.00,9.00,0.00,30.18,M,10.00,15.00,CLR,M,M,M,M,M,M,M,M,M,M,M,M,M,M,55.40,KMCJ 040535Z AUTO 32009G15KT 280V340 10SM CLR 13/04 A3018 RMK A01,M
MCJ,2020-01-04 05:55,55.40,39.20,54.34,310.00,8.00,0.00,30.18,M,10.00,13.00,CLR,M,M,M,M,M,M,M,M,M,M,M,M,M,M,55.40,KMCJ 040555Z AUTO 31008G13KT 10SM CLR 13/04 A3018 RMK A01,M
MCJ,2020-01-04 06:15,53.60,39.20,58.02,310.00,8.00,0.00,30.19,M,10.00,M,CLR,M,M,M,M,M,M,M,M,M,M,M,M,M,M,53.60,KMCJ 040615Z AUTO 31008KT 280V340 10SM CLR 12/04 A3019 RMK A01,M
MCJ,2020-01-04 06:35,53.60,39.20,58.02,M,6.00,0.00,30.19,M,10.00,M,CLR,M,M,M,M,M,M,M,M,M,M,M,M,M,M,53.60,KMCJ 040635Z AUTO VRB06KT 10SM CLR 12/04 A3019 RMK A01,M
MCJ,2020-01-04 06:55,51.80,37.40,57.77,320.00,7.00,0.00,30.19,M,10.00,12.00,CLR,M,M,M,M,M,M,M,M,M,M,M,M,M,M,51.80,KMCJ 040655Z AUTO 32007G12KT 10SM CLR 11/03 A3019 RMK A01,M
MCJ,2020-01-04 07:15,53.60,37.40,54.07,310.00,9.00,0.00,30.19,M,10.00,M,CLR,M,M,M,M,M,M,M,M,M,M,M,M,M,M,53.60,KMCJ 040715Z AUTO 31009KT 250V330 10SM CLR 12/03 A3019 RMK A01,M
MCJ,2020-01-04 07:35,53.60,35.60,50.36,320.00,9.00,0.00,30.19,M,10.00,M,CLR,M,M,M,M,M,M,M,M,M,M,M,M,M,M,53.60,KMCJ 040735Z AUTO 32009KT 10SM CLR 12/02 A3019 RMK A01,M
MCJ,2020-01-04 07:55,51.80,35.60,53.81,320.00,9.00,0.00,30.20,M,10.00,14.00,CLR,M,M,M,M,M,M,M,M,M,M,M,M,M,M,51.80,KMCJ 040755Z AUTO 32009G14KT 290V350 10SM CLR 11/02 A3020 RMK A01,M
MCJ,2020-01-04 08:15,51.80,35.60,53.81,M,7.00,0.00,30.20,M,10.00,15.00,CLR,M,M,M,M,M,M,M,M,M,M,M,M,M,M,51.80,KMCJ 040815Z AUTO VRB07G15KT 10SM CLR 11/02 A3020 RMK A01,M
MCJ,2020-01-04 08:35,51.80,35.60,53.81,M,6.00,0.00,30.21,M,10.00,11.00,CLR,M,M,M,M,M,M,M,M,M,M,M,M,M,M,51.80,KMCJ 040835Z AUTO VRB06G11KT 10SM CLR 11/02 A3021 RMK A01,M
MCJ,2020-01-04 08:55,50.00,35.60,57.52,M,5.00,0.00,30.21,M,10.00,M,CLR,M,M,M,M,M,M,M,M,M,M,M,M,M,M,47.77,KMCJ 040855Z AUTO VRB05KT 10SM CLR 10/02 A3021 RMK A01,M
MCJ,2020-01-04 09:15,50.00,35.60,57.52,320.00,7.00,0.00,30.22,M,10.00,M,CLR,M,M,M,M,M,M,M,M,M,M,M,M,M,M,46.72,KMCJ 040915Z AUTO 32007KT 10SM CLR 10/02 A3022 RMK A01,M
MCJ,2020-01-04 09:35,50.00,35.60,57.52,M,4.00,0.00,30.22,M,10.00,10.00,CLR,M,M,M,M,M,M,M,M,M,M,M,M,M,M,48.44,KMCJ 040935Z AUTO VRB04G10KT 10SM CLR 10/02 A3022 RMK A01,M
MCJ,2020-01-04 09:55,50.00,35.60,57.52,320.00,4.00,0.00,30.23,M,10.00,10.00,CLR,M,M,M,M,M,M,M,M,M,M,M,M,M,M,48.44,KMCJ 040955Z AUTO 32004G10KT 10SM CLR 10/02 A3023 RMK A01,M
MCJ,2020-01-04 10:15,48.20,35.60,61.52,320.00,7.00,0.00,30.23,M,10.00,M,CLR,M,M,M,M,M,M,M,M,M,M,M,M,M,M,44.53,KMCJ 041015Z AUTO 32007KT 10SM CLR 09/02 A3023 RMK A01,M
MCJ,2020-01-04 10:35,48.20,33.80,57.26,320.00,10.00,0.00,30.24,M,10.00,M,CLR,M,M,M,M,M,M,M,M,M,M,M,M,M,M,43.28,KMCJ 041035Z AUTO 32010KT 10SM CLR 09/01 A3024 RMK A01,M
MCJ,2020-01-04 10:55,48.20,33.80,57.26,330.00,9.00,0.00,30.24,M,10.00,M,CLR,M,M,M,M,M,M,M,M,M,M,M,M,M,M,43.66,KMCJ 041055Z AUTO 33009KT 310V050 10SM CLR 09/01 A3024 RMK A01,M
MCJ,2020-01-04 11:15,48.20,33.80,57.26,330.00,9.00,0.00,30.25,M,10.00,M,CLR,M,M,M,M,M,M,M,M,M,M,M,M,M,M,43.66,KMCJ 041115Z AUTO 33009KT 10SM CLR 09/01 A3025 RMK A01,M
MCJ,2020-01-04 11:35,48.20,33.80,57.26,330.00,10.00,0.00,30.25,M,10.00,M,CLR,M,M,M,M,M,M,M,M,M,M,M,M,M,M,43.28,KMCJ 041135Z AUTO 33010KT 10SM CLR 09/01 A3025 RMK A01,M
MCJ,2020-01-04 11:55,48.20,33.80,57.26,330.00,11.00,0.00,30.26,M,10.00,M,CLR,M,M,M,M,M,M,M,M,M,M,M,M,M,M,42.94,KMCJ 041155Z AUTO 33011KT 10SM CLR 09/01 A3026 RMK A01,M
MCJ,2020-01-04 12:15,48.20,33.80,57.26,330.00,9.00,0.00,30.28,M,10.00,M,CLR,M,M,M,M,M,M,M,M,M,M,M,M,M,M,43.66,KMCJ 041215Z AUTO 33009KT 10SM CLR 09/01 A3028 RMK A01,M
MCJ,2020-01-04 12:35,48.20,33.80,57.26,320.00,9.00,0.00,30.28,M,10.00,M,CLR,M,M,M,M,M,M,M,M,M,M,M,M,M,M,43.66,KMCJ 041235Z AUTO 32009KT 10SM CLR 09/01 A3028 RMK A01,M
MCJ,2020-01-04 12:55,48.20,33.80,57.26,320.00,3.00,0.00,30.29,M,10.00,11.00,CLR,M,M,M,M,M,M,M,M,M,M,M,M,M,M,47.21,KMCJ 041255Z AUTO 32003G11KT 10SM CLR 09/01 A3029 RMK A01,M
MCJ,2020-01-04 13:15,46.40,33.80,61.28,M,5.00,0.00,30.30,M,10.00,10.00,CLR,M,M,M,M,M,M,M,M,M,M,M,M,M,M,43.50,KMCJ 041315Z AUTO VRB05G10KT 10SM CLR 08/01 A3030 RMK A01,M
MCJ,2020-01-04 13:35,46.40,33.80,61.28,330.00,6.00,0.00,30.31,M,10.00,M,CLR,M,M,M,M,M,M,M,M,M,M,M,M,M,M,42.87,KMCJ 041335Z AUTO 33006KT 10SM CLR 08/01 A3031 RMK A01,M
MCJ,2020-01-04 13:55,48.20,33.80,57.26,320.00,8.00,0.00,30.32,M,10.00,M,CLR,M,M,M,M,M,M,M,M,M,M,M,M,M,M,44.07,KMCJ 041355Z AUTO 32008KT 10SM CLR 09/01 A3032 RMK A01,M
MCJ,2020-01-04 14:15,48.20,33.80,57.26,320.00,6.00,0.00,30.33,M,10.00,M,CLR,M,M,M,M,M,M,M,M,M,M,M,M,M,M,45.04,KMCJ 041415Z AUTO 32006KT 10SM CLR 09/01 A3033 RMK A01,M
MCJ,2020-01-04 14:35,48.20,33.80,57.26,0.00,0.00,0.00,30.35,M,10.00,M,CLR,M,M,M,M,M,M,M,M,M,M,M,M,M,M,48.20,KMCJ 041435Z AUTO 00000KT 10SM CLR 09/01 A3035 RMK A01,M
MCJ,2020-01-04 14:55,48.20,35.60,61.52,0.00,0.00,0.00,30.35,M,10.00,M,CLR,M,M,M,M,M,M,M,M,M,M,M,M,M,M,48.20,KMCJ 041455Z AUTO 00000KT 10SM CLR 09/02 A3035 RMK A01,M
MCJ,2020-01-04 15:15,50.00,35.60,57.52,0.00,0.00,0.00,30.36,M,10.00,M,CLR,M,M,M,M,M,M,M,M,M,M,M,M,M,M,50.00,KMCJ 041515Z AUTO 00000KT 10SM CLR 10/02 A3036 RMK A01,M
MCJ,2020-01-04 15:35,53.60,35.60,50.36,0.00,0.00,0.00,30.37,M,9.00,M,CLR,M,M,M,M,M,M,M,M,M,M,M,M,M,M,53.60,KMCJ 041535Z AUTO 00000KT 9SM CLR 12/02 A3037 RMK A01,M
MCJ,2020-01-04 15:55,55.40,35.60,47.16,0.00,0.00,0.00,30.38,M,9.00,M,CLR,M,M,M,M,M,M,M,M,M,M,M,M,M,M,55.40,KMCJ 041555Z AUTO 00000KT 9SM CLR 13/02 A3038 RMK A01,M
MCJ,2020-01-04 16:15,57.20,35.60,44.19,0.00,0.00,0.00,30.39,M,10.00,M,CLR,M,M,M,M,M,M,M,M,M,M,M,M,M,M,57.20,KMCJ 041615Z AUTO 00000KT 10SM CLR 14/02 A3039 RMK A01,M
MCJ,2020-01-04 16:35,59.00,33.80,38.56,0.00,0.00,0.00,30.39,M,9.00,M,CLR,M,M,M,M,M,M,M,M,M,M,M,M,M,M,59.00,KMCJ 041635Z AUTO 00000KT 9SM CLR 15/01 A3039 RMK A01,M
MCJ,2020-01-04 16:55,59.00,35.60,41.42,0.00,0.00,0.00,30.39,M,10.00,M,CLR,M,M,M,M,M,M,M,M,M,M,M,M,M,M,59.00,KMCJ 041655Z AUTO 00000KT 10SM CLR 15/02 A3039 RMK A01,M
MCJ,2020-01-04 17:15,60.80,35.60,38.85,0.00,0.00,0.00,30.38,M,10.00,M,CLR,M,M,M,M,M,M,M,M,M,M,M,M,M,M,60.80,KMCJ 041715Z AUTO 00000KT 10SM CLR 16/02 A3038 RMK A01,M
MCJ,2020-01-04 17:35,62.60,33.80,33.93,0.00,0.00,0.00,30.38,M,10.00,M,CLR,M,M,M,M,M,M,M,M,M,M,M,M,M,M,62.60,KMCJ 041735Z AUTO 00000KT 10SM CLR 17/01 A3038 RMK A01,M
MCJ,2020-01-04 17:55,64.40,32.00,29.63,0.00,0.00,0.00,30.37,M,10.00,M,CLR,M,M,M,M,M,M,M,M,M,M,M,M,M,M,64.40,KMCJ 041755Z AUTO 00000KT 10SM CLR 18/00 A3037 RMK A01,M
MCJ,2020-01-04 18:15,66.20,32.00,27.83,0.00,0.00,0.00,30.35,M,10.00,M,CLR,M,M,M,M,M,M,M,M,M,M,M,M,M,M,66.20,KMCJ 041815Z AUTO 00000KT 10SM CLR 19/M00 A3035 RMK A01,M
MCJ,2020-01-04 18:35,66.20,30.20,25.88,M,4.00,0.00,30.34,M,10.00,M,CLR,M,M,M,M,M,M,M,M,M,M,M,M,M,M,66.20,KMCJ 041835Z AUTO VRB04KT 10SM CLR 19/M01 A3034 RMK A01,M
MCJ,2020-01-04 18:55,68.00,32.00,26.15,0.00,0.00,0.00,30.33,M,8.00,M,CLR,M,M,M,M,M,M,M,M,M,M,M,M,M,M,68.00,KMCJ 041855Z AUTO 00000KT 8SM CLR 20/M00 A3033 RMK A01,M
MCJ,2020-01-04 19:15,68.00,30.20,24.32,0.00,0.00,0.00,30.33,M,10.00,11.00,CLR,M,M,M,M,M,M,M,M,M,M,M,M,M,M,68.00,KMCJ 041915Z AUTO 00000G11KT 10SM CLR 20/M01 A3033 RMK A01,M
MCJ,2020-01-04 19:35,68.00,30.20,24.32,280.00,5.00,0.00,30.32,M,9.00,M,CLR,M,M,M,M,M,M,M,M,M,M,M,M,M,M,68.00,KMCJ 041935Z AUTO 28005KT 9SM CLR 20/M01 A3032 RMK A01,M
MCJ,2020-01-04 19:55,69.80,28.40,21.24,0.00,0.00,0.00,30.31,M,9.00,10.00,CLR,M,M,M,M,M,M,M,M,M,M,M,M,M,M,69.80,KMCJ 041955Z AUTO 00000G10KT 9SM CLR 21/M02 A3031 RMK A01,M
MCJ,2020-01-04 20:15,69.80,28.40,21.24,M,3.00,0.00,30.30,M,10.00,M,CLR,M,M,M,M,M,M,M,M,M,M,M,M,M,M,69.80,KMCJ 042015Z AUTO VRB03KT 10SM CLR 21/M02 A3030 RMK A01,M
MCJ,2020-01-04 20:35,69.80,30.20,22.86,M,4.00,0.00,30.29,M,10.00,M,CLR,M,M,M,M,M,M,M,M,M,M,M,M,M,M,69.80,KMCJ 042035Z AUTO VRB04KT 10SM CLR 21/M01 A3029 RMK A01,M
MCJ,2020-01-04 20:55,69.80,30.20,22.86,M,5.00,0.00,30.29,M,10.00,11.00,CLR,M,M,M,M,M,M,M,M,M,M,M,M,M,M,69.80,KMCJ 042055Z AUTO VRB05G11KT 10SM CLR 21/M01 A3029 RMK A01,M
MCJ,2020-01-04 21:15,69.80,30.20,22.86,M,5.00,0.00,30.29,M,6.00,M,CLR,M,M,M,M,M,M,M,HZ,M,M,M,M,M,M,69.80,KMCJ 042115Z AUTO VRB05KT 6SM HZ CLR 21/M01 A3029 RMK A01,M
MCJ,2020-01-04 21:35,69.80,30.20,22.86,0.00,0.00,0.00,30.29,M,10.00,M,CLR,M,M,M,M,M,M,M,M,M,M,M,M,M,M,69.80,KMCJ 042135Z AUTO 00000KT 10SM CLR 21/M01 A3029 RMK A01,M
MCJ,2020-01-04 21:55,69.80,30.20,22.86,330.00,4.00,0.00,30.30,M,10.00,M,CLR,M,M,M,M,M,M,M,M,M,M,M,M,M,M,69.80,KMCJ 042155Z AUTO 33004KT 10SM CLR 21/M01 A3030 RMK A01,M
MCJ,2020-01-04 22:15,68.00,30.20,24.32,330.00,4.00,0.00,30.30,M,10.00,M,CLR,M,M,M,M,M,M,M,M,M,M,M,M,M,M,68.00,KMCJ 042215Z AUTO 33004KT 10SM CLR 20/M01 A3030 RMK A01,M
MCJ,2020-01-04 22:35,68.00,30.20,24.32,0.00,0.00,0.00,30.30,M,10.00,M,CLR,M,M,M,M,M,M,M,M,M,M,M,M,M,M,68.00,KMCJ 042235Z AUTO 00000KT 10SM CLR 20/M01 A3030 RMK A01,M
MCJ,2020-01-04 22:55,68.00,30.20,24.32,0.00,0.00,0.00,30.31,M,10.00,M,CLR,M,M,M,M,M,M,M,M,M,M,M,M,M,M,68.00,KMCJ 042255Z AUTO 00000KT 10SM CLR 20/M01 A3031 RMK A01,M
MCJ,2020-01-04 23:15,66.20,30.20,25.88,0.00,0.00,0.00,30.32,M,10.00,M,CLR,M,M,M,M,M,M,M,M,M,M,M,M,M,M,66.20,KMCJ 042315Z AUTO 00000KT 10SM CLR 19/M01 A3032 RMK A01,M
MCJ,2020-01-04 23:35,64.40,30.20,27.55,0.00,0.00,0.00,30.32,M,10.00,M,CLR,M,M,M,M,M,M,M,M,M,M,M,M,M,M,64.40,KMCJ 042335Z AUTO 00000KT 10SM CLR 18/M01 A3032 RMK A01,M
MCJ,2020-01-04 23:55,64.40,32.00,29.63,0.00,0.00,0.00,30.32,M,10.00,M,CLR,M,M,M,M,M,M,M,M,M,M,M,M,M,M,64.40,KMCJ 042355Z AUTO 00000KT 10SM CLR 18/M00 A3032 RMK A01,M
MCJ,2020-01-05 00:15,64.40,32.00,29.63,0.00,0.00,0.00,30.33,M,10.00,M,CLR,M,M,M,M,M,M,M,M,M,M,M,M,M,M,64.40,KMCJ 050015Z AUTO 00000KT 10SM CLR 18/M00 A3033 RMK A01,M
MCJ,2020-01-05 00:35,64.40,32.00,29.63,0.00,0.00,0.00,30.33,M,10.00,M,CLR,M,M,M,M,M,M,M,M,M,M,M,M,M,M,64.40,KMCJ 050035Z AUTO 00000KT 10SM CLR 18/M00 A3033 RMK A01,M
MCJ,2020-01-05 00:55,62.60,32.00,31.56,0.00,0.00,0.00,30.34,M,10.00,M,CLR,M,M,M,M,M,M,M,M,M,M,M,M,M,M,62.60,KMCJ 050055Z AUTO 00000KT 10SM CLR 17/M00 A3034 RMK A01,M
MCJ,2020-01-05 01:15,62.60,32.00,31.56,0.00,0.00,0.00,30.34,M,10.00,M,CLR,M,M,M,M,M,M,M,M,M,M,M,M,M,M,62.60,KMCJ 050115Z AUTO 00000KT 10SM CLR 17/M00 A3034 RMK A01,M
MCJ,2020-01-05 01:35,62.60,32.00,31.56,0.00,0.00,0.00,30.34,M,9.00,M,CLR,M,M,M,M,M,M,M,M,M,M,M,M,M,M,62.60,KMCJ 050135Z AUTO 00000KT 9SM CLR 17/00 A3034 RMK A01,M
MCJ,2020-01-05 01:55,62.60,33.80,33.93,0.00,0.00,0.00,30.34,M,10.00,M,CLR,M,M,M,M,M,M,M,M,M,M,M,M,M,M,62.60,KMCJ 050155Z AUTO 00000KT 10SM CLR 17/01 A3034 RMK A01,M
MCJ,2020-01-05 02:15,62.60,35.60,36.45,0.00,0.00,0.00,30.35,M,10.00,M,CLR,M,M,M,M,M,M,M,M,M,M,M,M,M,M,62.60,KMCJ 050215Z AUTO 00000KT 10SM CLR 17/02 A3035 RMK A01,M
MCJ,2020-01-05 02:35,62.60,33.80,33.93,0.00,0.00,0.00,30.35,M,9.00,M,CLR,M,M,M,M,M,M,M,M,M,M,M,M,M,M,62.60,KMCJ 050235Z AUTO 00000KT 9SM CLR 17/01 A3035 RMK A01,M
MCJ,2020-01-05 02:55,60.80,33.80,36.16,0.00,0.00,0.00,30.36,M,10.00,M,CLR,M,M,M,M,M,M,M,M,M,M,M,M,M,M,60.80,KMCJ 050255Z AUTO 00000KT 10SM CLR 16/01 A3036 RMK A01,M
MCJ,2020-01-05 03:15,59.00,35.60,41.42,0.00,0.00,0.00,30.36,M,4.00,M,CLR,M,M,M,M,M,M,M,HZ,M,M,M,M,M,M,59.00,KMCJ 050315Z AUTO 00000KT 4SM HZ CLR 15/02 A3036 RMK A01,M
MCJ,2020-01-05 03:35,59.00,35.60,41.42,200.00,5.00,0.00,30.36,M,8.00,12.00,CLR,M,M,M,M,M,M,M,M,M,M,M,M,M,M,59.00,KMCJ 050335Z AUTO 20005G12KT 8SM CLR 15/02 A3036 RMK A01,M
MCJ,2020-01-05 03:55,59.00,37.40,44.47,M,6.00,0.00,30.36,M,10.00,11.00,CLR,M,M,M,M,M,M,M,M,M,M,M,M,M,M,59.00,KMCJ 050355Z AUTO VRB06G11KT 10SM CLR 15/03 A3036 RMK A01,M
MCJ,2020-01-05 04:15,57.20,39.20,50.91,190.00,8.00,0.00,30.36,M,9.00,14.00,CLR,M,M,M,M,M,M,M,M,M,M,M,M,M,M,57.20,KMCJ 050415Z AUTO 19008G14KT 070V230 9SM CLR 14/04 A3036 RMK A01,M
MCJ,2020-01-05 04:35,57.20,39.20,50.91,M,7.00,0.00,30.36,M,10.00,14.00,CLR,M,M,M,M,M,M,M,M,M,M,M,M,M,M,57.20,KMCJ 050435Z AUTO VRB07G14KT 10SM CLR 14/04 A3036 RMK A01,M
MCJ,2020-01-05 04:55,57.20,41.00,54.60,220.00,7.00,0.00,30.36,M,9.00,15.00,CLR,M,M,M,M,M,M,M,M,M,M,M,M,M,M,57.20,KMCJ 050455Z AUTO 22007G15KT 180V270 9SM CLR 14/05 A3036 RMK A01,M
MCJ,2020-01-05 05:15,55.40,41.00,58.27,M,8.00,0.00,30.36,M,8.00,15.00,CLR,M,M,M,M,M,M,M,M,M,M,M,M,M,M,55.40,KMCJ 050515Z AUTO VRB08G15KT 8SM CLR 13/05 A3036 RMK A01,M
MCJ,2020-01-05 05:35,57.20,41.00,54.60,210.00,8.00,0.00,30.36,M,10.00,16.00,CLR,M,M,M,M,M,M,M,M,M,M,M,M,M,M,57.20,KMCJ 050535Z AUTO 21008G16KT 10SM CLR 14/05 A3036 RMK A01,M
MCJ,2020-01-05 05:55,57.20,41.00,54.60,M,7.00,0.00,30.36,M,8.00,13.00,CLR,M,M,M,M,M,M,M,M,M,M,M,M,M,M,57.20,KMCJ 050555Z AUTO VRB07G13KT 8SM CLR 14/05 A3036 RMK A01,M
MCJ,2020-01-05 06:15,57.20,41.00,54.60,M,6.00,0.00,30.36,M,10.00,14.00,CLR,M,M,M,M,M,M,M,M,M,M,M,M,M,M,57.20,KMCJ 050615Z AUTO VRB06G14KT 10SM CLR 14/05 A3036 RMK A01,M
MCJ,2020-01-05 06:35,55.40,41.00,58.27,210.00,8.00,0.00,30.36,M,10.00,15.00,CLR,M,M,M,M,M,M,M,M,M,M,M,M,M,M,55.40,KMCJ 050635Z AUTO 21008G15KT 170V240 10SM CLR 13/05 A3036 RMK A01,M
MCJ,2020-01-05 06:55,55.40,41.00,58.27,0.00,0.00,0.00,30.36,M,10.00,M,CLR,M,M,M,M,M,M,M,M,M,M,M,M,M,M,55.40,KMCJ 050655Z AUTO 00000KT 10SM CLR 13/05 A3036 RMK A01,M
MCJ,2020-01-05 07:15,55.40,41.00,58.27,200.00,8.00,0.00,30.35,M,10.00,M,CLR,M,M,M,M,M,M,M,M,M,M,M,M,M,M,55.40,KMCJ 050715Z AUTO 20008KT 080V230 10SM CLR 13/05 A3035 RMK A01,M
MCJ,2020-01-05 07:35,57.20,37.40,47.44,M,9.00,0.00,30.35,M,8.00,16.00,CLR,M,M,M,M,M,M,M,M,M,M,M,M,M,M,57.20,KMCJ 050735Z AUTO VRB09G16KT 8SM CLR 14/03 A3035 RMK A01,M
MCJ,2020-01-05 07:55,57.20,39.20,50.91,200.00,8.00,0.00,30.35,M,10.00,M,CLR,M,M,M,M,M,M,M,M,M,M,M,M,M,M,57.20,KMCJ 050755Z AUTO 20008KT 160V250 10SM CLR 14/04 A3035 RMK A01,M
MCJ,2020-01-05 08:15,57.20,42.80,58.52,M,8.00,0.00,30.34,M,10.00,18.00,CLR,M,M,M,M,M,M,M,M,M,M,M,M,M,M,57.20,KMCJ 050815Z AUTO VRB08G18KT 10SM CLR 14/06 A3034 RMK A01,M
MCJ,2020-01-05 08:35,57.20,42.80,58.52,200.00,9.00,0.00,30.34,M,9.00,17.00,CLR,M,M,M,M,M,M,M,M,M,M,M,M,M,M,57.20,KMCJ 050835Z AUTO 20009G17KT 150V230 9SM CLR 14/06 A3034 RMK A01,M
MCJ,2020-01-05 08:55,57.20,37.40,47.44,210.00,9.00,0.00,30.34,M,10.00,15.00,CLR,M,M,M,M,M,M,M,M,M,M,M,M,M,M,57.20,KMCJ 050855Z AUTO 21009G15KT 180V240 10SM CLR 14/03 A3034 RMK A01,M
MCJ,2020-01-05 09:15,57.20,39.20,50.91,190.00,8.00,0.00,30.34,M,8.00,16.00,CLR,M,M,M,M,M,M,M,M,M,M,M,M,M,M,57.20,KMCJ 050915Z AUTO 19008G16KT 080V240 8SM CLR 14/04 A3034 RMK A01,M
MCJ,2020-01-05 09:35,57.20,42.80,58.52,190.00,9.00,0.00,30.34,M,10.00,15.00,CLR,M,M,M,M,M,M,M,M,M,M,M,M,M,M,57.20,KMCJ 050935Z AUTO 19009G15KT 140V290 10SM CLR 14/06 A3034 RMK A01,M
MCJ,2020-01-05 09:55,57.20,44.60,62.69,M,8.00,0.00,30.35,M,10.00,15.00,CLR,M,M,M,M,M,M,M,M,M,M,M,M,M,M,57.20,KMCJ 050955Z AUTO VRB08G15KT 10SM CLR 14/07 A3035 RMK A01,M
MCJ,2020-01-05 10:15,57.20,44.60,62.69,M,7.00,0.00,30.34,M,10.00,17.00,CLR,M,M,M,M,M,M,M,M,M,M,M,M,M,M,57.20,KMCJ 051015Z AUTO VRB07G17KT 10SM CLR 14/07 A3034 RMK A01,M
MCJ,2020-01-05 10:35,57.20,44.60,62.69,M,4.00,0.00,30.34,M,10.00,14.00,CLR,M,M,M,M,M,M,M,M,M,M,M,M,M,M,57.20,KMCJ 051035Z AUTO VRB04G14KT 10SM CLR 14/07 A3034 RMK A01,M
MCJ,2020-01-05 10:55,57.20,44.60,62.69,M,4.00,0.00,30.34,M,9.00,10.00,CLR,M,M,M,M,M,M,M,M,M,M,M,M,M,M,57.20,KMCJ 051055Z AUTO VRB04G10KT 9SM CLR 14/07 A3034 RMK A01,M
MCJ,2020-01-05 11:35,55.40,46.40,71.64,M,6.00,0.00,30.35,M,10.00,12.00,CLR,M,M,M,M,M,M,M,M,M,M,M,M,M,M,55.40,KMCJ 051135Z AUTO VRB06G12KT 10SM CLR 13/08 A3035 RMK A01,M
MCJ,2020-01-05 11:55,57.20,46.40,67.12,M,4.00,0.00,30.35,M,8.00,11.00,CLR,M,M,M,M,M,M,M,M,M,M,M,M,M,M,57.20,KMCJ 051155Z AUTO VRB04G11KT 8SM CLR 14/08 A3035 RMK A01,M
MCJ,2020-01-05 12:15,55.40,46.40,71.64,240.00,8.00,0.00,30.35,M,10.00,M,CLR,M,M,M,M,M,M,M,M,M,M,M,M,M,M,55.40,KMCJ 051215Z AUTO 24008KT 200V270 10SM CLR 13/08 A3035 RMK A01,M
MCJ,2020-01-05 12:35,55.40,48.20,76.66,230.00,7.00,0.00,30.36,M,10.00,M,CLR,M,M,M,M,M,M,M,M,M,M,M,M,M,M,55.40,KMCJ 051235Z AUTO 23007KT 180V260 10SM CLR 13/09 A3036 RMK A01,M
MCJ,2020-01-05 12:55,55.40,48.20,76.66,M,5.00,0.00,30.36,M,10.00,10.00,CLR,M,M,M,M,M,M,M,M,M,M,M,M,M,M,55.40,KMCJ 051255Z AUTO VRB05G10KT 10SM CLR 13/09 A3036 RMK A01,M
MCJ,2020-01-05 13:15,55.40,50.00,81.99,220.00,7.00,0.00,30.36,M,10.00,M,CLR,M,M,M,M,M,M,M,M,M,M,M,M,M,M,55.40,KMCJ 051315Z AUTO 22007KT 190V250 10SM CLR 13/10 A3036 RMK A01,M
MCJ,2020-01-05 13:35,55.40,50.00,81.99,M,4.00,0.00,30.36,M,10.00,M,CLR,M,M,M,M,M,M,M,M,M,M,M,M,M,M,55.40,KMCJ 051335Z AUTO VRB04KT 10SM CLR 13/10 A3036 RMK A01,M
MCJ,2020-01-05 13:55,57.20,48.20,71.83,M,6.00,0.00,30.36,M,10.00,13.00,CLR,M,M,M,M,M,M,M,M,M,M,M,M,M,M,57.20,KMCJ 051355Z AUTO VRB06G13KT 10SM CLR 14/09 A3036 RMK A01,M
MCJ,2020-01-05 14:15,57.20,48.20,71.83,M,9.00,0.00,30.36,M,9.00,18.00,CLR,M,M,M,M,M,M,M,M,M,M,M,M,M,M,57.20,KMCJ 051415Z AUTO VRB09G18KT 190V250 9SM CLR 14/09 A3036 RMK A01,M
MCJ,2020-01-05 14:35,57.20,48.20,71.83,M,6.00,0.00,30.37,M,6.00,M,CLR,M,M,M,M,M,M,M,HZ,M,M,M,M,M,M,57.20,KMCJ 051435Z AUTO VRB06KT 6SM HZ CLR 14/09 A3037 RMK A01,M
MCJ,2020-01-05 14:55,55.40,48.20,76.66,220.00,10.00,0.00,30.37,M,9.00,16.00,CLR,M,M,M,M,M,M,M,M,M,M,M,M,M,M,55.40,KMCJ 051455Z AUTO 22010G16KT 190V280 9SM CLR 13/09 A3037 RMK A01,M
MCJ,2020-01-05 15:15,55.40,48.20,76.66,M,5.00,0.00,30.38,M,9.00,13.00,CLR,M,M,M,M,M,M,M,M,M,M,M,M,M,M,55.40,KMCJ 051515Z AUTO VRB05G13KT 9SM CLR 13/09 A3038 RMK A01,M
MCJ,2020-01-05 15:35,57.20,50.00,76.82,0.00,0.00,0.00,30.39,M,10.00,12.00,CLR,M,M,M,M,M,M,M,M,M,M,M,M,M,M,57.20,KMCJ 051535Z AUTO 00000G12KT 10SM CLR 14/10 A3039 RMK A01,M
MCJ,2020-01-05 15:55,59.00,50.00,72.01,0.00,0.00,0.00,30.40,M,10.00,10.00,CLR,M,M,M,M,M,M,M,M,M,M,M,M,M,M,59.00,KMCJ 051555Z AUTO 00000G10KT 10SM CLR 15/10 A3040 RMK A01,M
MCJ,2020-01-05 16:15,62.60,48.20,59.26,M,5.00,0.00,30.40,M,9.00,M,CLR,M,M,M,M,M,M,M,M,M,M,M,M,M,M,62.60,KMCJ 051615Z AUTO VRB05KT 9SM CLR 17/09 A3040 RMK A01,M
MCJ,2020-01-05 16:35,64.40,48.20,55.63,M,3.00,0.00,30.39,M,8.00,11.00,CLR,M,M,M,M,M,M,M,M,M,M,M,M,M,M,64.40,KMCJ 051635Z AUTO VRB03G11KT 8SM CLR 18/09 A3039 RMK A01,M
MCJ,2020-01-05 16:55,66.20,46.40,48.83,220.00,9.00,0.00,30.37,M,6.00,M,CLR,M,M,M,M,M,M,M,HZ,M,M,M,M,M,M,66.20,KMCJ 051655Z AUTO 22009KT 180V340 6SM HZ CLR 19/08 A3037 RMK A01,M
MCJ,2020-01-05 17:15,66.20,44.60,45.60,M,8.00,0.00,30.36,M,10.00,M,CLR,M,M,M,M,M,M,M,M,M,M,M,M,M,M,66.20,KMCJ 051715Z AUTO VRB08KT 10SM CLR 19/07 A3036 RMK A01,M
MCJ,2020-01-05 17:35,68.00,44.60,42.85,0.00,0.00,0.00,30.35,M,7.00,M,CLR,M,M,M,M,M,M,M,M,M,M,M,M,M,M,68.00,KMCJ 051735Z AUTO 00000KT 7SM CLR 20/07 A3035 RMK A01,M
MCJ,2020-01-05 17:55,69.80,42.80,37.61,210.00,8.00,0.00,30.34,M,9.00,13.00,CLR,M,M,M,M,M,M,M,M,M,M,M,M,M,M,69.80,KMCJ 051755Z AUTO 21008G13KT 140V260 9SM CLR 21/06 A3034 RMK A01,M
MCJ,2020-01-05 18:15,69.80,42.80,37.61,M,7.00,0.00,30.32,M,10.00,14.00,CLR,M,M,M,M,M,M,M,M,M,M,M,M,M,M,69.80,KMCJ 051815Z AUTO VRB07G14KT 10SM CLR 21/06 A3032 RMK A01,M
MCJ,2020-01-05 18:35,71.60,41.00,33.00,210.00,10.00,0.00,30.30,M,7.00,M,CLR,M,M,M,M,M,M,M,M,M,M,M,M,M,M,71.60,KMCJ 051835Z AUTO 21010KT 150V290 7SM CLR 22/05 A3030 RMK A01,M
MCJ,2020-01-05 18:55,71.60,39.20,30.77,M,4.00,0.00,30.29,M,10.00,16.00,CLR,M,M,M,M,M,M,M,M,M,M,M,M,M,M,71.60,KMCJ 051855Z AUTO VRB04G16KT 10SM CLR 22/04 A3029 RMK A01,M
MCJ,2020-01-05 19:15,73.40,39.20,28.96,M,7.00,0.00,30.27,M,7.00,14.00,CLR,M,M,M,M,M,M,M,M,M,M,M,M,M,M,73.40,KMCJ 051915Z AUTO VRB07G14KT 7SM CLR 23/04 A3027 RMK A01,M
MCJ,2020-01-05 19:35,73.40,37.40,26.98,M,5.00,0.00,30.26,M,7.00,15.00,CLR,M,M,M,M,M,M,M,M,M,M,M,M,M,M,73.40,KMCJ 051935Z AUTO VRB05G15KT 7SM CLR 23/03 A3026 RMK A01,M
MCJ,2020-01-05 19:55,73.40,37.40,26.98,M,5.00,0.00,30.26,M,10.00,17.00,CLR,M,M,M,M,M,M,M,M,M,M,M,M,M,M,73.40,KMCJ 051955Z AUTO VRB05G17KT 10SM CLR 23/03 A3026 RMK A01,M
MCJ,2020-01-05 20:15,73.40,39.20,28.96,0.00,0.00,0.00,30.25,M,5.00,M,CLR,M,M,M,M,M,M,M,HZ,M,M,M,M,M,M,73.40,KMCJ 052015Z AUTO 00000KT 5SM HZ CLR 23/04 A3025 RMK A01,M
MCJ,2020-01-05 20:35,75.20,35.60,23.66,M,4.00,0.00,30.24,M,7.00,17.00,CLR,M,M,M,M,M,M,M,M,M,M,M,M,M,M,75.20,KMCJ 052035Z AUTO VRB04G17KT 7SM CLR 24/02 A3024 RMK A01,M
MCJ,2020-01-05 20:55,75.20,35.60,23.66,M,6.00,0.00,30.24,M,8.00,12.00,CLR,M,M,M,M,M,M,M,M,M,M,M,M,M,M,75.20,KMCJ 052055Z AUTO VRB06G12KT 8SM CLR 24/02 A3024 RMK A01,M
MCJ,2020-01-05 21:15,75.20,35.60,23.66,M,5.00,0.00,30.24,M,4.00,14.00,CLR,M,M,M,M,M,M,M,HZ,M,M,M,M,M,M,75.20,KMCJ 052115Z AUTO VRB05G14KT 4SM HZ CLR 24/02 A3024 RMK A01,M
MCJ,2020-01-05 21:35,75.20,35.60,23.66,210.00,8.00,0.00,30.24,M,10.00,15.00,CLR,M,M,M,M,M,M,M,M,M,M,M,M,M,M,75.20,KMCJ 052135Z AUTO 21008G15KT 140V250 10SM CLR 24/02 A3024 RMK A01,M
MCJ,2020-01-05 21:55,73.40,37.40,26.98,M,4.00,0.00,30.23,M,7.00,12.00,CLR,M,M,M,M,M,M,M,M,M,M,M,M,M,M,73.40,KMCJ 052155Z AUTO VRB04G12KT 7SM CLR 23/03 A3023 RMK A01,M
MCJ,2020-01-05 22:15,73.40,37.40,26.98,M,4.00,0.00,30.23,M,9.00,13.00,CLR,M,M,M,M,M,M,M,M,M,M,M,M,M,M,73.40,KMCJ 052215Z AUTO VRB04G13KT 9SM CLR 23/03 A3023 RMK A01,M
MCJ,2020-01-05 22:35,73.40,37.40,26.98,0.00,0.00,0.00,30.24,M,10.00,10.00,CLR,M,M,M,M,M,M,M,M,M,M,M,M,M,M,73.40,KMCJ 052235Z AUTO 00000G10KT 10SM CLR 23/03 A3024 RMK A01,M
MCJ,2020-01-05 22:55,73.40,39.20,28.96,M,3.00,0.00,30.24,M,7.00,M,CLR,M,M,M,M,M,M,M,M,M,M,M,M,M,M,73.40,KMCJ 052255Z AUTO VRB03KT 7SM CLR 23/04 A3024 RMK A01,M
MCJ,2020-01-05 23:15,71.60,37.40,28.68,M,4.00,0.00,30.23,M,10.00,14.00,CLR,M,M,M,M,M,M,M,M,M,M,M,M,M,M,71.60,KMCJ 052315Z AUTO VRB04G14KT 10SM CLR 22/03 A3023 RMK A01,M
MCJ,2020-01-05 23:35,69.80,37.40,30.49,M,4.00,0.00,30.23,M,6.00,10.00,CLR,M,M,M,M,M,M,M,HZ,M,M,M,M,M,M,69.80,KMCJ 052335Z AUTO VRB04G10KT 6SM HZ CLR 21/03 A3023 RMK A01,M
MCJ,2020-01-05 23:55,68.00,41.00,37.32,M,3.00,0.00,30.23,M,10.00,10.00,CLR,M,M,M,M,M,M,M,M,M,M,M,M,M,M,68.00,KMCJ 052355Z AUTO VRB03G10KT 10SM CLR 20/05 A3023 RMK A01,M
MCJ,2020-01-06 00:15,66.20,41.00,39.72,M,6.00,0.00,30.23,M,10.00,M,CLR,M,M,M,M,M,M,M,M,M,M,M,M,M,M,66.20,KMCJ 060015Z AUTO VRB06KT 10SM CLR 19/05 A3023 RMK A01,M
MCJ,2020-01-06 00:35,66.20,41.00,39.72,M,4.00,0.00,30.23,M,3.00,M,CLR,M,M,M,M,M,M,M,HZ,M,M,M,M,M,M,66.20,KMCJ 060035Z AUTO VRB04KT 3SM HZ CLR 19/05 A3023 RMK A01,M
MCJ,2020-01-06 00:55,64.40,42.80,45.32,0.00,0.00,0.00,30.24,M,9.00,M,CLR,M,M,M,M,M,M,M,M,M,M,M,M,M,M,64.40,KMCJ 060055Z AUTO 00000KT 9SM CLR 18/06 A3024 RMK A01,M
MCJ,2020-01-06 01:15,64.40,44.60,48.55,M,6.00,0.00,30.24,M,5.00,12.00,CLR,M,M,M,M,M,M,M,HZ,M,M,M,M,M,M,64.40,KMCJ 060115Z AUTO VRB06G12KT 5SM HZ CLR 18/07 A3024 RMK A01,M
MCJ,2020-01-06 01:35,64.40,44.60,48.55,210.00,8.00,0.00,30.24,M,6.00,M,CLR,M,M,M,M,M,M,M,HZ,M,M,M,M,M,M,64.40,KMCJ 060135Z AUTO 21008KT 190V330 6SM HZ CLR 18/07 A3024 RMK A01,M
MCJ,2020-01-06 01:55,62.60,46.40,55.37,210.00,7.00,0.00,30.24,M,10.00,13.00,CLR,M,M,M,M,M,M,M,M,M,M,M,M,M,M,62.60,KMCJ 060155Z AUTO 21007G13KT 160V270 10SM CLR 17/08 A3024 RMK A01,M
MCJ,2020-01-06 02:15,62.60,46.40,55.37,210.00,8.00,0.00,30.24,M,7.00,M,CLR,M,M,M,M,M,M,M,M,M,M,M,M,M,M,62.60,KMCJ 060215Z AUTO 21008KT 180V260 7SM CLR 17/08 A3024 RMK A01,M
MCJ,2020-01-06 02:35,62.60,46.40,55.37,M,6.00,0.00,30.24,M,9.00,16.00,CLR,M,M,M,M,M,M,M,M,M,M,M,M,M,M,62.60,KMCJ 060235Z AUTO VRB06G16KT 9SM CLR 17/08 A3024 RMK A01,M
MCJ,2020-01-06 02:55,62.60,44.60,51.72,M,8.00,0.00,30.23,M,10.00,16.00,CLR,M,M,M,M,M,M,M,M,M,M,M,M,M,M,62.60,KMCJ 060255Z AUTO VRB08G16KT 10SM CLR 17/07 A3023 RMK A01,M
MCJ,2020-01-06 03:15,60.80,46.40,59.01,200.00,7.00,0.00,30.23,M,8.00,14.00,CLR,M,M,M,M,M,M,M,M,M,M,M,M,M,M,60.80,KMCJ 060315Z AUTO 20007G14KT 150V270 8SM CLR 16/08 A3023 RMK A01,M
MCJ,2020-01-06 03:35,60.80,46.40,59.01,200.00,8.00,0.00,30.23,M,10.00,M,CLR,M,M,M,M,M,M,M,M,M,M,M,M,M,M,60.80,KMCJ 060335Z AUTO 20008KT 160V230 10SM CLR 16/08 A3023 RMK A01,M
MCJ,2020-01-06 03:55,60.80,46.40,59.01,M,7.00,0.00,30.24,M,5.00,13.00,CLR,M,M,M,M,M,M,M,HZ,M,M,M,M,M,M,60.80,KMCJ 060355Z AUTO VRB07G13KT 5SM HZ CLR 16/08 A3024 RMK A01,M
MCJ,2020-01-06 04:15,60.80,46.40,59.01,M,5.00,0.00,30.23,M,9.00,12.00,CLR,M,M,M,M,M,M,M,M,M,M,M,M,M,M,60.80,KMCJ 060415Z AUTO VRB05G12KT 9SM CLR 16/08 A3023 RMK A01,M
MCJ,2020-01-06 04:35,60.80,48.20,63.15,M,5.00,0.00,30.23,M,7.00,11.00,CLR,M,M,M,M,M,M,M,M,M,M,M,M,M,M,60.80,KMCJ 060435Z AUTO VRB05G11KT 7SM CLR 16/09 A3023 RMK A01,M
MCJ,2020-01-06 04:55,59.00,48.20,67.33,200.00,7.00,0.00,30.22,M,5.00,M,CLR,M,M,M,M,M,M,M,HZ,M,M,M,M,M,M,59.00,KMCJ 060455Z AUTO 20007KT 140V240 5SM HZ CLR 15/09 A3022 RMK A01,M
MCJ,2020-01-06 05:15,59.00,48.20,67.33,210.00,7.00,0.00,30.22,M,10.00,M,CLR,M,M,M,M,M,M,M,M,M,M,M,M,M,M,59.00,KMCJ 060515Z AUTO 21007KT 170V260 10SM CLR 15/09 A3022 RMK A01,M
MCJ,2020-01-06 05:35,59.00,50.00,72.01,M,5.00,0.00,30.22,M,4.00,11.00,CLR,M,M,M,M,M,M,M,HZ,M,M,M,M,M,M,59.00,KMCJ 060535Z AUTO VRB05G11KT 4SM HZ CLR 15/10 A3022 RMK A01,M
MCJ,2020-01-06 05:55,59.00,50.00,72.01,M,4.00,0.00,30.21,M,9.00,15.00,CLR,M,M,M,M,M,M,M,M,M,M,M,M,M,M,59.00,KMCJ 060555Z AUTO VRB04G15KT 9SM CLR 15/10 A3021 RMK A01,M
MCJ,2020-01-06 06:15,59.00,50.00,72.01,M,5.00,0.00,30.20,M,6.00,11.00,CLR,M,M,M,M,M,M,M,HZ,M,M,M,M,M,M,59.00,KMCJ 060615Z AUTO VRB05G11KT 6SM HZ CLR 15/10 A3020 RMK A01,M
MCJ,2020-01-06 06:35,59.00,50.00,72.01,M,5.00,0.00,30.20,M,3.00,M,CLR,M,M,M,M,M,M,M,HZ,M,M,M,M,M,M,59.00,KMCJ 060635Z AUTO VRB05KT 3SM HZ CLR 15/10 A3020 RMK A01,M
MCJ,2020-01-06 06:55,59.00,51.80,76.98,M,5.00,0.00,30.19,M,10.00,M,CLR,M,M,M,M,M,M,M,M,M,M,M,M,M,M,59.00,KMCJ 060655Z AUTO VRB05KT 10SM CLR 15/11 A3019 RMK A01,M
MCJ,2020-01-06 07:15,59.00,51.80,76.98,M,4.00,0.00,30.19,M,6.00,12.00,CLR,M,M,M,M,M,M,M,HZ,M,M,M,M,M,M,59.00,KMCJ 060715Z AUTO VRB04G12KT 6SM HZ CLR 15/11 A3019 RMK A01,M
MCJ,2020-01-06 07:35,59.00,53.60,82.25,M,5.00,0.00,30.18,M,7.00,11.00,CLR,M,M,M,M,M,M,M,M,M,M,M,M,M,M,59.00,KMCJ 060735Z AUTO VRB05G11KT 7SM CLR 15/12 A3018 RMK A01,M
MCJ,2020-01-06 07:55,59.00,53.60,82.25,200.00,10.00,0.00,30.18,M,9.00,18.00,CLR,M,M,M,M,M,M,M,M,M,M,M,M,M,M,59.00,KMCJ 060755Z AUTO 20010G18KT 120V230 9SM CLR 15/12 A3018 RMK A01,M
MCJ,2020-01-06 08:15,59.00,53.60,82.25,M,7.00,0.00,30.18,M,6.00,14.00,CLR,M,M,M,M,M,M,M,HZ,M,M,M,M,M,M,59.00,KMCJ 060815Z AUTO VRB07G14KT 6SM HZ CLR 15/12 A3018 RMK A01,M
MCJ,2020-01-06 08:35,59.00,53.60,82.25,200.00,9.00,0.00,30.17,M,10.00,17.00,CLR,M,M,M,M,M,M,M,M,M,M,M,M,M,M,59.00,KMCJ 060835Z AUTO 20009G17KT 120V230 10SM CLR 15/12 A3017 RMK A01,M
MCJ,2020-01-06 08:55,59.00,51.80,76.98,200.00,10.00,0.00,30.17,M,10.00,16.00,CLR,M,M,M,M,M,M,M,M,M,M,M,M,M,M,59.00,KMCJ 060855Z AUTO 20010G16KT 180V300 10SM CLR 15/11 A3017 RMK A01,M
MCJ,2020-01-06 09:15,60.80,51.80,72.20,190.00,8.00,0.00,30.17,M,10.00,15.00,CLR,M,M,M,M,M,M,M,M,M,M,M,M,M,M,60.80,KMCJ 060915Z AUTO 19008G15KT 160V260 10SM CLR 16/11 A3017 RMK A01,M
MCJ,2020-01-06 09:35,59.00,53.60,82.25,M,6.00,0.00,30.16,M,10.00,M,CLR,M,M,M,M,M,M,M,M,M,M,M,M,M,M,59.00,KMCJ 060935Z AUTO VRB06KT 10SM CLR 15/12 A3016 RMK A01,M
MCJ,2020-01-06 09:55,59.00,53.60,82.25,M,9.00,0.00,30.15,M,9.00,14.00,CLR,M,M,M,M,M,M,M,M,M,M,M,M,M,M,59.00,KMCJ 060955Z AUTO VRB09G14KT 9SM CLR 15/12 A3015 RMK A01,M
MCJ,2020-01-06 10:15,60.80,51.80,72.20,M,7.00,0.00,30.15,M,10.00,16.00,CLR,M,M,M,M,M,M,M,M,M,M,M,M,M,M,60.80,KMCJ 061015Z AUTO VRB07G16KT 10SM CLR 16/11 A3015 RMK A01,M
MCJ,2020-01-06 10:35,59.00,53.60,82.25,M,4.00,0.00,30.15,M,9.00,13.00,CLR,M,M,M,M,M,M,M,M,M,M,M,M,M,M,59.00,KMCJ 061035Z AUTO VRB04G13KT 9SM CLR 15/12 A3015 RMK A01,M
MCJ,2020-01-06 10:55,59.00,53.60,82.25,M,6.00,0.00,30.14,M,9.00,13.00,CLR,M,M,M,M,M,M,M,M,M,M,M,M,M,M,59.00,KMCJ 061055Z AUTO VRB06G13KT 9SM CLR 15/12 A3014 RMK A01,M
MCJ,2020-01-06 11:15,59.00,53.60,82.25,M,6.00,0.00,30.14,M,10.00,M,CLR,M,M,M,M,M,M,M,M,M,M,M,M,M,M,59.00,KMCJ 061115Z AUTO VRB06KT 10SM CLR 15/12 A3014 RMK A01,M
MCJ,2020-01-06 11:35,59.00,53.60,82.25,M,6.00,0.00,30.15,M,5.00,12.00,CLR,M,M,M,M,M,M,M,HZ,M,M,M,M,M,M,59.00,KMCJ 061135Z AUTO VRB06G12KT 5SM HZ CLR 15/12 A3015 RMK A01,M
MCJ,2020-01-06 11:55,59.00,53.60,82.25,210.00,7.00,0.00,30.15,M,10.00,M,CLR,M,M,M,M,M,M,M,M,M,M,M,M,M,M,59.00,KMCJ 061155Z AUTO 21007KT 140V310 10SM CLR 15/12 A3015 RMK A01,M
MCJ,2020-01-06 12:15,59.00,55.40,87.83,M,5.00,0.00,30.15,M,10.00,13.00,CLR,M,M,M,M,M,M,M,M,M,M,M,M,M,M,59.00,KMCJ 061215Z AUTO VRB05G13KT 10SM CLR 15/13 A3015 RMK A01,M
MCJ,2020-01-06 12:35,59.00,55.40,87.83,220.00,7.00,0.00,30.15,M,5.00,14.00,CLR,M,M,M,M,M,M,M,BR,M,M,M,M,M,M,59.00,KMCJ 061235Z AUTO 22007G14KT 190V250 5SM BR CLR 15/13 A3015 RMK A01,M
MCJ,2020-01-06 12:55,59.00,55.40,87.83,210.00,7.00,0.00,30.16,M,10.00,14.00,CLR,M,M,M,M,M,M,M,M,M,M,M,M,M,M,59.00,KMCJ 061255Z AUTO 21007G14KT 150V260 10SM CLR 15/13 A3016 RMK A01,M
MCJ,2020-01-06 13:15,59.00,55.40,87.83,0.00,0.00,0.00,30.17,M,8.00,10.00,CLR,M,M,M,M,M,M,M,M,M,M,M,M,M,M,59.00,KMCJ 061315Z AUTO 00000G10KT 8SM CLR 15/13 A3017 RMK A01,M
MCJ,2020-01-06 13:35,59.00,55.40,87.83,0.00,0.00,0.00,30.17,M,6.00,M,CLR,M,M,M,M,M,M,M,BR,M,M,M,M,M,M,59.00,KMCJ 061335Z AUTO 00000KT 6SM BR CLR 15/13 A3017 RMK A01,M
MCJ,2020-01-06 13:55,59.00,55.40,87.83,0.00,0.00,0.00,30.18,M,10.00,M,CLR,M,M,M,M,M,M,M,M,M,M,M,M,M,M,59.00,KMCJ 061355Z AUTO 00000KT 10SM CLR 15/13 A3018 RMK A01,M
MCJ,2020-01-06 14:15,59.00,55.40,87.83,M,5.00,0.00,30.18,M,8.00,M,CLR,M,M,M,M,M,M,M,M,M,M,M,M,M,M,59.00,KMCJ 061415Z AUTO VRB05KT 8SM CLR 15/13 A3018 RMK A01,M
MCJ,2020-01-06 19:35,75.20,51.80,43.97,M,4.00,0.00,30.08,M,9.00,11.00,SCT,M,M,M,4200.00,M,M,M,M,M,M,M,M,M,M,75.20,KMCJ 061935Z AUTO VRB04G11KT 9SM SCT042 24/11 A3008 RMK A01,M
MCJ,2020-01-06 19:55,75.20,53.60,46.98,M,4.00,0.00,30.08,M,10.00,M,BKN,M,M,M,4300.00,M,M,M,M,M,M,M,M,M,M,75.20,KMCJ 061955Z AUTO VRB04KT 10SM BKN043 24/12 A3008 RMK A01,M
MCJ,2020-01-06 20:15,77.00,51.80,41.42,M,4.00,0.00,30.07,M,5.00,M,OVC,M,M,M,4500.00,M,M,M,HZ,M,M,M,M,M,M,77.00,KMCJ 062015Z AUTO VRB04KT 5SM HZ OVC045 25/11 A3007 RMK A01,M
MCJ,2020-01-06 20:35,75.20,51.80,43.97,0.00,0.00,0.00,30.07,M,9.00,M,OVC,M,M,M,4500.00,M,M,M,M,M,M,M,M,M,M,75.20,KMCJ 062035Z AUTO 00000KT 9SM OVC045 24/11 A3007 RMK A01,M
MCJ,2020-01-06 20:55,75.20,51.80,43.97,0.00,0.00,0.00,30.06,M,10.00,M,OVC,M,M,M,4600.00,M,M,M,M,M,M,M,M,M,M,75.20,KMCJ 062055Z AUTO 00000KT 10SM OVC046 24/11 A3006 RMK A01,M
MCJ,2020-01-06 21:15,77.00,51.80,41.42,0.00,0.00,0.00,30.06,M,8.00,M,SCT,M,M,M,4600.00,M,M,M,M,M,M,M,M,M,M,77.00,KMCJ 062115Z AUTO 00000KT 8SM SCT046 25/11 A3006 RMK A01,M
MCJ,2020-01-06 21:35,75.20,51.80,43.97,M,3.00,0.00,30.06,M,10.00,11.00,FEW,M,M,M,4700.00,M,M,M,M,M,M,M,M,M,M,75.20,KMCJ 062135Z AUTO VRB03G11KT 10SM FEW047 24/11 A3006 RMK A01,M
MCJ,2020-01-06 21:55,77.00,51.80,41.42,0.00,0.00,0.00,30.07,M,8.00,M,SCT,M,M,M,4700.00,M,M,M,M,M,M,M,M,M,M,77.00,KMCJ 062155Z AUTO 00000KT 8SM SCT047 25/11 A3007 RMK A01,M
MCJ,2020-01-06 22:15,75.20,51.80,43.97,M,4.00,0.00,30.07,M,5.00,M,FEW,M,M,M,4800.00,M,M,M,HZ,M,M,M,M,M,M,75.20,KMCJ 062215Z AUTO VRB04KT 5SM HZ FEW048 24/11 A3007 RMK A01,M
MCJ,2020-01-06 22:35,73.40,51.80,46.71,0.00,0.00,0.00,30.07,M,9.00,M,SCT,M,M,M,4900.00,M,M,M,M,M,M,M,M,M,M,73.40,KMCJ 062235Z AUTO 00000KT 9SM SCT049 23/11 A3007 RMK A01,M
MCJ,2020-01-06 22:55,73.40,50.00,43.69,200.00,8.00,0.00,30.06,M,5.00,M,SCT,M,M,M,4700.00,M,M,M,HZ,M,M,M,M,M,M,73.40,KMCJ 062255Z AUTO 20008KT 170V230 5SM HZ SCT047 23/10 A3006 RMK A01,M
MCJ,2020-01-06 23:15,73.40,51.80,46.71,M,4.00,0.00,30.07,M,8.00,M,FEW,M,M,M,4800.00,M,M,M,M,M,M,M,M,M,M,73.40,KMCJ 062315Z AUTO VRB04KT 8SM FEW048 23/11 A3007 RMK A01,M
MCJ,2020-01-06 23:35,71.60,51.80,49.64,0.00,0.00,0.00,30.07,M,4.00,M,FEW,M,M,M,4900.00,M,M,M,HZ,M,M,M,M,M,M,71.60,KMCJ 062335Z AUTO 00000KT 4SM HZ FEW049 22/11 A3007 RMK A01,M
MCJ,2020-01-06 23:55,69.80,53.60,56.38,M,4.00,0.00,30.08,M,5.00,12.00,SCT,M,M,M,4700.00,M,M,M,HZ,M,M,M,M,M,M,69.80,KMCJ 062355Z AUTO VRB04G12KT 5SM HZ SCT047 21/12 A3008 RMK A01,M
MCJ,2020-01-07 00:15,69.80,53.60,56.38,M,5.00,0.00,30.08,M,10.00,11.00,SCT,M,M,M,4700.00,M,M,M,M,M,M,M,M,M,M,69.80,KMCJ 070015Z AUTO VRB05G11KT 10SM SCT047 21/12 A3008 RMK A01,M
MCJ,2020-01-07 00:35,69.80,53.60,56.38,0.00,0.00,0.00,30.09,M,8.00,M,FEW,M,M,M,4700.00,M,M,M,M,M,M,M,M,M,M,69.80,KMCJ 070035Z AUTO 00000KT 8SM FEW047 21/12 A3009 RMK A01,M
MCJ,2020-01-07 00:55,68.00,53.60,59.97,M,6.00,0.00,30.11,M,6.00,M,CLR,M,M,M,M,M,M,M,HZ,M,M,M,M,M,M,68.00,KMCJ 070055Z AUTO VRB06KT 6SM HZ CLR 20/12 A3011 RMK A01,M
MCJ,2020-01-07 01:15,68.00,55.40,64.04,M,6.00,0.00,30.11,M,10.00,M,CLR,M,M,M,M,M,M,M,M,M,M,M,M,M,M,68.00,KMCJ 070115Z AUTO VRB06KT 10SM CLR 20/13 A3011 RMK A01,M
MCJ,2020-01-07 01:35,68.00,55.40,64.04,0.00,0.00,0.00,30.12,M,5.00,M,CLR,M,M,M,M,M,M,M,HZ,M,M,M,M,M,M,68.00,KMCJ 070135Z AUTO 00000KT 5SM HZ CLR 20/13 A3012 RMK A01,M
MCJ,2020-01-07 01:55,68.00,55.40,64.04,230.00,7.00,0.00,30.13,M,10.00,M,CLR,M,M,M,M,M,M,M,M,M,M,M,M,M,M,68.00,KMCJ 070155Z AUTO 23007KT 10SM CLR 20/13 A3013 RMK A01,M
MCJ,2020-01-07 02:15,66.20,55.40,68.15,220.00,7.00,0.00,30.14,M,9.00,M,CLR,M,M,M,M,M,M,M,M,M,M,M,M,M,M,66.20,KMCJ 070215Z AUTO 22007KT 190V260 9SM CLR 19/13 A3014 RMK A01,M
MCJ,2020-01-07 02:35,66.20,55.40,68.15,M,3.00,0.00,30.14,M,10.00,12.00,CLR,M,M,M,M,M,M,M,M,M,M,M,M,M,M,66.20,KMCJ 070235Z AUTO VRB03G12KT 10SM CLR 19/13 A3014 RMK A01,M
MCJ,2020-01-07 02:55,66.20,55.40,68.15,0.00,0.00,0.00,30.15,M,10.00,10.00,CLR,M,M,M,M,M,M,M,M,M,M,M,M,M,M,66.20,KMCJ 070255Z AUTO 00000G10KT 10SM CLR 19/13 A3015 RMK A01,M
MCJ,2020-01-07 03:15,66.20,55.40,68.15,M,3.00,0.00,30.16,M,10.00,M,FEW,M,M,M,5000.00,M,M,M,M,M,M,M,M,M,M,66.20,KMCJ 070315Z AUTO VRB03KT 10SM FEW050 19/13 A3016 RMK A01,M
MCJ,2020-01-07 03:35,66.20,55.40,68.15,M,4.00,0.00,30.16,M,10.00,M,FEW,M,M,M,5000.00,M,M,M,M,M,M,M,M,M,M,66.20,KMCJ 070335Z AUTO VRB04KT 10SM FEW050 19/13 A3016 RMK A01,M
MCJ,2020-01-07 03:55,66.20,55.40,68.15,260.00,6.00,0.00,30.18,M,7.00,M,CLR,M,M,M,M,M,M,M,M,M,M,M,M,M,M,66.20,KMCJ 070355Z AUTO 26006KT 7SM CLR 19/13 A3018 RMK A01,M
MCJ,2020-01-07 04:15,64.40,55.40,72.56,260.00,7.00,0.00,30.19,M,10.00,M,CLR,M,M,M,M,M,M,M,M,M,M,M,M,M,M,64.40,KMCJ 070415Z AUTO 26007KT 10SM CLR 18/13 A3019 RMK A01,M
MCJ,2020-01-07 04:35,64.40,55.40,72.56,M,3.00,0.00,30.20,M,10.00,M,CLR,M,M,M,M,M,M,M,M,M,M,M,M,M,M,64.40,KMCJ 070435Z AUTO VRB03KT 10SM CLR 18/13 A3020 RMK A01,M
MCJ,2020-01-07 04:55,64.40,55.40,72.56,M,4.00,0.00,30.21,M,10.00,M,CLR,M,M,M,M,M,M,M,M,M,M,M,M,M,M,64.40,KMCJ 070455Z AUTO VRB04KT 10SM CLR 18/13 A3021 RMK A01,M
MCJ,2020-01-07 05:15,64.40,55.40,72.56,M,4.00,0.00,30.21,M,10.00,M,CLR,M,M,M,M,M,M,M,M,M,M,M,M,M,M,64.40,KMCJ 070515Z AUTO VRB04KT 10SM CLR 18/13 A3021 RMK A01,M
MCJ,2020-01-07 05:35,64.40,55.40,72.56,330.00,9.00,0.00,30.23,M,10.00,M,SCT,M,M,M,4900.00,M,M,M,M,M,M,M,M,M,M,64.40,KMCJ 070535Z AUTO 33009KT 10SM SCT049 18/13 A3023 RMK A01,M
MCJ,2020-01-07 05:55,64.40,55.40,72.56,M,6.00,0.00,30.23,M,10.00,12.00,BKN,BKN,M,M,4700.00,6500.00,M,M,M,M,M,M,M,M,M,64.40,KMCJ 070555Z AUTO VRB06G12KT 10SM BKN047 BKN065 18/13 A3023 RMK A01,M
MCJ,2020-01-07 06:15,64.40,53.60,67.95,330.00,8.00,0.00,30.23,M,10.00,M,SCT,BKN,M,M,4500.00,6000.00,M,M,M,M,M,M,M,M,M,64.40,KMCJ 070615Z AUTO 33008KT 10SM SCT045 BKN060 18/12 A3023 RMK A01,M
MCJ,2020-01-07 06:35,62.60,51.80,67.75,340.00,8.00,0.00,30.24,M,10.00,M,SCT,SCT,SCT,M,4000.00,4500.00,6000.00,M,M,M,M,M,M,M,M,62.60,KMCJ 070635Z AUTO 34008KT 10SM SCT040 SCT045 SCT060 17/11 A3024 RMK A01,M
MCJ,2020-01-07 06:55,62.60,48.20,59.26,340.00,11.00,0.00,30.25,M,10.00,M,BKN,M,M,M,4100.00,M,M,M,M,M,M,M,M,M,M,62.60,KMCJ 070655Z AUTO 34011KT 10SM BKN041 17/09 A3025 RMK A01,M
MCJ,2020-01-07 07:15,62.60,37.40,39.14,350.00,12.00,0.00,30.25,M,10.00,17.00,FEW,M,M,M,4200.00,M,M,M,M,M,M,M,M,M,M,62.60,KMCJ 070715Z AUTO 35012G17KT 10SM FEW042 17/03 A3025 RMK A01,M
MCJ,2020-01-07 07:35,60.80,37.40,41.71,340.00,12.00,0.00,30.26,M,10.00,M,CLR,M,M,M,M,M,M,M,M,M,M,M,M,M,M,60.80,KMCJ 070735Z AUTO 34012KT 10SM CLR 16/03 A3026 RMK A01,M
MCJ,2020-01-07 07:55,60.80,37.40,41.71,360.00,9.00,0.00,30.26,M,10.00,15.00,CLR,M,M,M,M,M,M,M,M,M,M,M,M,M,M,60.80,KMCJ 070755Z AUTO 36009G15KT 340V040 10SM CLR 16/03 A3026 RMK A01,M
MCJ,2020-01-07 08:15,59.00,35.60,41.42,350.00,12.00,0.00,30.27,M,10.00,M,CLR,M,M,M,M,M,M,M,M,M,M,M,M,M,M,59.00,KMCJ 070815Z AUTO 35012KT 10SM CLR 15/02 A3027 RMK A01,M
MCJ,2020-01-07 08:35,59.00,35.60,41.42,360.00,12.00,0.00,30.27,M,10.00,M,CLR,M,M,M,M,M,M,M,M,M,M,M,M,M,M,59.00,KMCJ 070835Z AUTO 36012KT 10SM CLR 15/02 A3027 RMK A01,M
MCJ,2020-01-07 08:55,59.00,33.80,38.56,360.00,6.00,0.00,30.27,M,10.00,13.00,CLR,M,M,M,M,M,M,M,M,M,M,M,M,M,M,59.00,KMCJ 070855Z AUTO 36006G13KT 10SM CLR 15/01 A3027 RMK A01,M
MCJ,2020-01-07 09:15,57.20,33.80,41.13,340.00,9.00,0.00,30.27,M,10.00,M,CLR,M,M,M,M,M,M,M,M,M,M,M,M,M,M,57.20,KMCJ 070915Z AUTO 34009KT 10SM CLR 14/01 A3027 RMK A01,M
MCJ,2020-01-07 09:35,57.20,33.80,41.13,350.00,8.00,0.00,30.28,M,10.00,13.00,CLR,M,M,M,M,M,M,M,M,M,M,M,M,M,M,57.20,KMCJ 070935Z AUTO 35008G13KT 10SM CLR 14/01 A3028 RMK A01,M
MCJ,2020-01-07 09:55,57.20,32.00,38.26,350.00,11.00,0.00,30.28,M,10.00,17.00,CLR,M,M,M,M,M,M,M,M,M,M,M,M,M,M,57.20,KMCJ 070955Z AUTO 35011G17KT 10SM CLR 14/00 A3028 RMK A01,M
MCJ,2020-01-07 10:15,55.40,32.00,40.84,360.00,9.00,0.00,30.29,M,10.00,M,CLR,M,M,M,M,M,M,M,M,M,M,M,M,M,M,55.40,KMCJ 071015Z AUTO 36009KT 10SM CLR 13/00 A3029 RMK A01,M
MCJ,2020-01-07 10:35,55.40,33.80,43.90,350.00,7.00,0.00,30.29,M,10.00,M,CLR,M,M,M,M,M,M,M,M,M,M,M,M,M,M,55.40,KMCJ 071035Z AUTO 35007KT 10SM CLR 13/01 A3029 RMK A01,M
MCJ,2020-01-07 10:55,53.60,32.00,43.61,350.00,9.00,0.00,30.30,M,10.00,M,CLR,M,M,M,M,M,M,M,M,M,M,M,M,M,M,53.60,KMCJ 071055Z AUTO 35009KT 10SM CLR 12/00 A3030 RMK A01,M
MCJ,2020-01-07 11:15,53.60,32.00,43.61,350.00,9.00,0.00,30.29,M,10.00,M,CLR,M,M,M,M,M,M,M,M,M,M,M,M,M,M,53.60,KMCJ 071115Z AUTO 35009KT 10SM CLR 12/00 A3029 RMK A01,M
MCJ,2020-01-07 11:35,51.80,32.00,46.59,350.00,8.00,0.00,30.29,M,10.00,M,CLR,M,M,M,M,M,M,M,M,M,M,M,M,M,M,51.80,KMCJ 071135Z AUTO 35008KT 10SM CLR 11/00 A3029 RMK A01,M
MCJ,2020-01-07 11:55,51.80,32.00,46.59,350.00,7.00,0.00,30.30,M,10.00,M,CLR,M,M,M,M,M,M,M,M,M,M,M,M,M,M,51.80,KMCJ 071155Z AUTO 35007KT 10SM CLR 11/00 A3030 RMK A01,M
MCJ,2020-01-07 12:15,51.80,32.00,46.59,340.00,11.00,0.00,30.32,M,10.00,M,CLR,M,M,M,M,M,M,M,M,M,M,M,M,M,M,51.80,KMCJ 071215Z AUTO 34011KT 10SM CLR 11/00 A3032 RMK A01,M
MCJ,2020-01-07 12:35,51.80,32.00,46.59,350.00,10.00,0.00,30.33,M,10.00,M,CLR,M,M,M,M,M,M,M,M,M,M,M,M,M,M,51.80,KMCJ 071235Z AUTO 35010KT 10SM CLR 11/00 A3033 RMK A01,M
MCJ,2020-01-07 12:55,51.80,32.00,46.59,340.00,11.00,0.00,30.34,M,10.00,M,CLR,M,M,M,M,M,M,M,M,M,M,M,M,M,M,51.80,KMCJ 071255Z AUTO 34011KT 10SM CLR 11/00 A3034 RMK A01,M
MCJ,2020-01-07 13:15,50.00,32.00,49.81,330.00,9.00,0.00,30.35,M,10.00,M,CLR,M,M,M,M,M,M,M,M,M,M,M,M,M,M,45.90,KMCJ 071315Z AUTO 33009KT 10SM CLR 10/M00 A3035 RMK A01,M
MCJ,2020-01-07 13:35,51.80,32.00,46.59,350.00,11.00,0.00,30.36,M,10.00,17.00,CLR,M,M,M,M,M,M,M,M,M,M,M,M,M,M,51.80,KMCJ 071335Z AUTO 35011G17KT 330V030 10SM CLR 11/M00 A3036 RMK A01,M
MCJ,2020-01-07 13:55,51.80,30.20,43.32,350.00,14.00,0.00,30.38,M,10.00,M,CLR,M,M,M,M,M,M,M,M,M,M,M,M,M,M,51.80,KMCJ 071355Z AUTO 35014KT 10SM CLR 11/M01 A3038 RMK A01,M
MCJ,2020-01-07 14:15,51.80,30.20,43.32,360.00,9.00,0.00,30.40,M,9.00,18.00,CLR,M,M,M,M,M,M,M,M,M,M,M,M,M,M,51.80,KMCJ 071415Z AUTO 36009G18KT 9SM CLR 11/M01 A3040 RMK A01,M
MCJ,2020-01-07 14:35,51.80,30.20,43.32,350.00,12.00,0.00,30.41,M,10.00,M,CLR,M,M,M,M,M,M,M,M,M,M,M,M,M,M,51.80,KMCJ 071435Z AUTO 35012KT 10SM CLR 11/M01 A3041 RMK A01,M
MCJ,2020-01-07 14:55,51.80,30.20,43.32,360.00,11.00,0.00,30.42,M,9.00,M,CLR,M,M,M,M,M,M,M,M,M,M,M,M,M,M,51.80,KMCJ 071455Z AUTO 36011KT 9SM CLR 11/M01 A3042 RMK A01,M
MCJ,2020-01-07 15:15,51.80,28.40,40.25,360.00,7.00,0.00,30.43,M,9.00,15.00,CLR,M,M,M,M,M,M,M,M,M,M,M,M,M,M,51.80,KMCJ 071515Z AUTO 36007G15KT 330V030 9SM CLR 11/M02 A3043 RMK A01,M
MCJ,2020-01-07 15:35,55.40,26.60,32.76,360.00,10.00,0.00,30.43,M,10.00,M,CLR,M,M,M,M,M,M,M,M,M,M,M,M,M,M,55.40,KMCJ 071535Z AUTO 36010KT 10SM CLR 13/M03 A3043 RMK A01,M
MCJ,2020-01-07 15:55,57.20,24.80,28.48,350.00,10.00,0.00,30.44,M,8.00,M,CLR,M,M,M,M,M,M,M,M,M,M,M,M,M,M,57.20,KMCJ 071555Z AUTO 35010KT 8SM CLR 14/M04 A3044 RMK A01,M
MCJ,2020-01-07 16:15,57.20,23.00,26.42,350.00,11.00,0.00,30.45,M,8.00,M,CLR,M,M,M,M,M,M,M,M,M,M,M,M,M,M,57.20,KMCJ 071615Z AUTO 35011KT 8SM CLR 14/M05 A3045 RMK A01,M
MCJ,2020-01-07 16:35,59.00,23.00,24.76,350.00,6.00,0.00,30.45,M,9.00,14.00,CLR,M,M,M,M,M,M,M,M,M,M,M,M,M,M,59.00,KMCJ 071635Z AUTO 35006G14KT 9SM CLR 15/M05 A3045 RMK A01,M
MCJ,2020-01-07 16:55,60.80,23.00,23.23,360.00,10.00,0.00,30.45,M,3.00,M,CLR,M,M,M,M,M,M,M,HZ,M,M,M,M,M,M,60.80,KMCJ 071655Z AUTO 36010KT 3SM HZ CLR 16/M05 A3045 RMK A01,M
MCJ,2020-01-07 17:15,60.80,23.00,23.23,M,6.00,0.00,30.44,M,3.00,12.00,CLR,M,M,M,M,M,M,M,HZ,M,M,M,M,M,M,60.80,KMCJ 071715Z AUTO VRB06G12KT 3SM HZ CLR 16/M05 A3044 RMK A01,M
MCJ,2020-01-07 17:35,62.60,21.20,20.20,M,6.00,0.00,30.43,M,10.00,M,CLR,M,M,M,M,M,M,M,M,M,M,M,M,M,M,62.60,KMCJ 071735Z AUTO VRB06KT 10SM CLR 17/M06 A3043 RMK A01,M
MCJ,2020-01-07 17:55,62.60,19.40,18.71,350.00,10.00,0.00,30.42,M,8.00,15.00,CLR,M,M,M,M,M,M,M,M,M,M,M,M,M,M,62.60,KMCJ 071755Z AUTO 35010G15KT 8SM CLR 17/M07 A3042 RMK A01,M
MCJ,2020-01-07 18:15,64.40,17.60,16.26,350.00,11.00,0.00,30.41,M,10.00,17.00,CLR,M,M,M,M,M,M,M,M,M,M,M,M,M,M,64.40,KMCJ 071815Z AUTO 35011G17KT 10SM CLR 18/M08 A3041 RMK A01,M
MCJ,2020-01-07 18:35,64.40,17.60,16.26,350.00,9.00,0.00,30.40,M,10.00,14.00,CLR,M,M,M,M,M,M,M,M,M,M,M,M,M,M,64.40,KMCJ 071835Z AUTO 35009G14KT 10SM CLR 18/M08 A3040 RMK A01,M
MCJ,2020-01-07 18:55,64.40,17.60,16.26,330.00,7.00,0.00,30.39,M,7.00,13.00,CLR,M,M,M,M,M,M,M,M,M,M,M,M,M,M,64.40,KMCJ 071855Z AUTO 33007G13KT 300V360 7SM CLR 18/M08 A3039 RMK A01,M
MCJ,2020-01-07 19:15,64.40,17.60,16.26,0.00,0.00,0.00,30.37,M,10.00,11.00,CLR,M,M,M,M,M,M,M,M,M,M,M,M,M,M,64.40,KMCJ 071915Z AUTO 00000G11KT 10SM CLR 18/M08 A3037 RMK A01,M
MCJ,2020-01-07 19:35,64.40,17.60,16.26,M,6.00,0.00,30.36,M,9.00,11.00,CLR,M,M,M,M,M,M,M,M,M,M,M,M,M,M,64.40,KMCJ 071935Z AUTO VRB06G11KT 9SM CLR 18/M08 A3036 RMK A01,M
MCJ,2020-01-07 19:55,66.20,17.60,15.27,0.00,0.00,0.00,30.36,M,3.00,12.00,CLR,M,M,M,M,M,M,M,HZ,M,M,M,M,M,M,66.20,KMCJ 071955Z AUTO 00000G12KT 3SM HZ CLR 19/M08 A3036 RMK A01,M
MCJ,2020-01-07 20:15,66.20,17.60,15.27,0.00,0.00,0.00,30.35,M,10.00,10.00,CLR,M,M,M,M,M,M,M,M,M,M,M,M,M,M,66.20,KMCJ 072015Z AUTO 00000G10KT 10SM CLR 19/M08 A3035 RMK A01,M
MCJ,2020-01-07 20:35,66.20,19.40,16.50,0.00,0.00,0.00,30.35,M,7.00,12.00,CLR,M,M,M,M,M,M,M,M,M,M,M,M,M,M,66.20,KMCJ 072035Z AUTO 00000G12KT 7SM CLR 19/M07 A3035 RMK A01,M
MCJ,2020-01-07 20:55,66.20,17.60,15.27,10.00,6.00,0.00,30.35,M,9.00,22.00,CLR,M,M,M,M,M,M,M,M,M,M,M,M,M,M,66.20,KMCJ 072055Z AUTO 01006G22KT 9SM CLR 19/M08 A3035 RMK A01,M
MCJ,2020-01-07 21:15,66.20,17.60,15.27,0.00,0.00,0.00,30.35,M,8.00,10.00,CLR,M,M,M,M,M,M,M,M,M,M,M,M,M,M,66.20,KMCJ 072115Z AUTO 00000G10KT 8SM CLR 19/M08 A3035 RMK A01,M
MCJ,2020-01-07 21:35,66.20,17.60,15.27,0.00,0.00,0.00,30.36,M,4.00,11.00,CLR,M,M,M,M,M,M,M,HZ,M,M,M,M,M,M,66.20,KMCJ 072135Z AUTO 00000G11KT 4SM HZ CLR 19/M08 A3036 RMK A01,M
MCJ,2020-01-07 21:55,66.20,17.60,15.27,350.00,4.00,0.00,30.35,M,10.00,M,CLR,M,M,M,M,M,M,M,M,M,M,M,M,M,M,66.20,KMCJ 072155Z AUTO 35004KT 10SM CLR 19/M08 A3035 RMK A01,M
MCJ,2020-01-07 22:15,66.20,17.60,15.27,0.00,0.00,0.00,30.35,M,7.00,M,CLR,M,M,M,M,M,M,M,M,M,M,M,M,M,M,66.20,KMCJ 072215Z AUTO 00000KT 7SM CLR 19/M08 A3035 RMK A01,M
MCJ,2020-01-07 22:35,66.20,17.60,15.27,0.00,0.00,0.00,30.36,M,1.00,M,CLR,M,M,M,M,M,M,M,HZ,M,M,M,M,M,M,66.20,KMCJ 072235Z AUTO 00000KT 1SM HZ CLR 19/M08 A3036 RMK A01,M
MCJ,2020-01-07 22:55,66.20,17.60,15.27,0.00,0.00,0.00,30.36,M,8.00,M,CLR,M,M,M,M,M,M,M,M,M,M,M,M,M,M,66.20,KMCJ 072255Z AUTO 00000KT 8SM CLR 19/M08 A3036 RMK A01,M
MCJ,2020-01-07 23:15,64.40,17.60,16.26,0.00,0.00,0.00,30.36,M,10.00,M,CLR,M,M,M,M,M,M,M,M,M,M,M,M,M,M,64.40,KMCJ 072315Z AUTO 00000KT 10SM CLR 18/M08 A3036 RMK A01,M
MCJ,2020-01-07 23:35,62.60,17.60,17.32,0.00,0.00,0.00,30.36,M,2.00,M,CLR,M,M,M,M,M,M,M,HZ,M,M,M,M,M,M,62.60,KMCJ 072335Z AUTO 00000KT 2SM HZ CLR 17/M08 A3036 RMK A01,M
MCJ,2020-01-07 23:55,60.80,17.60,18.46,0.00,0.00,0.00,30.36,M,0.75,M,VV ,M,M,M,500.00,M,M,M,HZ,M,M,M,M,M,M,60.80,KMCJ 072355Z AUTO 00000KT 3/4SM HZ VV005 16/M08 A3036 RMK A01,M
MCJ,2020-01-08 00:15,60.80,17.60,18.46,0.00,0.00,0.00,30.36,M,6.00,M,CLR,M,M,M,M,M,M,M,HZ,M,M,M,M,M,M,60.80,KMCJ 080015Z AUTO 00000KT 6SM HZ CLR 16/M08 A3036 RMK A01,M
MCJ,2020-01-08 00:35,60.80,17.60,18.46,0.00,0.00,0.00,30.36,M,10.00,M,CLR,M,M,M,M,M,M,M,M,M,M,M,M,M,M,60.80,KMCJ 080035Z AUTO 00000KT 10SM CLR 16/M08 A3036 RMK A01,M
MCJ,2020-01-08 00:55,60.80,19.40,19.94,0.00,0.00,0.00,30.37,M,1.75,M,CLR,M,M,M,M,M,M,M,HZ,M,M,M,M,M,M,60.80,KMCJ 080055Z AUTO 00000KT 1 3/4SM HZ CLR 16/M07 A3037 RMK A01 VIS 1/2V5,M
MCJ,2020-01-08 01:15,60.80,19.40,19.94,0.00,0.00,0.00,30.38,M,0.75,M,VV ,M,M,M,500.00,M,M,M,HZ,M,M,M,M,M,M,60.80,KMCJ 080115Z AUTO 00000KT 3/4SM HZ VV005 16/M07 A3038 RMK A01,M
MCJ,2020-01-08 01:35,60.80,19.40,19.94,0.00,0.00,0.00,30.38,M,10.00,M,CLR,M,M,M,M,M,M,M,M,M,M,M,M,M,M,60.80,KMCJ 080135Z AUTO 00000KT 10SM CLR 16/M07 A3038 RMK A01,M
MCJ,2020-01-08 01:55,59.00,23.00,24.76,0.00,0.00,0.00,30.38,M,6.00,M,CLR,M,M,M,M,M,M,M,HZ,M,M,M,M,M,M,59.00,KMCJ 080155Z AUTO 00000KT 6SM HZ CLR 15/M05 A3038 RMK A01,M
MCJ,2020-01-08 02:15,59.00,23.00,24.76,0.00,0.00,0.00,30.39,M,10.00,M,CLR,M,M,M,M,M,M,M,M,M,M,M,M,M,M,59.00,KMCJ 080215Z AUTO 00000KT 10SM CLR 15/M05 A3039 RMK A01,M
MCJ,2020-01-08 02:35,57.20,23.00,26.42,0.00,0.00,0.00,30.38,M,6.00,M,CLR,M,M,M,M,M,M,M,HZ,M,M,M,M,M,M,57.20,KMCJ 080235Z AUTO 00000KT 6SM HZ CLR 14/M05 A3038 RMK A01,M
MCJ,2020-01-08 02:55,57.20,23.00,26.42,0.00,0.00,0.00,30.39,M,2.00,M,CLR,M,M,M,M,M,M,M,HZ,M,M,M,M,M,M,57.20,KMCJ 080255Z AUTO 00000KT 2SM HZ CLR 14/M05 A3039 RMK A01,M
MCJ,2020-01-08 03:15,57.20,23.00,26.42,0.00,0.00,0.00,30.38,M,10.00,M,CLR,M,M,M,M,M,M,M,M,M,M,M,M,M,M,57.20,KMCJ 080315Z AUTO 00000KT 10SM CLR 14/M05 A3038 RMK A01,M
MCJ,2020-01-08 03:35,57.20,23.00,26.42,0.00,0.00,0.00,30.38,M,2.00,M,CLR,M,M,M,M,M,M,M,HZ,M,M,M,M,M,M,57.20,KMCJ 080335Z AUTO 00000KT 2SM HZ CLR 14/M05 A3038 RMK A01,M
MCJ,2020-01-08 03:55,57.20,21.20,24.49,0.00,0.00,0.00,30.38,M,6.00,M,CLR,M,M,M,M,M,M,M,HZ,M,M,M,M,M,M,57.20,KMCJ 080355Z AUTO 00000KT 6SM HZ CLR 14/M06 A3038 RMK A01,M
MCJ,2020-01-08 04:15,57.20,23.00,26.42,0.00,0.00,0.00,30.38,M,10.00,M,CLR,M,M,M,M,M,M,M,M,M,M,M,M,M,M,57.20,KMCJ 080415Z AUTO 00000KT 10SM CLR 14/M05 A3038 RMK A01,M
MCJ,2020-01-08 04:35,57.20,23.00,26.42,0.00,0.00,0.00,30.38,M,9.00,M,CLR,M,M,M,M,M,M,M,M,M,M,M,M,M,M,57.20,KMCJ 080435Z AUTO 00000KT 9SM CLR 14/M05 A3038 RMK A01,M
MCJ,2020-01-08 04:55,57.20,24.80,28.48,0.00,0.00,0.00,30.38,M,10.00,M,CLR,M,M,M,M,M,M,M,M,M,M,M,M,M,M,57.20,KMCJ 080455Z AUTO 00000KT 10SM CLR 14/M04 A3038 RMK A01,M
MCJ,2020-01-08 05:15,55.40,26.60,32.76,0.00,0.00,0.00,30.38,M,10.00,M,CLR,M,M,M,M,M,M,M,M,M,M,M,M,M,M,55.40,KMCJ 080515Z AUTO 00000KT 10SM CLR 13/M03 A3038 RMK A01,M
MCJ,2020-01-08 05:35,55.40,26.60,32.76,0.00,0.00,0.00,30.37,M,3.00,M,CLR,M,M,M,M,M,M,M,HZ,M,M,M,M,M,M,55.40,KMCJ 080535Z AUTO 00000KT 3SM HZ CLR 13/M03 A3037 RMK A01,M
MCJ,2020-01-08 05:55,55.40,23.00,28.20,0.00,0.00,0.00,30.37,M,9.00,M,CLR,M,M,M,M,M,M,M,M,M,M,M,M,M,M,55.40,KMCJ 080555Z AUTO 00000KT 9SM CLR 13/M05 A3037 RMK A01,M
MCJ,2020-01-08 06:15,55.40,23.00,28.20,0.00,0.00,0.00,30.36,M,1.75,M,CLR,M,M,M,M,M,M,M,HZ,M,M,M,M,M,M,55.40,KMCJ 080615Z AUTO 00000KT 1 3/4SM HZ CLR 13/M05 A3036 RMK A01,M
MCJ,2020-01-08 06:35,53.60,28.40,37.67,0.00,0.00,0.00,30.36,M,9.00,M,CLR,M,M,M,M,M,M,M,M,M,M,M,M,M,M,53.60,KMCJ 080635Z AUTO 00000KT 9SM CLR 12/M02 A3036 RMK A01,M
MCJ,2020-01-08 06:55,51.80,28.40,40.25,0.00,0.00,0.00,30.36,M,9.00,M,CLR,M,M,M,M,M,M,M,M,M,M,M,M,M,M,51.80,KMCJ 080655Z AUTO 00000KT 9SM CLR 11/M02 A3036 RMK A01,M
MCJ,2020-01-08 07:15,51.80,28.40,40.25,0.00,0.00,0.00,30.36,M,10.00,M,CLR,M,M,M,M,M,M,M,M,M,M,M,M,M,M,51.80,KMCJ 080715Z AUTO 00000KT 10SM CLR 11/M02 A3036 RMK A01,M
MCJ,2020-01-08 07:35,51.80,26.60,37.38,0.00,0.00,0.00,30.36,M,9.00,M,CLR,M,M,M,M,M,M,M,M,M,M,M,M,M,M,51.80,KMCJ 080735Z AUTO 00000KT 9SM CLR 11/M03 A3036 RMK A01,M
MCJ,2020-01-08 07:55,51.80,26.60,37.38,0.00,0.00,0.00,30.36,M,2.50,M,CLR,M,M,M,M,M,M,M,HZ,M,M,M,M,M,M,51.80,KMCJ 080755Z AUTO 00000KT 2 1/2SM HZ CLR 11/M03 A3036 RMK A01,M
MCJ,2020-01-08 08:15,51.80,26.60,37.38,0.00,0.00,0.00,30.36,M,2.00,M,CLR,M,M,M,M,M,M,M,HZ,M,M,M,M,M,M,51.80,KMCJ 080815Z AUTO 00000KT 2SM HZ CLR 11/M03 A3036 RMK A01,M
MCJ,2020-01-08 08:35,51.80,26.60,37.38,0.00,0.00,0.00,30.36,M,10.00,M,CLR,M,M,M,M,M,M,M,M,M,M,M,M,M,M,51.80,KMCJ 080835Z AUTO 00000KT 10SM CLR 11/M03 A3036 RMK A01,M
MCJ,2020-01-08 08:55,53.60,26.60,34.98,0.00,0.00,0.00,30.35,M,10.00,M,CLR,M,M,M,M,M,M,M,M,M,M,M,M,M,M,53.60,KMCJ 080855Z AUTO 00000KT 10SM CLR 12/M03 A3035 RMK A01,M
MCJ,2020-01-08 09:15,53.60,28.40,37.67,0.00,0.00,0.00,30.36,M,10.00,M,CLR,M,M,M,M,M,M,M,M,M,M,M,M,M,M,53.60,KMCJ 080915Z AUTO 00000KT 10SM CLR 12/M02 A3036 RMK A01,M
MCJ,2020-01-08 09:35,51.80,30.20,43.32,0.00,0.00,0.00,30.35,M,2.50,M,CLR,M,M,M,M,M,M,M,HZ,M,M,M,M,M,M,51.80,KMCJ 080935Z AUTO 00000KT 2 1/2SM HZ CLR 11/M01 A3035 RMK A01,M
MCJ,2020-01-08 09:55,51.80,32.00,46.59,0.00,0.00,0.00,30.35,M,9.00,M,CLR,M,M,M,M,M,M,M,M,M,M,M,M,M,M,51.80,KMCJ 080955Z AUTO 00000KT 9SM CLR 11/00 A3035 RMK A01,M
MCJ,2020-01-08 10:15,51.80,33.80,50.08,0.00,0.00,0.00,30.35,M,10.00,M,CLR,M,M,M,M,M,M,M,M,M,M,M,M,M,M,51.80,KMCJ 081015Z AUTO 00000KT 10SM CLR 11/01 A3035 RMK A01,M
MCJ,2020-01-08 10:35,51.80,33.80,50.08,0.00,0.00,0.00,30.34,M,6.00,M,CLR,M,M,M,M,M,M,M,HZ,M,M,M,M,M,M,51.80,KMCJ 081035Z AUTO 00000KT 6SM HZ CLR 11/01 A3034 RMK A01,M
MCJ,2020-01-08 10:55,51.80,33.80,50.08,0.00,0.00,0.00,30.34,M,10.00,M,CLR,M,M,M,M,M,M,M,M,M,M,M,M,M,M,51.80,KMCJ 081055Z AUTO 00000KT 10SM CLR 11/01 A3034 RMK A01,M
MCJ,2020-01-08 11:15,51.80,35.60,53.81,0.00,0.00,0.00,30.34,M,9.00,M,CLR,M,M,M,M,M,M,M,M,M,M,M,M,M,M,51.80,KMCJ 081115Z AUTO 00000KT 9SM CLR 11/02 A3034 RMK A01,M
MCJ,2020-01-08 11:35,50.00,35.60,57.52,0.00,0.00,0.00,30.35,M,2.50,M,CLR,M,M,M,M,M,M,M,HZ,M,M,M,M,M,M,50.00,KMCJ 081135Z AUTO 00000KT 2 1/2SM HZ CLR 10/02 A3035 RMK A01 VIS 1 1/4V5,M
MCJ,2020-01-08 11:55,50.00,35.60,57.52,0.00,0.00,0.00,30.35,M,10.00,M,CLR,M,M,M,M,M,M,M,M,M,M,M,M,M,M,50.00,KMCJ 081155Z AUTO 00000KT 10SM CLR 10/02 A3035 RMK A01,M
MCJ,2020-01-08 12:15,50.00,35.60,57.52,0.00,0.00,0.00,30.36,M,3.00,M,CLR,M,M,M,M,M,M,M,HZ,M,M,M,M,M,M,50.00,KMCJ 081215Z AUTO 00000KT 3SM HZ CLR 10/02 A3036 RMK A01,M
MCJ,2020-01-08 12:35,50.00,33.80,53.54,0.00,0.00,0.00,30.36,M,10.00,M,CLR,M,M,M,M,M,M,M,M,M,M,M,M,M,M,50.00,KMCJ 081235Z AUTO 00000KT 10SM CLR 10/01 A3036 RMK A01,M
MCJ,2020-01-08 12:55,50.00,35.60,57.52,0.00,0.00,0.00,30.37,M,9.00,M,CLR,M,M,M,M,M,M,M,M,M,M,M,M,M,M,50.00,KMCJ 081255Z AUTO 00000KT 9SM CLR 10/02 A3037 RMK A01,M
MCJ,2020-01-08 13:15,50.00,35.60,57.52,0.00,0.00,0.00,30.37,M,10.00,M,CLR,M,M,M,M,M,M,M,M,M,M,M,M,M,M,50.00,KMCJ 081315Z AUTO 00000KT 10SM CLR 10/02 A3037 RMK A01,M
MCJ,2020-01-08 13:35,50.00,37.40,61.76,0.00,0.00,0.00,30.36,M,10.00,M,CLR,M,M,M,M,M,M,M,M,M,M,M,M,M,M,50.00,KMCJ 081335Z AUTO 00000KT 10SM CLR 10/03 A3036 RMK A01,M
MCJ,2020-01-08 13:55,50.00,37.40,61.76,0.00,0.00,0.00,30.36,M,8.00,M,CLR,M,M,M,M,M,M,M,M,M,M,M,M,M,M,50.00,KMCJ 081355Z AUTO 00000KT 8SM CLR 10/03 A3036 RMK A01,M
MCJ,2020-01-08 14:15,50.00,39.20,66.27,0.00,0.00,0.00,30.36,M,10.00,M,CLR,M,M,M,M,M,M,M,M,M,M,M,M,M,M,50.00,KMCJ 081415Z AUTO 00000KT 10SM CLR 10/04 A3036 RMK A01,M
MCJ,2020-01-08 14:35,51.80,41.00,66.48,0.00,0.00,0.00,30.37,M,10.00,M,CLR,M,M,M,M,M,M,M,M,M,M,M,M,M,M,51.80,KMCJ 081435Z AUTO 00000KT 10SM CLR 11/05 A3037 RMK A01,M
MCJ,2020-01-08 14:55,51.80,42.80,71.26,M,3.00,0.00,30.37,M,9.00,M,CLR,M,M,M,M,M,M,M,M,M,M,M,M,M,M,51.80,KMCJ 081455Z AUTO VRB03KT 9SM CLR 11/06 A3037 RMK A01,M
MCJ,2020-01-08 15:15,53.60,42.80,66.70,0.00,0.00,0.00,30.38,M,8.00,M,CLR,M,M,M,M,M,M,M,M,M,M,M,M,M,M,53.60,KMCJ 081515Z AUTO 00000KT 8SM CLR 12/06 A3038 RMK A01,M
MCJ,2020-01-08 15:35,57.20,42.80,58.52,30.00,5.00,0.00,30.37,M,9.00,M,CLR,M,M,M,M,M,M,M,M,M,M,M,M,M,M,57.20,KMCJ 081535Z AUTO 03005KT 9SM CLR 14/06 A3037 RMK A01,M
MCJ,2020-01-08 15:55,59.00,41.00,51.18,M,5.00,0.00,30.38,M,9.00,M,CLR,M,M,M,M,M,M,M,M,M,M,M,M,M,M,59.00,KMCJ 081555Z AUTO VRB05KT 9SM CLR 15/05 A3038 RMK A01,M
MCJ,2020-01-08 16:15,60.80,41.00,48.00,M,3.00,0.00,30.37,M,10.00,M,CLR,M,M,M,M,M,M,M,M,M,M,M,M,M,M,60.80,KMCJ 081615Z AUTO VRB03KT 10SM CLR 16/05 A3037 RMK A01,M
MCJ,2020-01-08 16:35,62.60,41.00,45.04,M,4.00,0.00,30.36,M,10.00,11.00,CLR,M,M,M,M,M,M,M,M,M,M,M,M,M,M,62.60,KMCJ 081635Z AUTO VRB04G11KT 10SM CLR 17/05 A3036 RMK A01,M
MCJ,2020-01-08 16:55,62.60,42.80,48.28,0.00,0.00,0.00,30.36,M,10.00,M,CLR,M,M,M,M,M,M,M,M,M,M,M,M,M,M,62.60,KMCJ 081655Z AUTO 00000KT 10SM CLR 17/06 A3036 RMK A01,M
MCJ,2020-01-08 17:15,64.40,42.80,45.32,M,4.00,0.00,30.35,M,10.00,M,CLR,M,M,M,M,M,M,M,M,M,M,M,M,M,M,64.40,KMCJ 081715Z AUTO VRB04KT 10SM CLR 18/06 A3035 RMK A01,M
MCJ,2020-01-08 17:35,64.40,44.60,48.55,0.00,0.00,0.00,30.33,M,10.00,M,CLR,M,M,M,M,M,M,M,M,M,M,M,M,M,M,64.40,KMCJ 081735Z AUTO 00000KT 10SM CLR 18/07 A3033 RMK A01,M
MCJ,2020-01-08 17:55,66.20,44.60,45.60,M,5.00,0.00,30.32,M,10.00,M,CLR,M,M,M,M,M,M,M,M,M,M,M,M,M,M,66.20,KMCJ 081755Z AUTO VRB05KT 10SM CLR 19/07 A3032 RMK A01,M
MCJ,2020-01-08 18:15,66.20,44.60,45.60,M,5.00,0.00,30.32,M,10.00,M,CLR,M,M,M,M,M,M,M,M,M,M,M,M,M,M,66.20,KMCJ 081815Z AUTO VRB05KT 10SM CLR 19/07 A3032 RMK A01,M
MCJ,2020-01-08 18:35,68.00,44.60,42.85,M,5.00,0.00,30.30,M,10.00,12.00,CLR,M,M,M,M,M,M,M,M,M,M,M,M,M,M,68.00,KMCJ 081835Z AUTO VRB05G12KT 10SM CLR 20/07 A3030 RMK A01,M
MCJ,2020-01-08 18:55,68.00,44.60,42.85,M,4.00,0.00,30.29,M,10.00,M,CLR,M,M,M,M,M,M,M,M,M,M,M,M,M,M,68.00,KMCJ 081855Z AUTO VRB04KT 10SM CLR 20/07 A3029 RMK A01,M
MCJ,2020-01-08 19:15,68.00,44.60,42.85,M,5.00,0.00,30.27,M,10.00,M,CLR,M,M,M,M,M,M,M,M,M,M,M,M,M,M,68.00,KMCJ 081915Z AUTO VRB05KT 10SM CLR 20/07 A3027 RMK A01,M
MCJ,2020-01-08 19:35,69.80,46.40,43.13,M,7.00,0.00,30.26,M,10.00,15.00,CLR,M,M,M,M,M,M,M,M,M,M,M,M,M,M,69.80,KMCJ 081935Z AUTO VRB07G15KT 10SM CLR 21/08 A3026 RMK A01,M
MCJ,2020-01-08 19:55,68.00,46.40,45.88,280.00,7.00,0.00,30.25,M,10.00,M,FEW,M,M,M,3700.00,M,M,M,M,M,M,M,M,M,M,68.00,KMCJ 081955Z AUTO 28007KT 200V010 10SM FEW037 20/08 A3025 RMK A01,M
MCJ,2020-01-08 20:15,68.00,48.20,49.10,M,5.00,0.00,30.25,M,10.00,11.00,SCT,M,M,M,3600.00,M,M,M,M,M,M,M,M,M,M,68.00,KMCJ 082015Z AUTO VRB05G11KT 10SM SCT036 20/09 A3025 RMK A01,M
MCJ,2020-01-08 20:35,68.00,48.20,49.10,M,4.00,0.00,30.25,M,10.00,10.00,SCT,M,M,M,3500.00,M,M,M,M,M,M,M,M,M,M,68.00,KMCJ 082035Z AUTO VRB04G10KT 10SM SCT035 20/09 A3025 RMK A01,M
MCJ,2020-01-08 20:55,68.00,48.20,49.10,M,5.00,0.00,30.23,M,10.00,13.00,SCT,SCT,M,M,3400.00,9000.00,M,M,M,M,M,M,M,M,M,68.00,KMCJ 082055Z AUTO VRB05G13KT 10SM SCT034 SCT090 20/09 A3023 RMK A01,M
MCJ,2020-01-08 21:15,68.00,50.00,52.51,M,4.00,0.00,30.22,M,10.00,11.00,BKN,SCT,M,M,3400.00,9000.00,M,M,M,M,M,M,M,M,M,68.00,KMCJ 082115Z AUTO VRB04G11KT 10SM BKN034 SCT090 20/10 A3022 RMK A01,M
MCJ,2020-01-08 21:35,68.00,50.00,52.51,M,5.00,0.00,30.22,M,9.00,12.00,SCT,M,M,M,3300.00,M,M,M,M,M,M,M,M,M,M,68.00,KMCJ 082135Z AUTO VRB05G12KT 9SM SCT033 20/10 A3022 RMK A01,M
MCJ,2020-01-08 21:55,68.00,50.00,52.51,M,5.00,0.00,30.23,M,10.00,10.00,BKN,BKN,BKN,M,3200.00,3900.00,10000.00,M,M,M,M,M,M,M,M,68.00,KMCJ 082155Z AUTO VRB05G10KT 10SM BKN032 BKN039 BKN100 20/10 A3023 RMK A01,M
MCJ,2020-01-08 22:15,66.20,50.00,55.88,M,4.00,0.00,30.23,M,10.00,10.00,BKN,BKN,M,M,3000.00,3500.00,M,M,M,M,M,M,M,M,M,66.20,KMCJ 082215Z AUTO VRB04G10KT 10SM BKN030 BKN035 19/10 A3023 RMK A01,M
MCJ,2020-01-08 22:35,64.40,50.00,59.50,0.00,0.00,0.00,30.23,M,10.00,M,SCT,BKN,M,M,3200.00,3800.00,M,M,M,M,M,M,M,M,M,64.40,KMCJ 082235Z AUTO 00000KT 10SM SCT032 BKN038 18/10 A3023 RMK A01,M
MCJ,2020-01-08 22:55,64.40,50.00,59.50,M,3.00,0.00,30.22,M,10.00,M,BKN,BKN,M,M,3400.00,4000.00,M,M,M,M,M,M,M,M,M,64.40,KMCJ 082255Z AUTO VRB03KT 10SM BKN034 BKN040 18/10 A3022 RMK A01,M
MCJ,2020-01-08 23:15,62.60,51.80,67.75,M,4.00,0.00,30.22,M,10.00,M,BKN,BKN,M,M,3200.00,4000.00,M,M,M,M,M,M,M,M,M,62.60,KMCJ 082315Z AUTO VRB04KT 10SM BKN032 BKN040 17/11 A3022 RMK A01,M
MCJ,2020-01-08 23:35,62.60,51.80,67.75,0.00,0.00,0.00,30.22,M,10.00,M,BKN,M,M,M,3500.00,M,M,M,M,M,M,M,M,M,M,62.60,KMCJ 082335Z AUTO 00000KT 10SM BKN035 17/11 A3022 RMK A01,M
MCJ,2020-01-08 23:55,60.80,51.80,72.20,0.00,0.00,0.00,30.22,M,10.00,10.00,BKN,M,M,M,3700.00,M,M,M,M,M,M,M,M,M,M,60.80,KMCJ 082355Z AUTO 00000G10KT 10SM BKN037 16/11 A3022 RMK A01,M
MCJ,2020-01-09 00:15,60.80,51.80,72.20,M,5.00,0.00,30.20,M,10.00,12.00,BKN,M,M,M,3700.00,M,M,M,M,M,M,M,M,M,M,60.80,KMCJ 090015Z AUTO VRB05G12KT 10SM BKN037 16/11 A3020 RMK A01,M
MCJ,2020-01-09 00:35,60.80,51.80,72.20,M,5.00,0.00,30.20,M,10.00,11.00,BKN,M,M,M,3700.00,M,M,M,M,M,M,M,M,M,M,60.80,KMCJ 090035Z AUTO VRB05G11KT 10SM BKN037 16/11 A3020 RMK A01,M
MCJ,2020-01-09 00:55,59.00,53.60,82.25,M,3.00,0.00,30.20,M,10.00,10.00,SCT,M,M,M,3700.00,M,M,M,M,M,M,M,M,M,M,59.00,KMCJ 090055Z AUTO VRB03G10KT 10SM SCT037 15/12 A3020 RMK A01,M
MCJ,2020-01-09 01:15,59.00,53.60,82.25,M,4.00,0.00,30.20,M,10.00,M,SCT,M,M,M,3700.00,M,M,M,M,M,M,M,M,M,M,59.00,KMCJ 090115Z AUTO VRB04KT 10SM SCT037 15/12 A3020 RMK A01,M
MCJ,2020-01-09 01:35,59.00,53.60,82.25,M,4.00,0.00,30.19,M,10.00,10.00,FEW,M,M,M,3700.00,M,M,M,M,M,M,M,M,M,M,59.00,KMCJ 090135Z AUTO VRB04G10KT 10SM FEW037 15/12 A3019 RMK A01,M
MCJ,2020-01-09 01:55,59.00,53.60,82.25,M,4.00,0.00,30.19,M,10.00,11.00,CLR,M,M,M,M,M,M,M,M,M,M,M,M,M,M,59.00,KMCJ 090155Z AUTO VRB04G11KT 10SM CLR 15/12 A3019 RMK A01,M
MCJ,2020-01-09 02:15,59.00,55.40,87.83,M,4.00,0.00,30.19,M,10.00,10.00,CLR,M,M,M,M,M,M,M,M,M,M,M,M,M,M,59.00,KMCJ 090215Z AUTO VRB04G10KT 10SM CLR 15/13 A3019 RMK A01,M
MCJ,2020-01-09 02:35,59.00,55.40,87.83,M,3.00,0.00,30.18,M,10.00,11.00,CLR,M,M,M,M,M,M,M,M,M,M,M,M,M,M,59.00,KMCJ 090235Z AUTO VRB03G11KT 10SM CLR 15/13 A3018 RMK A01,M
MCJ,2020-01-09 02:55,59.00,55.40,87.83,0.00,0.00,0.00,30.19,M,10.00,M,FEW,M,M,M,3800.00,M,M,M,M,M,M,M,M,M,M,59.00,KMCJ 090255Z AUTO 00000KT 10SM FEW038 15/13 A3019 RMK A01,M
MCJ,2020-01-09 03:15,59.00,57.20,93.74,M,3.00,0.00,30.19,M,10.00,M,CLR,M,M,M,M,M,M,M,M,M,M,M,M,M,M,59.00,KMCJ 090315Z AUTO VRB03KT 10SM CLR 15/14 A3019 RMK A01,M
MCJ,2020-01-09 03:35,59.00,57.20,93.74,0.00,0.00,0.00,30.18,M,10.00,M,FEW,M,M,M,3800.00,M,M,M,M,M,M,M,M,M,M,59.00,KMCJ 090335Z AUTO 00000KT 10SM FEW038 15/14 A3018 RMK A01,M
MCJ,2020-01-09 03:55,59.00,57.20,93.74,0.00,0.00,0.00,30.17,M,10.00,M,FEW,M,M,M,3800.00,M,M,M,M,M,M,M,M,M,M,59.00,KMCJ 090355Z AUTO 00000KT 10SM FEW038 15/14 A3017 RMK A01,M
MCJ,2020-01-09 04:15,59.00,57.20,93.74,0.00,0.00,0.00,30.17,M,9.00,M,CLR,M,M,M,M,M,M,M,M,M,M,M,M,M,M,59.00,KMCJ 090415Z AUTO 00000KT 9SM CLR 15/14 A3017 RMK A01,M
MCJ,2020-01-09 04:35,59.00,59.00,100.00,0.00,0.00,0.00,30.16,M,10.00,M,SCT,M,M,M,4200.00,M,M,M,M,M,M,M,M,M,M,59.00,KMCJ 090435Z AUTO 00000KT 10SM SCT042 15/15 A3016 RMK A01,M
MCJ,2020-01-09 04:55,59.00,59.00,100.00,0.00,0.00,0.00,30.16,M,10.00,M,SCT,M,M,M,4100.00,M,M,M,M,M,M,M,M,M,M,59.00,KMCJ 090455Z AUTO 00000KT 10SM SCT041 15/15 A3016 RMK A01,M
MCJ,2020-01-09 05:15,59.00,59.00,100.00,0.00,0.00,0.00,30.15,M,9.00,M,CLR,M,M,M,M,M,M,M,M,M,M,M,M,M,M,59.00,KMCJ 090515Z AUTO 00000KT 9SM CLR 15/15 A3015 RMK A01,M
MCJ,2020-01-09 05:35,59.00,59.00,100.00,0.00,0.00,0.00,30.15,M,10.00,M,FEW,M,M,M,7500.00,M,M,M,M,M,M,M,M,M,M,59.00,KMCJ 090535Z AUTO 00000KT 10SM FEW075 15/15 A3015 RMK A01,M
MCJ,2020-01-09 05:55,59.00,59.00,100.00,0.00,0.00,0.00,30.15,M,9.00,M,BKN,M,M,M,7500.00,M,M,M,M,M,M,M,M,M,M,59.00,KMCJ 090555Z AUTO 00000KT 9SM BKN075 15/15 A3015 RMK A01,M
MCJ,2020-01-09 06:15,60.80,59.00,93.79,0.00,0.00,0.00,30.14,M,9.00,M,OVC,M,M,M,7500.00,M,M,M,M,M,M,M,M,M,M,60.80,KMCJ 090615Z AUTO 00000KT 9SM OVC075 16/15 A3014 RMK A01,M
MCJ,2020-01-09 06:35,60.80,59.00,93.79,0.00,0.00,0.00,30.13,M,8.00,M,OVC,M,M,M,7500.00,M,M,M,M,M,M,M,M,M,M,60.80,KMCJ 090635Z AUTO 00000KT 8SM OVC075 16/15 A3013 RMK A01,M
MCJ,2020-01-09 06:55,60.80,59.00,93.79,0.00,0.00,0.00,30.12,M,9.00,M,OVC,M,M,M,7500.00,M,M,M,M,M,M,M,M,M,M,60.80,KMCJ 090655Z AUTO 00000KT 9SM OVC075 16/15 A3012 RMK A01,M
MCJ,2020-01-09 07:15,60.80,59.00,93.79,0.00,0.00,0.00,30.12,M,9.00,M,FEW,SCT,OVC,M,3100.00,3700.00,7500.00,M,M,M,M,M,M,M,M,60.80,KMCJ 090715Z AUTO 00000KT 9SM FEW031 SCT037 OVC075 16/15 A3012 RMK A01,M
MCJ,2020-01-09 07:35,60.80,59.00,93.79,0.00,0.00,0.00,30.11,M,9.00,M,FEW,OVC,M,M,3700.00,7000.00,M,M,M,M,M,M,M,M,M,60.80,KMCJ 090735Z AUTO 00000KT 9SM FEW037 OVC070 16/15 A3011 RMK A01,M
MCJ,2020-01-09 07:55,60.80,59.00,93.79,0.00,0.00,0.00,30.11,M,10.00,M,SCT,OVC,M,M,3000.00,7000.00,M,M,M,M,M,M,M,M,M,60.80,KMCJ 090755Z AUTO 00000KT 10SM SCT030 OVC070 16/15 A3011 RMK A01,M
MCJ,2020-01-09 08:15,62.60,59.00,88.00,0.00,0.00,0.00,30.11,M,9.00,M,SCT,BKN,OVC,M,2700.00,3200.00,7000.00,M,M,M,M,M,M,M,M,62.60,KMCJ 090815Z AUTO 00000KT 9SM SCT027 BKN032 OVC070 17/15 A3011 RMK A01,M
MCJ,2020-01-09 08:35,62.60,59.00,88.00,0.00,0.00,0.00,30.11,M,9.00,M,BKN,BKN,OVC,M,2700.00,3100.00,7500.00,M,M,M,M,M,M,M,M,62.60,KMCJ 090835Z AUTO 00000KT 9SM BKN027 BKN031 OVC075 17/15 A3011 RMK A01,M
MCJ,2020-01-09 08:55,62.60,59.00,88.00,0.00,0.00,0.00,30.10,M,9.00,M,FEW,FEW,BKN,M,2700.00,3400.00,6500.00,M,M,M,M,M,M,M,M,62.60,KMCJ 090855Z AUTO 00000KT 9SM FEW027 FEW034 BKN065 17/15 A3010 RMK A01,M
MCJ,2020-01-09 09:15,62.60,59.00,88.00,0.00,0.00,0.00,30.09,M,9.00,M,BKN,BKN,OVC,M,6000.00,7000.00,8000.00,M,M,M,M,M,M,M,M,62.60,KMCJ 090915Z AUTO 00000KT 9SM BKN060 BKN070 OVC080 17/15 A3009 RMK A01,M
MCJ,2020-01-09 09:35,62.60,59.00,88.00,0.00,0.00,0.00,30.09,M,8.00,M,BKN,BKN,OVC,M,6000.00,7000.00,8500.00,M,M,M,M,M,M,M,M,62.60,KMCJ 090935Z AUTO 00000KT 8SM BKN060 BKN070 OVC085 17/15 A3009 RMK A01,M
MCJ,2020-01-09 09:55,62.60,59.00,88.00,0.00,0.00,0.00,30.08,M,9.00,M,BKN,BKN,BKN,M,6000.00,7500.00,8500.00,M,M,M,M,M,M,M,M,62.60,KMCJ 090955Z AUTO 00000KT 9SM BKN060 BKN075 BKN085 17/15 A3008 RMK A01,M
MCJ,2020-01-09 10:15,62.60,59.00,88.00,0.00,0.00,0.00,30.09,M,9.00,M,BKN,BKN,BKN,M,5500.00,6500.00,8500.00,M,M,M,M,M,M,M,M,62.60,KMCJ 091015Z AUTO 00000KT 9SM BKN055 BKN065 BKN085 17/15 A3009 RMK A01,M
MCJ,2020-01-09 10:35,62.60,59.00,88.00,0.00,0.00,0.00,30.08,M,9.00,M,BKN,BKN,OVC,M,5500.00,6500.00,8500.00,M,M,M,M,M,M,M,M,62.60,KMCJ 091035Z AUTO 00000KT 9SM BKN055 BKN065 OVC085 17/15 A3008 RMK A01,M
MCJ,2020-01-09 10:55,62.60,60.80,93.83,0.00,0.00,0.00,30.08,M,8.00,M,BKN,OVC,M,M,5000.00,6500.00,M,M,M,M,M,M,M,M,M,62.60,KMCJ 091055Z AUTO 00000KT 8SM BKN050 OVC065 17/16 A3008 RMK A01,M
MCJ,2020-01-09 11:15,62.60,60.80,93.83,0.00,0.00,0.00,30.08,M,8.00,M,BKN,BKN,BKN,M,5000.00,6000.00,9000.00,M,M,M,M,M,M,M,M,62.60,KMCJ 091115Z AUTO 00000KT 8SM BKN050 BKN060 BKN090 17/16 A3008 RMK A01,M
MCJ,2020-01-09 11:35,62.60,60.80,93.83,0.00,0.00,0.00,30.08,M,8.00,M,FEW,BKN,BKN,M,2700.00,5500.00,6500.00,M,M,M,M,M,M,M,M,62.60,KMCJ 091135Z AUTO 00000KT 8SM FEW027 BKN055 BKN065 17/16 A3008 RMK A01,M
MCJ,2020-01-09 11:55,62.60,60.80,93.83,0.00,0.00,0.00,30.07,M,9.00,M,FEW,SCT,BKN,M,5500.00,6500.00,8500.00,M,M,M,M,M,M,M,M,62.60,KMCJ 091155Z AUTO 00000KT 9SM FEW055 SCT065 BKN085 17/16 A3007 RMK A01,M
MCJ,2020-01-09 12:15,64.40,60.80,88.09,0.00,0.00,0.00,30.07,M,8.00,M,FEW,SCT,BKN,M,5500.00,6500.00,8500.00,M,M,M,M,M,M,M,M,64.40,KMCJ 091215Z AUTO 00000KT 8SM FEW055 SCT065 BKN085 18/16 A3007 RMK A01,M
MCJ,2020-01-09 12:35,64.40,60.80,88.09,0.00,0.00,0.00,30.06,M,9.00,M,BKN,BKN,BKN,M,5000.00,6500.00,8500.00,M,M,M,M,M,M,M,M,64.40,KMCJ 091235Z AUTO 00000KT 9SM BKN050 BKN065 BKN085 18/16 A3006 RMK A01,M
MCJ,2020-01-09 12:55,64.40,62.60,93.88,0.00,0.00,0.00,30.07,M,8.00,M,BKN,OVC,M,M,5000.00,5500.00,M,M,M,M,M,M,M,M,M,64.40,KMCJ 091255Z AUTO 00000KT 8SM BKN050 OVC055 18/17 A3007 RMK A01,M
MCJ,2020-01-09 13:15,64.40,62.60,93.88,M,3.00,0.00,30.06,M,8.00,M,BKN,BKN,M,M,4800.00,6000.00,M,M,M,M,M,M,M,M,M,64.40,KMCJ 091315Z AUTO VRB03KT 8SM BKN048 BKN060 18/17 A3006 RMK A01,M
MCJ,2020-01-09 13:35,66.20,62.60,88.18,0.00,0.00,0.00,30.06,M,7.00,M,SCT,BKN,M,M,4900.00,6000.00,M,M,M,M,M,M,M,M,M,66.20,KMCJ 091335Z AUTO 00000KT 7SM SCT049 BKN060 19/17 A3006 RMK A01,M
MCJ,2020-01-09 13:55,66.20,62.60,88.18,0.00,0.00,0.00,30.07,M,7.00,M,BKN,BKN,M,M,5000.00,6000.00,M,M,M,M,M,M,M,M,M,66.20,KMCJ 091355Z AUTO 00000KT 7SM BKN050 BKN060 19/17 A3007 RMK A01,M
MCJ,2020-01-09 14:15,66.20,62.60,88.18,M,3.00,0.00,30.08,M,6.00,M,OVC,M,M,M,5000.00,M,M,M,BR,M,M,M,M,M,M,66.20,KMCJ 091415Z AUTO VRB03KT 6SM BR OVC050 19/17 A3008 RMK A01,M
MCJ,2020-01-09 14:35,66.20,62.60,88.18,0.00,0.00,0.00,30.08,M,6.00,M,OVC,M,M,M,4800.00,M,M,M,BR,M,M,M,M,M,M,66.20,KMCJ 091435Z AUTO 00000KT 6SM BR OVC048 19/17 A3008 RMK A01,M
MCJ,2020-01-09 14:55,68.00,62.60,82.86,0.00,0.00,0.00,30.09,M,6.00,M,OVC,M,M,M,4700.00,M,M,M,HZ,M,M,M,M,M,M,68.00,KMCJ 091455Z AUTO 00000KT 6SM HZ OVC047 20/17 A3009 RMK A01,M
MCJ,2020-01-09 15:15,68.00,62.60,82.86,0.00,0.00,0.00,30.09,M,7.00,M,BKN,OVC,M,M,4700.00,6000.00,M,M,M,M,M,M,M,M,M,68.00,KMCJ 091515Z AUTO 00000KT 7SM BKN047 OVC060 20/17 A3009 RMK A01,M
MCJ,2020-01-09 15:35,68.00,64.40,88.26,0.00,0.00,0.00,30.10,M,7.00,M,OVC,M,M,M,4600.00,M,M,M,M,M,M,M,M,M,M,68.00,KMCJ 091535Z AUTO 00000KT 7SM OVC046 20/18 A3010 RMK A01,M
MCJ,2020-01-09 15:55,69.80,64.40,82.98,M,6.00,0.00,30.10,M,7.00,M,OVC,M,M,M,4600.00,M,M,M,M,M,M,M,M,M,M,69.80,KMCJ 091555Z AUTO VRB06KT 7SM OVC046 21/18 A3010 RMK A01,M
MCJ,2020-01-09 16:15,69.80,64.40,82.98,M,5.00,0.00,30.10,M,8.00,13.00,FEW,OVC,M,M,1800.00,4600.00,M,M,M,M,M,M,M,M,M,69.80,KMCJ 091615Z AUTO VRB05G13KT 8SM FEW018 OVC046 21/18 A3010 RMK A01,M
MCJ,2020-01-09 16:35,71.60,64.40,78.04,M,6.00,0.00,30.09,M,8.00,14.00,FEW,SCT,OVC,M,1900.00,4000.00,4800.00,M,M,M,M,M,M,M,M,71.60,KMCJ 091635Z AUTO VRB06G14KT 8SM FEW019 SCT040 OVC048 22/18 A3009 RMK A01,M
MCJ,2020-01-09 16:55,71.60,64.40,78.04,M,4.00,0.00,30.09,M,8.00,12.00,FEW,SCT,OVC,M,2000.00,4100.00,4900.00,M,M,M,M,M,M,M,M,71.60,KMCJ 091655Z AUTO VRB04G12KT 8SM FEW020 SCT041 OVC049 22/18 A3009 RMK A01,M
MCJ,2020-01-09 17:15,71.60,64.40,78.04,M,5.00,0.00,30.08,M,9.00,15.00,FEW,SCT,OVC,M,2100.00,4100.00,4900.00,M,M,M,M,M,M,M,M,71.60,KMCJ 091715Z AUTO VRB05G15KT 9SM FEW021 SCT041 OVC049 22/18 A3008 RMK A01,M
MCJ,2020-01-09 17:35,73.40,64.40,73.44,M,7.00,0.00,30.07,M,8.00,19.00,BKN,BKN,BKN,M,2200.00,3100.00,4200.00,M,M,M,M,M,M,M,M,73.40,KMCJ 091735Z AUTO VRB07G19KT 8SM BKN022 BKN031 BKN042 23/18 A3007 RMK A01,M
MCJ,2020-01-09 17:55,73.40,64.40,73.44,M,7.00,0.00,30.06,M,9.00,15.00,BKN,BKN,OVC,M,2300.00,3100.00,4000.00,M,M,M,M,M,M,M,M,73.40,KMCJ 091755Z AUTO VRB07G15KT 9SM BKN023 BKN031 OVC040 23/18 A3006 RMK A01,M
MCJ,2020-01-09 18:15,73.40,64.40,73.44,M,5.00,0.00,30.05,M,9.00,19.00,SCT,BKN,OVC,M,2400.00,2900.00,4300.00,M,M,M,M,M,M,M,M,73.40,KMCJ 091815Z AUTO VRB05G19KT 9SM SCT024 BKN029 OVC043 23/18 A3005 RMK A01,M
MCJ,2020-01-09 18:35,73.40,64.40,73.44,M,9.00,0.00,30.03,M,8.00,16.00,SCT,BKN,OVC,M,2300.00,2800.00,5500.00,M,M,M,M,M,M,M,M,73.40,KMCJ 091835Z AUTO VRB09G16KT 8SM SCT023 BKN028 OVC055 23/18 A3003 RMK A01,M
MCJ,2020-01-09 18:55,73.40,64.40,73.44,M,7.00,0.00,30.03,M,9.00,17.00,BKN,BKN,OVC,M,2300.00,2800.00,6000.00,M,M,M,M,M,M,M,M,73.40,KMCJ 091855Z AUTO VRB07G17KT 9SM BKN023 BKN028 OVC060 23/18 A3003 RMK A01,M
MCJ,2020-01-09 19:15,73.40,64.40,73.44,M,12.00,0.00,30.02,M,7.00,20.00,SCT,BKN,OVC,M,2300.00,3000.00,4600.00,M,M,M,M,M,M,M,M,73.40,KMCJ 091915Z AUTO VRB12G20KT 120V290 7SM SCT023 BKN030 OVC046 23/18 A3002 RMK A01,M
MCJ,2020-01-09 19:35,71.60,64.40,78.04,170.00,11.00,0.00,30.03,M,7.00,M,SCT,BKN,OVC,M,2300.00,3300.00,4800.00,M,M,M,M,M,M,M,M,71.60,KMCJ 091935Z AUTO 17011KT 7SM SCT023 BKN033 OVC048 22/18 A3003 RMK A01,M
MCJ,2020-01-09 19:55,73.40,64.40,73.44,M,7.00,0.00,30.02,M,8.00,13.00,FEW,BKN,BKN,M,2200.00,2900.00,4100.00,M,M,M,M,M,M,M,M,73.40,KMCJ 091955Z AUTO VRB07G13KT 8SM FEW022 BKN029 BKN041 23/18 A3002 RMK A01,M
MCJ,2020-01-09 20:15,71.60,66.20,83.09,M,5.00,0.00,30.01,M,4.00,13.00,FEW,BKN,OVC,M,2100.00,3300.00,8000.00,M,HZ,M,M,M,M,M,M,71.60,KMCJ 092015Z AUTO VRB05G13KT 4SM HZ FEW021 BKN033 OVC080 22/19 A3001 RMK A01,M
MCJ,2020-01-09 20:35,71.60,66.20,83.09,M,5.00,0.00,30.00,M,7.00,16.00,SCT,SCT,BKN,M,1800.00,3000.00,4500.00,M,M,M,M,M,M,M,M,71.60,KMCJ 092035Z AUTO VRB05G16KT 7SM SCT018 SCT030 BKN045 22/19 A3000 RMK A01,M
MCJ,2020-01-09 20:55,73.40,66.20,78.19,M,7.00,0.00,30.00,M,7.00,17.00,BKN,BKN,BKN,M,1800.00,2400.00,3100.00,M,M,M,M,M,M,M,M,73.40,KMCJ 092055Z AUTO VRB07G17KT 7SM BKN018 BKN024 BKN031 23/19 A3000 RMK A01,M
MCJ,2020-01-09 21:15,73.40,66.20,78.19,170.00,10.00,0.00,30.00,M,7.00,20.00,BKN,OVC,M,M,2000.00,2500.00,M,M,M,M,M,M,M,M,M,73.40,KMCJ 092115Z AUTO 17010G20KT 100V230 7SM BKN020 OVC025 23/19 A3000 RMK A01,M
MCJ,2020-01-09 21:35,73.40,66.20,78.19,M,8.00,0.00,30.01,M,8.00,17.00,BKN,OVC,M,M,1900.00,2400.00,M,M,M,M,M,M,M,M,M,73.40,KMCJ 092135Z AUTO VRB08G17KT 8SM BKN019 OVC024 23/19 A3001 RMK A01,M
MCJ,2020-01-09 21:55,73.40,66.20,78.19,M,4.00,0.00,30.01,M,7.00,15.00,M,M,M,M,M,M,M,M,M,M,M,M,M,M,M,73.40,KMCJ 092155Z AUTO VRB04G15KT 7SM 23/19 A3001 RMK A01,M
MCJ,2020-01-09 22:15,73.40,66.20,78.19,M,5.00,0.00,30.01,M,7.00,14.00,M,M,M,M,M,M,M,M,M,M,M,M,M,M,M,73.40,KMCJ 092215Z AUTO VRB05G14KT 7SM 23/19 A3001 RMK A01,M
MCJ,2020-01-09 22:35,71.60,66.20,83.09,M,4.00,0.00,30.02,M,5.00,11.00,BKN,BKN,OVC,M,1700.00,2200.00,7500.00,M,HZ,M,M,M,M,M,M,71.60,KMCJ 092235Z AUTO VRB04G11KT 5SM HZ BKN017 BKN022 OVC075 22/19 A3002 RMK A01,M
MCJ,2020-01-09 22:55,71.60,66.20,83.09,M,4.00,0.00,30.02,M,6.00,12.00,BKN,OVC,M,M,1700.00,2500.00,M,M,HZ,M,M,M,M,M,M,71.60,KMCJ 092255Z AUTO VRB04G12KT 6SM HZ BKN017 OVC025 22/19 A3002 RMK A01,M
MCJ,2020-01-09 23:15,71.60,66.20,83.09,0.00,0.00,0.00,30.02,M,4.00,11.00,BKN,BKN,OVC,M,1500.00,2000.00,2900.00,M,HZ,M,M,M,M,M,M,71.60,KMCJ 092315Z AUTO 00000G11KT 4SM HZ BKN015 BKN020 OVC029 22/19 A3002 RMK A01,M
MCJ,2020-01-09 23:35,69.80,68.00,94.01,M,4.00,0.00,30.01,M,3.00,12.00,SCT,BKN,OVC,M,1400.00,2000.00,4600.00,M,BR,M,M,M,M,M,M,69.80,KMCJ 092335Z AUTO VRB04G12KT 3SM BR SCT014 BKN020 OVC046 21/20 A3001 RMK A01,M
MCJ,2020-01-09 23:55,69.80,68.00,94.01,0.00,0.00,0.00,30.01,M,5.00,M,BKN,BKN,BKN,M,1100.00,2800.00,3900.00,M,BR,M,M,M,M,M,M,69.80,KMCJ 092355Z AUTO 00000KT 5SM BR BKN011 BKN028 BKN039 21/20 A3001 RMK A01,M
MCJ,2020-01-10 00:15,69.80,68.00,94.01,0.00,0.00,0.00,30.02,M,7.00,M,BKN,M,M,M,1000.00,M,M,M,M,M,M,M,M,M,M,69.80,KMCJ 100015Z AUTO 00000KT 7SM BKN010 21/20 A3002 RMK A01,M
MCJ,2020-01-10 00:35,69.80,68.00,94.01,M,4.00,0.00,30.02,M,6.00,11.00,BKN,M,M,M,1000.00,M,M,M,BR,M,M,M,M,M,M,69.80,KMCJ 100035Z AUTO VRB04G11KT 6SM BR BKN010 21/20 A3002 RMK A01,M
MCJ,2020-01-10 00:55,69.80,68.00,94.01,0.00,0.00,0.00,30.02,M,6.00,10.00,BKN,OVC,M,M,800.00,1200.00,M,M,BR,M,M,M,M,M,M,69.80,KMCJ 100055Z AUTO 00000G10KT 6SM BR BKN008 OVC012 21/20 A3002 RMK A01,M
MCJ,2020-01-10 01:15,69.80,68.00,94.01,M,4.00,0.00,30.02,M,6.00,M,OVC,M,M,M,800.00,M,M,M,BR,M,M,M,M,M,M,69.80,KMCJ 100115Z AUTO VRB04KT 6SM BR OVC008 21/20 A3002 RMK A01,M
MCJ,2020-01-10 01:35,69.80,68.00,94.01,0.00,0.00,0.00,30.03,M,6.00,10.00,OVC,M,M,M,900.00,M,M,M,BR,M,M,M,M,M,M,69.80,KMCJ 100135Z AUTO 00000G10KT 6SM BR OVC009 21/20 A3003 RMK A01,M
MCJ,2020-01-10 01:55,69.80,68.00,94.01,M,4.00,0.00,30.03,M,6.00,M,OVC,M,M,M,900.00,M,M,M,BR,M,M,M,M,M,M,69.80,KMCJ 100155Z AUTO VRB04KT 6SM BR OVC009 21/20 A3003 RMK A01,M
MCJ,2020-01-10 02:15,69.80,68.00,94.01,M,4.00,0.00,30.02,M,7.00,13.00,OVC,M,M,M,800.00,M,M,M,M,M,M,M,M,M,M,69.80,KMCJ 100215Z AUTO VRB04G13KT 7SM OVC008 21/20 A3002 RMK A01,M
MCJ,2020-01-10 02:35,69.80,68.00,94.01,M,3.00,0.00,30.02,M,7.00,M,BKN,OVC,M,M,900.00,1400.00,M,M,M,M,M,M,M,M,M,69.80,KMCJ 100235Z AUTO VRB03KT 7SM BKN009 OVC014 21/20 A3002 RMK A01,M
MCJ,2020-01-10 02:55,69.80,68.00,94.01,M,3.00,0.00,30.02,M,6.00,11.00,OVC,M,M,M,900.00,M,M,M,BR,M,M,M,M,M,M,69.80,KMCJ 100255Z AUTO VRB03G11KT 6SM BR OVC009 21/20 A3002 RMK A01,M
MCJ,2020-01-10 03:15,69.80,68.00,94.01,M,4.00,0.00,30.03,M,6.00,11.00,BKN,OVC,M,M,900.00,1400.00,M,M,BR,M,M,M,M,M,M,69.80,KMCJ 100315Z AUTO VRB04G11KT 6SM BR BKN009 OVC014 21/20 A3003 RMK A01,M
MCJ,2020-01-10 03:35,69.80,68.00,94.01,M,6.00,0.00,30.02,M,7.00,12.00,BKN,OVC,M,M,1000.00,1400.00,M,M,M,M,M,M,M,M,M,69.80,KMCJ 100335Z AUTO VRB06G12KT 7SM BKN010 OVC014 21/20 A3002 RMK A01,M
MCJ,2020-01-10 03:55,69.80,68.00,94.01,M,5.00,0.00,30.02,M,6.00,M,BKN,OVC,M,M,800.00,1100.00,M,M,BR,M,M,M,M,M,M,69.80,KMCJ 100355Z AUTO VRB05KT 6SM BR BKN008 OVC011 21/20 A3002 RMK A01,M
MCJ,2020-01-10 04:15,69.80,68.00,94.01,M,4.00,0.00,30.01,M,7.00,10.00,BKN,OVC,M,M,800.00,1100.00,M,M,M,M,M,M,M,M,M,69.80,KMCJ 100415Z AUTO VRB04G10KT 7SM BKN008 OVC011 21/20 A3001 RMK A01,M
MCJ,2020-01-10 04:35,69.80,68.00,94.01,M,4.00,0.00,30.01,M,6.00,10.00,BKN,OVC,M,M,700.00,1100.00,M,M,BR,M,M,M,M,M,M,69.80,KMCJ 100435Z AUTO VRB04G10KT 6SM BR BKN007 OVC011 21/20 A3001 RMK A01,M
MCJ,2020-01-10 04:55,69.80,68.00,94.01,M,5.00,0.00,29.99,M,6.00,M,OVC,M,M,M,800.00,M,M,M,BR,M,M,M,M,M,M,69.80,KMCJ 100455Z AUTO VRB05KT 6SM BR OVC008 21/20 A2999 RMK A01,M
MCJ,2020-01-10 05:15,69.80,68.00,94.01,M,6.00,0.00,29.99,M,6.00,M,OVC,M,M,M,800.00,M,M,M,BR,M,M,M,M,M,M,69.80,KMCJ 100515Z AUTO VRB06KT 6SM BR OVC008 21/20 A2999 RMK A01,M
MCJ,2020-01-10 05:35,69.80,68.00,94.01,M,6.00,0.00,30.00,M,6.00,13.00,OVC,M,M,M,800.00,M,M,M,BR,M,M,M,M,M,M,69.80,KMCJ 100535Z AUTO VRB06G13KT 6SM BR OVC008 21/20 A3000 RMK A01,M
MCJ,2020-01-10 05:55,69.80,68.00,94.01,M,8.00,0.00,29.99,M,7.00,18.00,BKN,OVC,M,M,1000.00,1400.00,M,M,M,M,M,M,M,M,M,69.80,KMCJ 100555Z AUTO VRB08G18KT 7SM BKN010 OVC014 21/20 A2999 RMK A01,M
MCJ,2020-01-10 06:15,69.80,68.00,94.01,M,4.00,0.00,30.00,M,7.00,10.00,BKN,OVC,M,M,1000.00,1400.00,M,M,M,M,M,M,M,M,M,69.80,KMCJ 100615Z AUTO VRB04G10KT 7SM BKN010 OVC014 21/20 A3000 RMK A01,M
MCJ,2020-01-10 06:35,69.80,68.00,94.01,M,3.00,0.00,29.99,M,7.00,M,OVC,M,M,M,1100.00,M,M,M,M,M,M,M,M,M,M,69.80,KMCJ 100635Z AUTO VRB03KT 7SM OVC011 21/20 A2999 RMK A01,M
MCJ,2020-01-10 06:55,69.80,68.00,94.01,M,3.00,0.00,29.99,M,7.00,M,OVC,M,M,M,1100.00,M,M,M,M,M,M,M,M,M,M,69.80,KMCJ 100655Z AUTO VRB03KT 7SM OVC011 21/20 A2999 RMK A01,M
MCJ,2020-01-10 07:15,69.80,68.00,94.01,M,8.00,0.00,29.98,M,7.00,15.00,OVC,M,M,M,1200.00,M,M,M,M,M,M,M,M,M,M,69.80,KMCJ 100715Z AUTO VRB08G15KT 7SM OVC012 21/20 A2998 RMK A01,M
MCJ,2020-01-10 07:35,69.80,68.00,94.01,160.00,8.00,0.00,29.98,M,7.00,15.00,BKN,OVC,M,M,1200.00,2000.00,M,M,M,M,M,M,M,M,M,69.80,KMCJ 100735Z AUTO 16008G15KT 100V270 7SM BKN012 OVC020 21/20 A2998 RMK A01,M
MCJ,2020-01-10 07:55,69.80,68.00,94.01,M,6.00,0.00,29.98,M,7.00,15.00,BKN,OVC,M,M,1000.00,1500.00,M,M,M,M,M,M,M,M,M,69.80,KMCJ 100755Z AUTO VRB06G15KT 7SM BKN010 OVC015 21/20 A2998 RMK A01,M
MCJ,2020-01-10 08:15,69.80,68.00,94.01,M,5.00,0.00,29.97,M,7.00,M,BKN,OVC,M,M,900.00,1400.00,M,M,M,M,M,M,M,M,M,69.80,KMCJ 100815Z AUTO VRB05KT 7SM BKN009 OVC014 21/20 A2997 RMK A01,M
MCJ,2020-01-10 08:35,69.80,68.00,94.01,M,6.00,0.00,29.96,M,7.00,12.00,BKN,OVC,M,M,1000.00,1400.00,M,M,M,M,M,M,M,M,M,69.80,KMCJ 100835Z AUTO VRB06G12KT 7SM BKN010 OVC014 21/20 A2996 RMK A01,M
MCJ,2020-01-10 08:55,69.80,68.00,94.01,M,5.00,0.00,29.96,M,7.00,12.00,BKN,OVC,M,M,1000.00,1400.00,M,M,M,M,M,M,M,M,M,69.80,KMCJ 100855Z AUTO VRB05G12KT 7SM BKN010 OVC014 21/20 A2996 RMK A01,M
MCJ,2020-01-10 09:15,69.80,68.00,94.01,M,4.00,0.00,29.95,M,7.00,16.00,BKN,OVC,M,M,900.00,1300.00,M,M,M,M,M,M,M,M,M,69.80,KMCJ 100915Z AUTO VRB04G16KT 7SM BKN009 OVC013 21/20 A2995 RMK A01,M
MCJ,2020-01-10 09:35,69.80,68.00,94.01,M,5.00,0.00,29.94,M,7.00,13.00,BKN,OVC,M,M,900.00,1400.00,M,M,M,M,M,M,M,M,M,69.80,KMCJ 100935Z AUTO VRB05G13KT 7SM BKN009 OVC014 21/20 A2994 RMK A01,M
MCJ,2020-01-10 09:55,69.80,68.00,94.01,M,4.00,0.00,29.95,M,7.00,11.00,SCT,BKN,OVC,M,900.00,1300.00,1800.00,M,M,M,M,M,M,M,M,69.80,KMCJ 100955Z AUTO VRB04G11KT 7SM SCT009 BKN013 OVC018 21/20 A2995 RMK A01,M
MCJ,2020-01-10 10:15,69.80,68.00,94.01,M,9.00,0.00,29.95,M,7.00,15.00,BKN,BKN,OVC,M,800.00,1200.00,2000.00,M,M,M,M,M,M,M,M,69.80,KMCJ 101015Z AUTO VRB09G15KT 7SM BKN008 BKN012 OVC020 21/20 A2995 RMK A01,M
MCJ,2020-01-10 10:35,69.80,68.00,94.01,0.00,0.00,0.00,29.95,M,7.00,14.00,BKN,BKN,OVC,M,900.00,1600.00,2100.00,M,M,M,M,M,M,M,M,69.80,KMCJ 101035Z AUTO 00000G14KT 7SM BKN009 BKN016 OVC021 21/20 A2995 RMK A01,M
MCJ,2020-01-10 10:55,69.80,68.00,94.01,M,4.00,0.00,29.95,M,7.00,12.00,BKN,OVC,M,M,1000.00,1400.00,M,M,M,M,M,M,M,M,M,69.80,KMCJ 101055Z AUTO VRB04G12KT 7SM BKN010 OVC014 21/20 A2995 RMK A01,M
MCJ,2020-01-10 11:15,69.80,68.00,94.01,M,3.00,0.00,29.95,M,7.00,M,BKN,OVC,M,M,1000.00,1500.00,M,M,M,M,M,M,M,M,M,69.80,KMCJ 101115Z AUTO VRB03KT 7SM BKN010 OVC015 21/20 A2995 RMK A01,M
MCJ,2020-01-10 11:35,69.80,68.00,94.01,M,4.00,0.00,29.94,M,7.00,10.00,BKN,OVC,M,M,1100.00,1600.00,M,M,M,M,M,M,M,M,M,69.80,KMCJ 101135Z AUTO VRB04G10KT 7SM BKN011 OVC016 21/20 A2994 RMK A01,M
MCJ,2020-01-10 11:55,69.80,68.00,94.01,M,5.00,0.00,29.94,M,7.00,10.00,BKN,OVC,M,M,1200.00,1800.00,M,M,M,M,M,M,M,M,M,69.80,KMCJ 101155Z AUTO VRB05G10KT 7SM BKN012 OVC018 21/20 A2994 RMK A01,M
MCJ,2020-01-10 12:15,69.80,68.00,94.01,M,4.00,0.00,29.94,M,7.00,M,BKN,OVC,M,M,1200.00,1700.00,M,M,M,M,M,M,M,M,M,69.80,KMCJ 101215Z AUTO VRB04KT 7SM BKN012 OVC017 21/20 A2994 RMK A01,M
MCJ,2020-01-10 12:35,69.80,68.00,94.01,M,4.00,0.00,29.94,M,6.00,10.00,BKN,OVC,M,M,900.00,1500.00,M,M,BR,M,M,M,M,M,M,69.80,KMCJ 101235Z AUTO VRB04G10KT 6SM BR BKN009 OVC015 21/20 A2994 RMK A01,M
MCJ,2020-01-10 12:55,69.80,68.00,94.01,M,4.00,0.00,29.94,M,7.00,M,BKN,OVC,M,M,900.00,1400.00,M,M,M,M,M,M,M,M,M,69.80,KMCJ 101255Z AUTO VRB04KT 7SM BKN009 OVC014 21/20 A2994 RMK A01,M
MCJ,2020-01-10 13:15,69.80,68.00,94.01,M,5.00,0.00,29.95,M,7.00,11.00,M,M,M,M,M,M,M,M,M,M,M,M,M,M,M,69.80,KMCJ 101315Z AUTO VRB05G11KT 7SM 21/20 A2995 RMK A01,M
MCJ,2020-01-10 13:35,69.80,68.00,94.01,M,5.00,0.00,29.94,M,5.00,12.00,OVC,M,M,M,800.00,M,M,M,BR,M,M,M,M,M,M,69.80,KMCJ 101335Z AUTO VRB05G12KT 5SM BR OVC008 21/20 A2994 RMK A01,M
MCJ,2020-01-10 13:55,69.80,68.00,94.01,M,5.00,0.00,29.94,M,5.00,11.00,BKN,OVC,M,M,900.00,1300.00,M,M,BR,M,M,M,M,M,M,69.80,KMCJ 101355Z AUTO VRB05G11KT 5SM BR BKN009 OVC013 21/20 A2994 RMK A01,M
MCJ,2020-01-10 14:15,69.80,68.00,94.01,M,4.00,0.00,29.94,M,5.00,10.00,BKN,OVC,M,M,900.00,1300.00,M,M,BR,M,M,M,M,M,M,69.80,KMCJ 101415Z AUTO VRB04G10KT 5SM BR BKN009 OVC013 21/20 A2994 RMK A01,M
MCJ,2020-01-10 14:35,71.60,68.00,88.43,M,6.00,0.00,29.94,M,5.00,13.00,BKN,OVC,M,M,900.00,1300.00,M,M,BR,M,M,M,M,M,M,71.60,KMCJ 101435Z AUTO VRB06G13KT 5SM BR BKN009 OVC013 22/20 A2994 RMK A01,M
MCJ,2020-01-10 14:55,71.60,68.00,88.43,M,4.00,0.00,29.94,M,6.00,11.00,OVC,M,M,M,1000.00,M,M,M,BR,M,M,M,M,M,M,71.60,KMCJ 101455Z AUTO VRB04G11KT 6SM BR OVC010 22/20 A2994 RMK A01,M
MCJ,2020-01-10 15:15,71.60,68.00,88.43,M,5.00,0.00,29.95,M,6.00,14.00,OVC,M,M,M,1200.00,M,M,M,BR,M,M,M,M,M,M,71.60,KMCJ 101515Z AUTO VRB05G14KT 6SM BR OVC012 22/20 A2995 RMK A01,M
MCJ,2020-01-10 15:35,71.60,68.00,88.43,M,7.00,0.00,29.95,M,6.00,18.00,OVC,M,M,M,1300.00,M,M,M,HZ,M,M,M,M,M,M,71.60,KMCJ 101535Z AUTO VRB07G18KT 6SM HZ OVC013 22/20 A2995 RMK A01,M
MCJ,2020-01-10 15:55,71.60,68.00,88.43,M,11.00,0.00,29.95,M,7.00,23.00,BKN,OVC,M,M,1300.00,1800.00,M,M,M,M,M,M,M,M,M,71.60,KMCJ 101555Z AUTO VRB11G23KT 7SM BKN013 OVC018 22/20 A2995 RMK A01,M
MCJ,2020-01-10 16:15,73.40,68.00,83.21,M,6.00,0.00,29.95,M,8.00,15.00,OVC,M,M,M,1400.00,M,M,M,M,M,M,M,M,M,M,73.40,KMCJ 101615Z AUTO VRB06G15KT 8SM OVC014 23/20 A2995 RMK A01,M
MCJ,2020-01-10 16:35,73.40,68.00,83.21,M,6.00,0.00,29.95,M,6.00,19.00,BKN,OVC,M,M,1400.00,1800.00,M,M,HZ,M,M,M,M,M,M,73.40,KMCJ 101635Z AUTO VRB06G19KT 6SM HZ BKN014 OVC018 23/20 A2995 RMK A01,M
MCJ,2020-01-10 16:55,73.40,66.20,78.19,M,8.00,0.00,29.94,M,7.00,18.00,OVC,M,M,M,1500.00,M,M,M,M,M,M,M,M,M,M,73.40,KMCJ 101655Z AUTO VRB08G18KT 7SM OVC015 23/19 A2994 RMK A01,M
MCJ,2020-01-10 17:15,73.40,66.20,78.19,M,5.00,0.00,29.94,M,6.00,17.00,OVC,M,M,M,1600.00,M,M,M,HZ,M,M,M,M,M,M,73.40,KMCJ 101715Z AUTO VRB05G17KT 6SM HZ OVC016 23/19 A2994 RMK A01,M
MCJ,2020-01-10 17:35,73.40,66.20,78.19,M,7.00,0.00,29.93,M,7.00,13.00,BKN,BKN,OVC,M,1500.00,2100.00,2700.00,M,M,M,M,M,M,M,M,73.40,KMCJ 101735Z AUTO VRB07G13KT 7SM BKN015 BKN021 OVC027 23/19 A2993 RMK A01,M
MCJ,2020-01-10 17:55,73.40,68.00,83.21,M,7.00,0.00,29.91,M,7.00,13.00,BKN,OVC,M,M,1600.00,2000.00,M,M,M,M,M,M,M,M,M,73.40,KMCJ 101755Z AUTO VRB07G13KT 7SM BKN016 OVC020 23/20 A2991 RMK A01,M
MCJ,2020-01-10 18:15,73.40,66.20,78.19,M,7.00,0.00,29.89,M,7.00,18.00,BKN,OVC,M,M,1700.00,2400.00,M,M,M,M,M,M,M,M,M,73.40,KMCJ 101815Z AUTO VRB07G18KT 7SM BKN017 OVC024 23/19 A2989 RMK A01,M
MCJ,2020-01-10 18:35,73.40,68.00,83.21,M,6.00,0.00,29.87,M,8.00,12.00,BKN,BKN,OVC,M,1700.00,2400.00,4800.00,M,M,M,M,M,M,M,M,73.40,KMCJ 101835Z AUTO VRB06G12KT 8SM BKN017 BKN024 OVC048 23/20 A2987 RMK A01,M
MCJ,2020-01-10 18:55,73.40,68.00,83.21,M,6.00,0.00,29.85,M,7.00,15.00,BKN,BKN,OVC,M,1500.00,2100.00,5500.00,M,M,M,M,M,M,M,M,73.40,KMCJ 101855Z AUTO VRB06G15KT 7SM BKN015 BKN021 OVC055 23/20 A2985 RMK A01,M
MCJ,2020-01-10 19:15,73.40,68.00,83.21,M,5.00,0.00,29.84,M,7.00,20.00,BKN,OVC,M,M,1500.00,2000.00,M,M,M,M,M,M,M,M,M,73.40,KMCJ 101915Z AUTO VRB05G20KT 7SM BKN015 OVC020 23/20 A2984 RMK A01,M
MCJ,2020-01-10 19:35,73.40,68.00,83.21,M,7.00,0.00,29.82,M,7.00,13.00,BKN,OVC,M,M,1500.00,2000.00,M,M,M,M,M,M,M,M,M,73.40,KMCJ 101935Z AUTO VRB07G13KT 7SM BKN015 OVC020 23/20 A2982 RMK A01,M
MCJ,2020-01-10 19:55,73.40,68.00,83.21,M,7.00,0.00,29.81,M,5.00,16.00,BKN,OVC,M,M,1400.00,2000.00,M,M,HZ,M,M,M,M,M,M,73.40,KMCJ 101955Z AUTO VRB07G16KT 5SM HZ BKN014 OVC020 23/20 A2981 RMK A01,M
MCJ,2020-01-10 20:15,73.40,68.00,83.21,M,7.00,0.00,29.80,M,7.00,15.00,OVC,M,M,M,1400.00,M,M,M,M,M,M,M,M,M,M,73.40,KMCJ 102015Z AUTO VRB07G15KT 7SM OVC014 23/20 A2980 RMK A01,M
MCJ,2020-01-10 20:35,73.40,68.00,83.21,M,6.00,0.00,29.79,M,6.00,16.00,BKN,OVC,M,M,1500.00,2100.00,M,M,HZ,M,M,M,M,M,M,73.40,KMCJ 102035Z AUTO VRB06G16KT 6SM HZ BKN015 OVC021 23/20 A2979 RMK A01,M
MCJ,2020-01-10 20:55,73.40,68.00,83.21,M,7.00,0.00,29.78,M,6.00,14.00,OVC,M,M,M,1500.00,M,M,M,HZ,M,M,M,M,M,M,73.40,KMCJ 102055Z AUTO VRB07G14KT 6SM HZ OVC015 23/20 A2978 RMK A01,M
MCJ,2020-01-10 21:15,73.40,69.80,88.51,M,6.00,0.00,29.78,M,4.00,15.00,BKN,OVC,M,M,1400.00,1900.00,M,M,HZ,M,M,M,M,M,M,73.40,KMCJ 102115Z AUTO VRB06G15KT 4SM HZ BKN014 OVC019 23/21 A2978 RMK A01,M
MCJ,2020-01-10 21:35,73.40,69.80,88.51,M,7.00,0.00,29.78,M,5.00,15.00,BKN,OVC,M,M,1400.00,1900.00,M,M,HZ,M,M,M,M,M,M,73.40,KMCJ 102135Z AUTO VRB07G15KT 5SM HZ BKN014 OVC019 23/21 A2978 RMK A01,M
MCJ,2020-01-10 21:55,73.40,69.80,88.51,M,7.00,0.00,29.78,M,4.00,13.00,BKN,OVC,M,M,1400.00,1800.00,M,M,BR,M,M,M,M,M,M,73.40,KMCJ 102155Z AUTO VRB07G13KT 4SM BR BKN014 OVC018 23/21 A2978 RMK A01,M
MCJ,2020-01-10 22:15,73.40,69.80,88.51,M,5.00,0.00,29.78,M,6.00,12.00,BKN,OVC,M,M,1400.00,2100.00,M,M,BR,M,M,M,M,M,M,73.40,KMCJ 102215Z AUTO VRB05G12KT 6SM BR BKN014 OVC021 23/21 A2978 RMK A01,M
MCJ,2020-01-10 22:35,73.40,69.80,88.51,M,6.00,0.00,29.78,M,6.00,17.00,BKN,OVC,M,M,1400.00,2100.00,M,M,HZ,M,M,M,M,M,M,73.40,KMCJ 102235Z AUTO VRB06G17KT 6SM HZ BKN014 OVC021 23/21 A2978 RMK A01,M
MCJ,2020-01-10 22:55,73.40,69.80,88.51,M,6.00,0.00,29.77,M,5.00,16.00,BKN,OVC,M,M,1400.00,1900.00,M,M,HZ,M,M,M,M,M,M,73.40,KMCJ 102255Z AUTO VRB06G16KT 5SM HZ BKN014 OVC019 23/21 A2977 RMK A01,M
MCJ,2020-01-10 23:15,73.40,69.80,88.51,M,6.00,0.00,29.76,M,5.00,20.00,BKN,OVC,M,M,1300.00,1700.00,M,M,HZ,M,M,M,M,M,M,73.40,KMCJ 102315Z AUTO VRB06G20KT 5SM HZ BKN013 OVC017 23/21 A2976 RMK A01,M
MCJ,2020-01-10 23:35,73.40,69.80,88.51,M,7.00,0.00,29.76,M,5.00,15.00,BKN,BKN,OVC,M,1200.00,1600.00,2100.00,M,HZ,M,M,M,M,M,M,73.40,KMCJ 102335Z AUTO VRB07G15KT 5SM HZ BKN012 BKN016 OVC021 23/21 A2976 RMK A01,M
MCJ,2020-01-10 23:55,73.40,69.80,88.51,M,5.00,0.00,29.76,M,6.00,14.00,BKN,OVC,M,M,1200.00,1600.00,M,M,BR,M,M,M,M,M,M,73.40,KMCJ 102355Z AUTO VRB05G14KT 6SM BR BKN012 OVC016 23/21 A2976 RMK A01,M
MCJ,2020-01-11 00:15,73.40,69.80,88.51,M,9.00,0.00,29.76,M,6.00,16.00,BKN,OVC,M,M,1200.00,1700.00,M,M,BR,M,M,M,M,M,M,73.40,KMCJ 110015Z AUTO VRB09G16KT 6SM BR BKN012 OVC017 23/21 A2976 RMK A01,M
MCJ,2020-01-11 00:35,73.40,69.80,88.51,M,6.00,0.00,29.76,M,6.00,13.00,OVC,M,M,M,1300.00,M,M,M,BR,M,M,M,M,M,M,73.40,KMCJ 110035Z AUTO VRB06G13KT 6SM BR OVC013 23/21 A2976 RMK A01,M
MCJ,2020-01-11 00:55,73.40,69.80,88.51,M,7.00,0.00,29.76,M,6.00,20.00,OVC,M,M,M,1300.00,M,M,M,BR,M,M,M,M,M,M,73.40,KMCJ 110055Z AUTO VRB07G20KT 6SM BR OVC013 23/21 A2976 RMK A01,M
MCJ,2020-01-11 01:15,73.40,69.80,88.51,M,6.00,0.00,29.75,M,6.00,15.00,OVC,M,M,M,1400.00,M,M,M,BR,M,M,M,M,M,M,73.40,KMCJ 110115Z AUTO VRB06G15KT 6SM BR OVC014 23/21 A2975 RMK A01,M
MCJ,2020-01-11 01:35,73.40,69.80,88.51,M,6.00,0.00,29.74,M,6.00,13.00,BKN,OVC,M,M,1100.00,1600.00,M,M,BR,M,M,M,M,M,M,73.40,KMCJ 110135Z AUTO VRB06G13KT 6SM BR BKN011 OVC016 23/21 A2974 RMK A01,M
MCJ,2020-01-11 01:55,73.40,69.80,88.51,M,6.00,0.00,29.75,M,6.00,13.00,BKN,OVC,M,M,1100.00,1600.00,M,M,BR,M,M,M,M,M,M,73.40,KMCJ 110155Z AUTO VRB06G13KT 6SM BR BKN011 OVC016 23/21 A2975 RMK A01,M
MCJ,2020-01-11 02:15,73.40,69.80,88.51,M,6.00,0.00,29.74,M,4.00,14.00,OVC,M,M,M,1100.00,M,M,M,BR,M,M,M,M,M,M,73.40,KMCJ 110215Z AUTO VRB06G14KT 4SM BR OVC011 23/21 A2974 RMK A01,M
MCJ,2020-01-11 02:35,73.40,69.80,88.51,M,10.00,0.00,29.72,M,6.00,17.00,OVC,M,M,M,1200.00,M,M,M,BR,M,M,M,M,M,M,73.40,KMCJ 110235Z AUTO VRB10G17KT 6SM BR OVC012 23/21 A2972 RMK A01,M
MCJ,2020-01-11 02:55,73.40,69.80,88.51,M,6.00,0.00,29.72,M,6.00,16.00,OVC,M,M,M,1200.00,M,M,M,BR,M,M,M,M,M,M,73.40,KMCJ 110255Z AUTO VRB06G16KT 6SM BR OVC012 23/21 A2972 RMK A01,M
MCJ,2020-01-11 03:15,73.40,69.80,88.51,M,7.00,0.00,29.72,M,6.00,15.00,OVC,M,M,M,1100.00,M,M,M,BR,M,M,M,M,M,M,73.40,KMCJ 110315Z AUTO VRB07G15KT 6SM BR OVC011 23/21 A2972 RMK A01,M
MCJ,2020-01-11 03:35,73.40,69.80,88.51,M,8.00,0.00,29.70,M,5.00,19.00,OVC,M,M,M,1100.00,M,M,M,BR,M,M,M,M,M,M,73.40,KMCJ 110335Z AUTO VRB08G19KT 5SM BR OVC011 23/21 A2970 RMK A01,M
MCJ,2020-01-11 03:55,73.40,71.60,94.10,170.00,11.00,0.00,29.72,M,3.00,22.00,BKN,OVC,M,M,1000.00,1500.00,M,M,BR,M,M,M,M,M,M,73.40,KMCJ 110355Z AUTO 17011G22KT 130V190 3SM BR BKN010 OVC015 23/22 A2972 RMK A01,M
MCJ,2020-01-11 04:15,73.40,71.60,94.10,M,11.00,0.00,29.73,M,5.00,18.00,M,M,M,M,M,M,M,M,BR,M,M,M,M,M,M,73.40,KMCJ 110415Z AUTO VRB11G18KT 5SM BR 23/22 A2973 RMK A01,M
MCJ,2020-01-11 04:35,73.40,71.60,94.10,M,12.00,0.00,29.72,M,3.00,20.00,BKN,OVC,M,M,900.00,1400.00,M,M,BR,M,M,M,M,M,M,73.40,KMCJ 110435Z AUTO VRB12G20KT 3SM BR BKN009 OVC014 23/22 A2972 RMK A01,M
MCJ,2020-01-11 04:55,73.40,71.60,94.10,170.00,13.00,0.00,29.71,M,3.00,23.00,OVC,M,M,M,1000.00,M,M,M,BR,M,M,M,M,M,M,73.40,KMCJ 110455Z AUTO 17013G23KT 100V230 3SM BR OVC010 23/22 A2971 RMK A01,M
MCJ,2020-01-11 05:15,71.60,71.60,100.00,M,10.00,0.00,29.70,M,5.00,18.00,BKN,OVC,M,M,1000.00,1400.00,M,M,BR,M,M,M,M,M,M,71.60,KMCJ 110515Z AUTO VRB10G18KT 5SM BR BKN010 OVC014 22/22 A2970 RMK A01,M
MCJ,2020-01-11 05:35,71.60,71.60,100.00,180.00,12.00,0.00,29.67,M,5.00,22.00,BKN,OVC,M,M,900.00,1300.00,M,M,BR,M,M,M,M,M,M,71.60,KMCJ 110535Z AUTO 18012G22KT 110V250 5SM BR BKN009 OVC013 22/22 A2967 RMK A01,M
MCJ,2020-01-11 05:55,71.60,71.60,100.00,200.00,12.00,0.00,29.71,M,0.75,24.00,BKN,OVC,M,M,100.00,900.00,M,M,BR,M,M,M,M,M,M,71.60,KMCJ 110555Z AUTO 20012G24KT 160V240 3/4SM BR BKN001 OVC009 22/22 A2971 RMK A01,M
MCJ,2020-01-11 06:15,66.20,64.40,93.92,240.00,11.00,0.00,29.78,M,1.25,37.00,SCT,OVC,M,M,100.00,700.00,M,M,BR,M,M,M,M,M,M,66.20,KMCJ 110615Z AUTO 24011G37KT 120V270 1 1/4SM BR SCT001 OVC007 19/18 A2978 RMK A01,M
MCJ,2020-01-11 06:35,59.00,59.00,100.00,300.00,12.00,0.00,29.79,M,0.75,22.00,BKN,OVC,M,M,100.00,800.00,M,M,BR,M,M,M,M,M,M,59.00,KMCJ 110635Z AUTO 30012G22KT 260V330 3/4SM BR BKN001 OVC008 15/15 A2979 RMK A01,M
MCJ,2020-01-11 06:55,59.00,57.20,93.74,300.00,14.00,0.00,29.79,M,2.00,21.00,SCT,BKN,OVC,M,100.00,900.00,4200.00,M,BR,M,M,M,M,M,M,59.00,KMCJ 110655Z AUTO 30014G21KT 250V320 2SM BR SCT001 BKN009 OVC042 15/14 A2979 RMK A01,M
MCJ,2020-01-11 07:15,59.00,59.00,100.00,300.00,10.00,0.00,29.79,M,3.00,16.00,FEW,SCT,BKN,M,300.00,2100.00,4400.00,M,BR,M,M,M,M,M,M,59.00,KMCJ 110715Z AUTO 30010G16KT 3SM BR FEW003 SCT021 BKN044 15/15 A2979 RMK A01,M
MCJ,2020-01-11 07:35,59.00,59.00,100.00,M,6.00,0.00,29.81,M,7.00,M,FEW,FEW,BKN,M,2000.00,4000.00,6000.00,M,M,M,M,M,M,M,M,59.00,KMCJ 110735Z AUTO VRB06KT 7SM FEW020 FEW040 BKN060 15/15 A2981 RMK A01,M
MCJ,2020-01-11 07:55,59.00,57.20,93.74,310.00,10.00,0.00,29.83,M,7.00,M,FEW,SCT,BKN,M,3500.00,4400.00,6500.00,M,M,M,M,M,M,M,M,59.00,KMCJ 110755Z AUTO 31010KT 260V330 7SM FEW035 SCT044 BKN065 15/14 A2983 RMK A01,M
MCJ,2020-01-11 08:15,60.80,55.40,82.37,290.00,12.00,0.00,29.85,M,10.00,M,FEW,FEW,OVC,M,4100.00,5000.00,7000.00,M,M,M,M,M,M,M,M,60.80,KMCJ 110815Z AUTO 29012KT 250V310 10SM FEW041 FEW050 OVC070 16/13 A2985 RMK A01,M
MCJ,2020-01-11 08:35,60.80,55.40,82.37,300.00,10.00,0.00,29.84,M,9.00,16.00,FEW,BKN,BKN,M,5000.00,7000.00,8500.00,M,M,M,M,M,M,M,M,60.80,KMCJ 110835Z AUTO 30010G16KT 260V330 9SM FEW050 BKN070 BKN085 16/13 A2984 RMK A01,M
MCJ,2020-01-11 08:55,60.80,55.40,82.37,M,6.00,0.00,29.84,M,10.00,11.00,FEW,BKN,OVC,M,4900.00,7000.00,8500.00,M,M,M,M,M,M,M,M,60.80,KMCJ 110855Z AUTO VRB06G11KT 10SM FEW049 BKN070 OVC085 16/13 A2984 RMK A01,M
MCJ,2020-01-11 09:15,60.80,55.40,82.37,330.00,8.00,0.00,29.84,M,10.00,M,BKN,OVC,M,M,7000.00,8000.00,M,M,M,M,M,M,M,M,M,60.80,KMCJ 110915Z AUTO 33008KT 10SM BKN070 OVC080 16/13 A2984 RMK A01,M
MCJ,2020-01-11 09:35,60.80,55.40,82.37,330.00,10.00,0.00,29.82,M,10.00,M,BKN,M,M,M,8000.00,M,M,M,M,M,M,M,M,M,M,60.80,KMCJ 110935Z AUTO 33010KT 10SM BKN080 16/13 A2982 RMK A01,M
MCJ,2020-01-11 09:55,60.80,55.40,82.37,330.00,9.00,0.00,29.83,M,10.00,M,BKN,BKN,M,M,8500.00,12000.00,M,M,M,M,M,M,M,M,M,60.80,KMCJ 110955Z AUTO 33009KT 10SM BKN085 BKN120 16/13 A2983 RMK A01,M
MCJ,2020-01-11 10:15,60.80,55.40,82.37,0.00,0.00,0.00,29.84,M,10.00,M,OVC,M,M,M,8500.00,M,M,M,M,M,M,M,M,M,M,60.80,KMCJ 111015Z AUTO 00000KT 10SM OVC085 16/13 A2984 RMK A01,M
MCJ,2020-01-11 10:35,60.80,55.40,82.37,M,5.00,0.00,29.84,M,10.00,10.00,OVC,M,M,M,9000.00,M,M,M,M,M,M,M,M,M,M,60.80,KMCJ 111035Z AUTO VRB05G10KT 10SM OVC090 16/13 A2984 RMK A01,M
MCJ,2020-01-11 10:55,60.80,55.40,82.37,0.00,0.00,0.00,29.84,M,10.00,10.00,BKN,M,M,M,9000.00,M,M,M,M,M,M,M,M,M,M,60.80,KMCJ 111055Z AUTO 00000G10KT 10SM BKN090 16/13 A2984 RMK A01,M
MCJ,2020-01-11 11:15,60.80,55.40,82.37,270.00,5.00,0.00,29.86,M,10.00,11.00,BKN,M,M,M,9500.00,M,M,M,M,M,M,M,M,M,M,60.80,KMCJ 111115Z AUTO 27005G11KT 10SM BKN095 16/13 A2986 RMK A01,M
MCJ,2020-01-11 11:35,60.80,55.40,82.37,M,4.00,0.00,29.87,M,10.00,10.00,OVC,M,M,M,9500.00,M,M,M,M,M,M,M,M,M,M,60.80,KMCJ 111135Z AUTO VRB04G10KT 10SM OVC095 16/13 A2987 RMK A01,M
MCJ,2020-01-11 11:55,60.80,55.40,82.37,260.00,9.00,0.00,29.87,M,10.00,M,OVC,M,M,M,9500.00,M,M,M,M,M,M,M,M,M,M,60.80,KMCJ 111155Z AUTO 26009KT 10SM OVC095 16/13 A2987 RMK A01,M
MCJ,2020-01-11 12:15,59.00,55.40,87.83,260.00,9.00,0.00,29.87,M,10.00,M,SCT,M,M,M,10000.00,M,M,M,M,M,M,M,M,M,M,59.00,KMCJ 111215Z AUTO 26009KT 250V310 10SM SCT100 15/13 A2987 RMK A01,M
MCJ,2020-01-11 12:35,59.00,55.40,87.83,M,5.00,0.00,29.89,M,10.00,11.00,CLR,M,M,M,M,M,M,M,M,M,M,M,M,M,M,59.00,KMCJ 111235Z AUTO VRB05G11KT 10SM CLR 15/13 A2989 RMK A01,M
MCJ,2020-01-11 12:55,59.00,55.40,87.83,M,4.00,0.00,29.93,M,10.00,10.00,BKN,BKN,M,M,1400.00,2000.00,M,M,M,M,M,M,M,M,M,59.00,KMCJ 111255Z AUTO VRB04G10KT 10SM BKN014 BKN020 15/13 A2993 RMK A01,M
MCJ,2020-01-11 13:15,59.00,55.40,87.83,M,5.00,0.00,29.95,M,10.00,12.00,OVC,M,M,M,1400.00,M,M,M,M,M,M,M,M,M,M,59.00,KMCJ 111315Z AUTO VRB05G12KT 10SM OVC014 15/13 A2995 RMK A01,M
MCJ,2020-01-11 13:35,59.00,55.40,87.83,280.00,9.00,0.00,29.98,M,10.00,M,BKN,OVC,M,M,1200.00,1700.00,M,M,M,M,M,M,M,M,M,59.00,KMCJ 111335Z AUTO 28009KT 250V310 10SM BKN012 OVC017 15/13 A2998 RMK A01,M
MCJ,2020-01-11 13:55,57.20,51.80,82.12,300.00,14.00,0.00,30.02,M,10.00,25.00,OVC,M,M,M,1100.00,M,M,M,M,M,M,M,M,M,M,57.20,KMCJ 111355Z AUTO 30014G25KT 10SM OVC011 14/11 A3002 RMK A01,M
MCJ,2020-01-11 14:15,53.60,48.20,81.87,310.00,11.00,0.00,30.05,M,10.00,24.00,OVC,M,M,M,1100.00,M,M,M,M,M,M,M,M,M,M,53.60,KMCJ 111415Z AUTO 31011G24KT 290V010 10SM OVC011 12/09 A3005 RMK A01,M
MCJ,2020-01-11 14:35,51.80,44.60,76.34,310.00,11.00,0.00,30.07,M,10.00,20.00,BKN,BKN,OVC,M,1300.00,1800.00,2400.00,M,M,M,M,M,M,M,M,51.80,KMCJ 111435Z AUTO 31011G20KT 270V350 10SM BKN013 BKN018 OVC024 11/07 A3007 RMK A01,M
MCJ,2020-01-11 14:55,50.00,42.80,76.18,290.00,13.00,0.00,30.08,M,10.00,22.00,OVC,M,M,M,1500.00,M,M,M,M,M,M,M,M,M,M,44.63,KMCJ 111455Z AUTO 29013G22KT 260V320 10SM OVC015 10/06 A3008 RMK A01,M
MCJ,2020-01-11 15:15,50.00,42.80,76.18,M,3.00,0.00,30.10,M,10.00,20.00,OVC,M,M,M,1500.00,M,M,M,M,M,M,M,M,M,M,49.27,KMCJ 111515Z AUTO VRB03G20KT 10SM OVC015 10/06 A3010 RMK A01,M
MCJ,2020-01-11 15:35,50.00,41.00,71.07,310.00,8.00,0.00,30.10,M,10.00,19.00,OVC,M,M,M,1700.00,M,M,M,M,M,M,M,M,M,M,46.29,KMCJ 111535Z AUTO 31008G19KT 260V360 10SM OVC017 10/05 A3010 RMK A01,M
MCJ,2020-01-11 15:55,50.00,41.00,71.07,300.00,7.00,0.00,30.11,M,10.00,14.00,OVC,M,M,M,1700.00,M,M,M,M,M,M,M,M,M,M,46.72,KMCJ 111555Z AUTO 30007G14KT 250V320 10SM OVC017 10/05 A3011 RMK A01,M
MCJ,2020-01-11 16:15,50.00,39.20,66.27,310.00,10.00,0.00,30.13,M,10.00,17.00,OVC,M,M,M,1900.00,M,M,M,M,M,M,M,M,M,M,45.54,KMCJ 111615Z AUTO 31010G17KT 290V360 10SM OVC019 10/04 A3013 RMK A01,M
MCJ,2020-01-11 16:35,50.00,39.20,66.27,310.00,9.00,0.00,30.14,M,10.00,18.00,OVC,M,M,M,1900.00,M,M,M,M,M,M,M,M,M,M,45.90,KMCJ 111635Z AUTO 31009G18KT 280V350 10SM OVC019 10/04 A3014 RMK A01,M
MCJ,2020-01-11 16:55,50.00,39.20,66.27,300.00,12.00,0.00,30.14,M,10.00,20.00,OVC,M,M,M,1900.00,M,M,M,M,M,M,M,M,M,M,44.91,KMCJ 111655Z AUTO 30012G20KT 280V340 10SM OVC019 10/04 A3014 RMK A01,M
MCJ,2020-01-11 17:15,50.00,39.20,66.27,310.00,12.00,0.00,30.15,M,10.00,22.00,OVC,M,M,M,2100.00,M,M,M,M,M,M,M,M,M,M,44.91,KMCJ 111715Z AUTO 31012G22KT 290V350 10SM OVC021 10/04 A3015 RMK A01,M
MCJ,2020-01-11 17:35,51.80,39.20,61.99,320.00,12.00,0.00,30.14,M,10.00,26.00,OVC,M,M,M,2100.00,M,M,M,M,M,M,M,M,M,M,51.80,KMCJ 111735Z AUTO 32012G26KT 290V350 10SM OVC021 11/04 A3014 RMK A01,M
MCJ,2020-01-11 17:55,51.80,39.20,61.99,320.00,12.00,0.00,30.14,M,10.00,24.00,BKN,M,M,M,2100.00,M,M,M,M,M,M,M,M,M,M,51.80,KMCJ 111755Z AUTO 32012G24KT 290V350 10SM BKN021 11/04 A3014 RMK A01,M
MCJ,2020-01-11 18:15,51.80,39.20,61.99,300.00,13.00,0.00,30.13,M,10.00,20.00,OVC,M,M,M,2100.00,M,M,M,M,M,M,M,M,M,M,51.80,KMCJ 111815Z AUTO 30013G20KT 240V340 10SM OVC021 11/04 A3013 RMK A01,M
MCJ,2020-01-11 18:35,51.80,39.20,61.99,330.00,12.00,0.00,30.13,M,10.00,20.00,BKN,M,M,M,2100.00,M,M,M,M,M,M,M,M,M,M,51.80,KMCJ 111835Z AUTO 33012G20KT 280V020 10SM BKN021 11/04 A3013 RMK A01,M
MCJ,2020-01-11 18:55,51.80,37.40,57.77,300.00,11.00,0.00,30.12,M,10.00,20.00,BKN,M,M,M,2100.00,M,M,M,M,M,M,M,M,M,M,51.80,KMCJ 111855Z AUTO 30011G20KT 270V350 10SM BKN021 11/03 A3012 RMK A01,M
MCJ,2020-01-11 19:15,53.60,39.20,58.02,310.00,9.00,0.00,30.11,M,10.00,16.00,SCT,M,M,M,2000.00,M,M,M,M,M,M,M,M,M,M,53.60,KMCJ 111915Z AUTO 31009G16KT 260V340 10SM SCT020 12/04 A3011 RMK A01,M
MCJ,2020-01-11 19:35,51.80,37.40,57.77,320.00,9.00,0.00,30.11,M,10.00,18.00,CLR,M,M,M,M,M,M,M,M,M,M,M,M,M,M,51.80,KMCJ 111935Z AUTO 32009G18KT 10SM CLR 11/03 A3011 RMK A01,M
MCJ,2020-01-11 19:55,53.60,37.40,54.07,300.00,14.00,0.00,30.12,M,10.00,21.00,CLR,M,M,M,M,M,M,M,M,M,M,M,M,M,M,53.60,KMCJ 111955Z AUTO 30014G21KT 280V340 10SM CLR 12/03 A3012 RMK A01,M
MCJ,2020-01-11 20:15,53.60,35.60,50.36,330.00,12.00,0.00,30.12,M,10.00,M,CLR,M,M,M,M,M,M,M,M,M,M,M,M,M,M,53.60,KMCJ 112015Z AUTO 33012KT 300V360 10SM CLR 12/02 A3012 RMK A01,M
MCJ,2020-01-11 20:35,53.60,35.60,50.36,300.00,12.00,0.00,30.11,M,10.00,17.00,CLR,M,M,M,M,M,M,M,M,M,M,M,M,M,M,53.60,KMCJ 112035Z AUTO 30012G17KT 250V330 10SM CLR 12/02 A3011 RMK A01,M
MCJ,2020-01-11 20:55,55.40,35.60,47.16,310.00,8.00,0.00,30.12,M,10.00,15.00,CLR,M,M,M,M,M,M,M,M,M,M,M,M,M,M,55.40,KMCJ 112055Z AUTO 31008G15KT 280V350 10SM CLR 13/02 A3012 RMK A01,M
MCJ,2020-01-11 21:15,55.40,35.60,47.16,290.00,8.00,0.00,30.12,M,10.00,M,CLR,M,M,M,M,M,M,M,M,M,M,M,M,M,M,55.40,KMCJ 112115Z AUTO 29008KT 280V340 10SM CLR 13/02 A3012 RMK A01,M
MCJ,2020-01-11 21:35,55.40,35.60,47.16,M,6.00,0.00,30.13,M,10.00,13.00,CLR,M,M,M,M,M,M,M,M,M,M,M,M,M,M,55.40,KMCJ 112135Z AUTO VRB06G13KT 290V040 10SM CLR 13/02 A3013 RMK A01,M
MCJ,2020-01-11 21:55,55.40,35.60,47.16,M,5.00,0.00,30.13,M,10.00,14.00,CLR,M,M,M,M,M,M,M,M,M,M,M,M,M,M,55.40,KMCJ 112155Z AUTO VRB05G14KT 10SM CLR 13/02 A3013 RMK A01,M
MCJ,2020-01-11 22:15,55.40,35.60,47.16,330.00,6.00,0.00,30.13,M,10.00,12.00,CLR,M,M,M,M,M,M,M,M,M,M,M,M,M,M,55.40,KMCJ 112215Z AUTO 33006G12KT 10SM CLR 13/02 A3013 RMK A01,M
MCJ,2020-01-11 23:15,53.60,35.60,50.36,330.00,11.00,0.00,30.15,M,10.00,M,CLR,M,M,M,M,M,M,M,M,M,M,M,M,M,M,53.60,KMCJ 112315Z AUTO 33011KT 10SM CLR 12/02 A3015 RMK A01,M
MCJ,2020-01-11 23:35,51.80,35.60,53.81,M,5.00,0.00,30.15,M,10.00,11.00,CLR,M,M,M,M,M,M,M,M,M,M,M,M,M,M,51.80,KMCJ 112335Z AUTO VRB05G11KT 10SM CLR 11/02 A3015 RMK A01,M
MCJ,2020-01-11 23:55,51.80,35.60,53.81,330.00,6.00,0.00,30.16,M,10.00,M,CLR,M,M,M,M,M,M,M,M,M,M,M,M,M,M,51.80,KMCJ 112355Z AUTO 33006KT 10SM CLR 11/02 A3016 RMK A01,M
MCJ,2020-01-12 00:15,51.80,35.60,53.81,330.00,7.00,0.00,30.17,M,10.00,M,CLR,M,M,M,M,M,M,M,M,M,M,M,M,M,M,51.80,KMCJ 120015Z AUTO 33007KT 10SM CLR 11/02 A3017 RMK A01,M
MCJ,2020-01-12 00:35,50.00,35.60,57.52,340.00,5.00,0.00,30.18,M,10.00,M,CLR,M,M,M,M,M,M,M,M,M,M,M,M,M,M,47.77,KMCJ 120035Z AUTO 34005KT 10SM CLR 10/02 A3018 RMK A01,M
MCJ,2020-01-12 00:55,50.00,35.60,57.52,340.00,6.00,0.00,30.18,M,10.00,11.00,CLR,M,M,M,M,M,M,M,M,M,M,M,M,M,M,47.21,KMCJ 120055Z AUTO 34006G11KT 10SM CLR 10/02 A3018 RMK A01,M
MCJ,2020-01-12 01:15,50.00,35.60,57.52,330.00,7.00,0.00,30.19,M,10.00,M,CLR,M,M,M,M,M,M,M,M,M,M,M,M,M,M,46.72,KMCJ 120115Z AUTO 33007KT 10SM CLR 10/02 A3019 RMK A01,M
MCJ,2020-01-12 01:35,48.20,35.60,61.52,350.00,8.00,0.00,30.19,M,10.00,M,CLR,M,M,M,M,M,M,M,M,M,M,M,M,M,M,44.07,KMCJ 120135Z AUTO 35008KT 10SM CLR 09/02 A3019 RMK A01,M
MCJ,2020-01-12 01:55,48.20,35.60,61.52,350.00,7.00,0.00,30.19,M,10.00,M,CLR,M,M,M,M,M,M,M,M,M,M,M,M,M,M,44.53,KMCJ 120155Z AUTO 35007KT 10SM CLR 09/02 A3019 RMK A01,M
MCJ,2020-01-12 02:15,48.20,35.60,61.52,350.00,7.00,0.00,30.19,M,10.00,M,CLR,M,M,M,M,M,M,M,M,M,M,M,M,M,M,44.53,KMCJ 120215Z AUTO 35007KT 10SM CLR 09/02 A3019 RMK A01,M
MCJ,2020-01-12 02:35,46.40,35.60,65.83,340.00,5.00,0.00,30.20,M,10.00,M,CLR,M,M,M,M,M,M,M,M,M,M,M,M,M,M,43.50,KMCJ 120235Z AUTO 34005KT 10SM CLR 08/02 A3020 RMK A01,M
MCJ,2020-01-12 02:55,46.40,35.60,65.83,330.00,7.00,0.00,30.21,M,10.00,M,CLR,M,M,M,M,M,M,M,M,M,M,M,M,M,M,42.33,KMCJ 120255Z AUTO 33007KT 10SM CLR 08/02 A3021 RMK A01,M
MCJ,2020-01-12 03:15,46.40,35.60,65.83,330.00,7.00,0.00,30.21,M,10.00,M,CLR,M,M,M,M,M,M,M,M,M,M,M,M,M,M,42.33,KMCJ 120315Z AUTO 33007KT 10SM CLR 08/02 A3021 RMK A01,M
MCJ,2020-01-12 03:35,46.40,35.60,65.83,330.00,7.00,0.00,30.21,M,10.00,12.00,CLR,M,M,M,M,M,M,M,M,M,M,M,M,M,M,42.33,KMCJ 120335Z AUTO 33007G12KT 10SM CLR 08/02 A3021 RMK A01,M
MCJ,2020-01-12 03:55,44.60,35.60,70.48,340.00,5.00,0.00,30.22,M,10.00,M,CLR,M,M,M,M,M,M,M,M,M,M,M,M,M,M,41.36,KMCJ 120355Z AUTO 34005KT 10SM CLR 07/02 A3022 RMK A01,M
MCJ,2020-01-12 04:15,44.60,35.60,70.48,340.00,4.00,0.00,30.23,M,10.00,10.00,CLR,M,M,M,M,M,M,M,M,M,M,M,M,M,M,42.13,KMCJ 120415Z AUTO 34004G10KT 10SM CLR 07/02 A3023 RMK A01,M
MCJ,2020-01-12 04:35,44.60,35.60,70.48,350.00,7.00,0.00,30.22,M,10.00,M,CLR,M,M,M,M,M,M,M,M,M,M,M,M,M,M,40.14,KMCJ 120435Z AUTO 35007KT 10SM CLR 07/02 A3022 RMK A01,M
MCJ,2020-01-12 04:55,44.60,35.60,70.48,360.00,5.00,0.00,30.23,M,10.00,M,CLR,M,M,M,M,M,M,M,M,M,M,M,M,M,M,41.36,KMCJ 120455Z AUTO 36005KT 10SM CLR 07/02 A3023 RMK A01,M
MCJ,2020-01-12 05:15,44.60,35.60,70.48,20.00,4.00,0.00,30.23,M,10.00,M,CLR,M,M,M,M,M,M,M,M,M,M,M,M,M,M,42.13,KMCJ 120515Z AUTO 02004KT 10SM CLR 07/02 A3023 RMK A01,M
MCJ,2020-01-12 05:35,42.80,33.80,70.28,340.00,7.00,0.00,30.22,M,10.00,M,CLR,M,M,M,M,M,M,M,M,M,M,M,M,M,M,37.94,KMCJ 120535Z AUTO 34007KT 10SM CLR 06/01 A3022 RMK A01,M
MCJ,2020-01-12 05:55,42.80,33.80,70.28,M,6.00,0.00,30.22,M,10.00,M,CLR,M,M,M,M,M,M,M,M,M,M,M,M,M,M,38.54,KMCJ 120555Z AUTO VRB06KT 10SM CLR 06/01 A3022 RMK A01,M
MCJ,2020-01-12 06:15,42.80,33.80,70.28,360.00,6.00,0.00,30.22,M,10.00,M,CLR,M,M,M,M,M,M,M,M,M,M,M,M,M,M,38.54,KMCJ 120615Z AUTO 36006KT 10SM CLR 06/01 A3022 RMK A01,M
MCJ,2020-01-12 06:35,42.80,33.80,70.28,20.00,4.00,0.00,30.22,M,10.00,M,CLR,M,M,M,M,M,M,M,M,M,M,M,M,M,M,40.03,KMCJ 120635Z AUTO 02004KT 10SM CLR 06/01 A3022 RMK A01,M
MCJ,2020-01-12 06:55,42.80,33.80,70.28,30.00,5.00,0.00,30.21,M,10.00,M,CLR,M,M,M,M,M,M,M,M,M,M,M,M,M,M,39.22,KMCJ 120655Z AUTO 03005KT 10SM CLR 06/01 A3021 RMK A01,M
MCJ,2020-01-12 07:15,42.80,33.80,70.28,0.00,0.00,0.00,30.21,M,10.00,M,CLR,M,M,M,M,M,M,M,M,M,M,M,M,M,M,42.80,KMCJ 120715Z AUTO 00000KT 10SM CLR 06/01 A3021 RMK A01,M
MCJ,2020-01-12 07:35,42.80,33.80,70.28,20.00,5.00,0.00,30.21,M,10.00,M,CLR,M,M,M,M,M,M,M,M,M,M,M,M,M,M,39.22,KMCJ 120735Z AUTO 02005KT 10SM CLR 06/01 A3021 RMK A01,M
MCJ,2020-01-12 07:55,41.00,33.80,75.33,30.00,7.00,0.00,30.21,M,10.00,M,CLR,M,M,M,M,M,M,M,M,M,M,M,M,M,M,35.75,KMCJ 120755Z AUTO 03007KT 10SM CLR 05/01 A3021 RMK A01,M
MCJ,2020-01-12 08:15,41.00,33.80,75.33,40.00,6.00,0.00,30.21,M,10.00,M,CLR,M,M,M,M,M,M,M,M,M,M,M,M,M,M,36.37,KMCJ 120815Z AUTO 04006KT 10SM CLR 05/01 A3021 RMK A01,M
MCJ,2020-01-12 08:35,41.00,33.80,75.33,30.00,6.00,0.00,30.21,M,10.00,M,CLR,M,M,M,M,M,M,M,M,M,M,M,M,M,M,36.37,KMCJ 120835Z AUTO 03006KT 10SM CLR 05/01 A3021 RMK A01,M
MCJ,2020-01-12 08:55,41.00,33.80,75.33,40.00,6.00,0.00,30.21,M,10.00,M,CLR,M,M,M,M,M,M,M,M,M,M,M,M,M,M,36.37,KMCJ 120855Z AUTO 04006KT 10SM CLR 05/01 A3021 RMK A01,M
MCJ,2020-01-12 09:15,39.20,33.80,80.79,M,6.00,0.00,30.20,M,10.00,M,CLR,M,M,M,M,M,M,M,M,M,M,M,M,M,M,34.20,KMCJ 120915Z AUTO VRB06KT 10SM CLR 04/01 A3020 RMK A01,M
MCJ,2020-01-12 09:35,39.20,33.80,80.79,20.00,7.00,0.00,30.20,M,10.00,M,CLR,M,M,M,M,M,M,M,M,M,M,M,M,M,M,33.56,KMCJ 120935Z AUTO 02007KT 10SM CLR 04/01 A3020 RMK A01,M
MCJ,2020-01-12 09:55,39.20,33.80,80.79,30.00,7.00,0.00,30.19,M,10.00,M,CLR,M,M,M,M,M,M,M,M,M,M,M,M,M,M,33.56,KMCJ 120955Z AUTO 03007KT 10SM CLR 04/01 A3019 RMK A01,M
MCJ,2020-01-12 10:15,39.20,33.80,80.79,40.00,7.00,0.00,30.19,M,10.00,M,CLR,M,M,M,M,M,M,M,M,M,M,M,M,M,M,33.56,KMCJ 121015Z AUTO 04007KT 10SM CLR 04/01 A3019 RMK A01,M
MCJ,2020-01-12 10:35,39.20,33.80,80.79,20.00,6.00,0.00,30.19,M,10.00,M,CLR,M,M,M,M,M,M,M,M,M,M,M,M,M,M,34.20,KMCJ 121035Z AUTO 02006KT 10SM CLR 04/01 A3019 RMK A01,M
MCJ,2020-01-12 10:55,39.20,33.80,80.79,30.00,6.00,0.00,30.19,M,10.00,M,CLR,M,M,M,M,M,M,M,M,M,M,M,M,M,M,34.20,KMCJ 121055Z AUTO 03006KT 10SM CLR 04/01 A3019 RMK A01,M
MCJ,2020-01-12 11:15,39.20,33.80,80.79,40.00,5.00,0.00,30.19,M,10.00,M,CLR,M,M,M,M,M,M,M,M,M,M,M,M,M,M,34.95,KMCJ 121115Z AUTO 04005KT 10SM CLR 04/01 A3019 RMK A01,M
MCJ,2020-01-12 11:35,39.20,33.80,80.79,40.00,5.00,0.00,30.19,M,10.00,M,CLR,M,M,M,M,M,M,M,M,M,M,M,M,M,M,34.95,KMCJ 121135Z AUTO 04005KT 10SM CLR 04/01 A3019 RMK A01,M
MCJ,2020-01-12 11:55,37.40,33.80,86.69,40.00,7.00,0.00,30.19,M,10.00,M,CLR,M,M,M,M,M,M,M,M,M,M,M,M,M,M,31.36,KMCJ 121155Z AUTO 04007KT 10SM CLR 03/01 A3019 RMK A01,M
MCJ,2020-01-12 12:15,37.40,33.80,86.69,30.00,6.00,0.00,30.19,M,10.00,M,CLR,M,M,M,M,M,M,M,M,M,M,M,M,M,M,32.03,KMCJ 121215Z AUTO 03006KT 10SM CLR 03/01 A3019 RMK A01,M
MCJ,2020-01-12 12:35,37.40,33.80,86.69,30.00,7.00,0.00,30.19,M,10.00,M,CLR,M,M,M,M,M,M,M,M,M,M,M,M,M,M,31.36,KMCJ 121235Z AUTO 03007KT 10SM CLR 03/01 A3019 RMK A01,M
MCJ,2020-01-12 12:55,37.40,33.80,86.69,30.00,6.00,0.00,30.20,M,10.00,M,CLR,M,M,M,M,M,M,M,M,M,M,M,M,M,M,32.03,KMCJ 121255Z AUTO 03006KT 10SM CLR 03/01 A3020 RMK A01,M
MCJ,2020-01-12 13:15,37.40,33.80,86.69,30.00,7.00,0.00,30.20,M,10.00,M,CLR,M,M,M,M,M,M,M,M,M,M,M,M,M,M,31.36,KMCJ 121315Z AUTO 03007KT 10SM CLR 03/01 A3020 RMK A01,M
MCJ,2020-01-12 13:35,37.40,33.80,86.69,40.00,5.00,0.00,30.20,M,10.00,M,CLR,M,M,M,M,M,M,M,M,M,M,M,M,M,M,32.81,KMCJ 121335Z AUTO 04005KT 10SM CLR 03/01 A3020 RMK A01,M
MCJ,2020-01-12 13:55,37.40,33.80,86.69,40.00,6.00,0.00,30.20,M,10.00,M,CLR,M,M,M,M,M,M,M,M,M,M,M,M,M,M,32.03,KMCJ 121355Z AUTO 04006KT 10SM CLR 03/01 A3020 RMK A01,M
MCJ,2020-01-12 14:15,39.20,35.60,86.79,40.00,5.00,0.00,30.21,M,10.00,M,CLR,M,M,M,M,M,M,M,M,M,M,M,M,M,M,34.95,KMCJ 121415Z AUTO 04005KT 10SM CLR 04/02 A3021 RMK A01,M
MCJ,2020-01-12 14:35,39.20,35.60,86.79,50.00,6.00,0.00,30.20,M,9.00,M,CLR,M,M,M,M,M,M,M,M,M,M,M,M,M,M,34.20,KMCJ 121435Z AUTO 05006KT 9SM CLR 04/02 A3020 RMK A01,M
MCJ,2020-01-12 14:55,41.00,37.40,86.89,50.00,6.00,0.00,30.20,M,7.00,M,CLR,M,M,M,M,M,M,M,M,M,M,M,M,M,M,36.37,KMCJ 121455Z AUTO 05006KT 7SM CLR 05/03 A3020 RMK A01,M
MCJ,2020-01-12 15:15,41.00,37.40,86.89,60.00,6.00,0.00,30.21,M,9.00,M,CLR,M,M,M,M,M,M,M,M,M,M,M,M,M,M,36.37,KMCJ 121515Z AUTO 06006KT 9SM CLR 05/03 A3021 RMK A01,M
MCJ,2020-01-12 15:35,42.80,37.40,81.07,60.00,6.00,0.00,30.22,M,6.00,M,CLR,M,M,M,M,M,M,M,HZ,M,M,M,M,M,M,38.54,KMCJ 121535Z AUTO 06006KT 6SM HZ CLR 06/03 A3022 RMK A01,M
MCJ,2020-01-12 15:55,42.80,39.20,86.99,40.00,5.00,0.00,30.22,M,4.00,M,CLR,M,M,M,M,M,M,M,HZ,M,M,M,M,M,M,39.22,KMCJ 121555Z AUTO 04005KT 4SM HZ CLR 06/04 A3022 RMK A01,M
MCJ,2020-01-12 16:15,44.60,39.20,81.20,40.00,4.00,0.00,30.23,M,3.00,M,CLR,M,M,M,M,M,M,M,HZ,M,M,M,M,M,M,42.13,KMCJ 121615Z AUTO 04004KT 3SM HZ CLR 07/04 A3023 RMK A01,M
MCJ,2020-01-12 16:35,44.60,39.20,81.20,40.00,6.00,0.00,30.23,M,2.50,M,CLR,M,M,M,M,M,M,M,HZ,M,M,M,M,M,M,40.71,KMCJ 121635Z AUTO 04006KT 2 1/2SM HZ CLR 07/04 A3023 RMK A01,M
MCJ,2020-01-12 16:55,46.40,41.00,81.34,M,4.00,0.00,30.22,M,3.00,M,CLR,M,M,M,M,M,M,M,HZ,M,M,M,M,M,M,44.24,KMCJ 121655Z AUTO VRB04KT 3SM HZ CLR 08/05 A3022 RMK A01,M
MCJ,2020-01-12 17:15,48.20,41.00,76.01,30.00,4.00,0.00,30.23,M,4.00,M,CLR,M,M,M,M,M,M,M,HZ,M,M,M,M,M,M,46.34,KMCJ 121715Z AUTO 03004KT 4SM HZ CLR 09/05 A3023 RMK A01,M
MCJ,2020-01-12 17:35,51.80,41.00,66.48,0.00,0.00,0.00,30.23,M,5.00,M,CLR,M,M,M,M,M,M,M,HZ,M,M,M,M,M,M,51.80,KMCJ 121735Z AUTO 00000KT 5SM HZ CLR 11/05 A3023 RMK A01,M
MCJ,2020-01-12 17:55,53.60,41.00,62.23,0.00,0.00,0.00,30.23,M,10.00,M,CLR,M,M,M,M,M,M,M,M,M,M,M,M,M,M,53.60,KMCJ 121755Z AUTO 00000KT 10SM CLR 12/05 A3023 RMK A01,M
MCJ,2020-01-12 18:15,53.60,41.00,62.23,0.00,0.00,0.00,30.22,M,10.00,M,FEW,FEW,FEW,M,1400.00,4600.00,5500.00,M,M,M,M,M,M,M,M,53.60,KMCJ 121815Z AUTO 00000KT 10SM FEW014 FEW046 FEW055 12/05 A3022 RMK A01,M
MCJ,2020-01-12 18:35,53.60,42.80,66.70,M,5.00,0.00,30.22,M,10.00,M,FEW,FEW,FEW,M,1400.00,4600.00,6000.00,M,M,M,M,M,M,M,M,53.60,KMCJ 121835Z AUTO VRB05KT 10SM FEW014 FEW046 FEW060 12/06 A3022 RMK A01,M
MCJ,2020-01-12 18:55,55.40,42.80,62.46,0.00,0.00,0.00,30.20,M,10.00,10.00,CLR,M,M,M,M,M,M,M,M,M,M,M,M,M,M,55.40,KMCJ 121855Z AUTO 00000G10KT 10SM CLR 13/06 A3020 RMK A01,M
MCJ,2020-01-12 19:15,57.20,42.80,58.52,M,4.00,0.00,30.19,M,10.00,M,CLR,M,M,M,M,M,M,M,M,M,M,M,M,M,M,57.20,KMCJ 121915Z AUTO VRB04KT 10SM CLR 14/06 A3019 RMK A01,M
MCJ,2020-01-12 19:35,57.20,42.80,58.52,0.00,0.00,0.00,30.18,M,10.00,M,CLR,M,M,M,M,M,M,M,M,M,M,M,M,M,M,57.20,KMCJ 121935Z AUTO 00000KT 10SM CLR 14/06 A3018 RMK A01,M
MCJ,2020-01-12 19:55,59.00,44.60,58.77,0.00,0.00,0.00,30.18,M,10.00,M,CLR,M,M,M,M,M,M,M,M,M,M,M,M,M,M,59.00,KMCJ 121955Z AUTO 00000KT 10SM CLR 15/07 A3018 RMK A01,M
MCJ,2020-01-12 20:15,59.00,44.60,58.77,0.00,0.00,0.00,30.18,M,10.00,M,CLR,M,M,M,M,M,M,M,M,M,M,M,M,M,M,59.00,KMCJ 122015Z AUTO 00000KT 10SM CLR 15/07 A3018 RMK A01,M
MCJ,2020-01-12 20:35,60.80,44.60,55.12,0.00,0.00,0.00,30.17,M,10.00,M,CLR,M,M,M,M,M,M,M,M,M,M,M,M,M,M,60.80,KMCJ 122035Z AUTO 00000KT 10SM CLR 16/07 A3017 RMK A01,M
MCJ,2020-01-12 20:55,60.80,46.40,59.01,0.00,0.00,0.00,30.16,M,10.00,M,FEW,M,M,M,2000.00,M,M,M,M,M,M,M,M,M,M,60.80,KMCJ 122055Z AUTO 00000KT 10SM FEW020 16/08 A3016 RMK A01,M
MCJ,2020-01-12 21:15,59.00,46.40,62.92,0.00,0.00,0.00,30.17,M,10.00,M,FEW,M,M,M,2000.00,M,M,M,M,M,M,M,M,M,M,59.00,KMCJ 122115Z AUTO 00000KT 10SM FEW020 15/08 A3017 RMK A01,M
MCJ,2020-01-12 21:35,60.80,46.40,59.01,M,4.00,0.00,30.16,M,10.00,M,CLR,M,M,M,M,M,M,M,M,M,M,M,M,M,M,60.80,KMCJ 122135Z AUTO VRB04KT 10SM CLR 16/08 A3016 RMK A01,M
MCJ,2020-01-12 21:55,60.80,46.40,59.01,0.00,0.00,0.00,30.17,M,10.00,M,CLR,M,M,M,M,M,M,M,M,M,M,M,M,M,M,60.80,KMCJ 122155Z AUTO 00000KT 10SM CLR 16/08 A3017 RMK A01,M
MCJ,2020-01-12 22:15,57.20,46.40,67.12,M,3.00,0.00,30.17,M,10.00,M,FEW,M,M,M,2000.00,M,M,M,M,M,M,M,M,M,M,57.20,KMCJ 122215Z AUTO VRB03KT 10SM FEW020 14/08 A3017 RMK A01,M
MCJ,2020-01-12 22:35,57.20,48.20,71.83,M,5.00,0.00,30.17,M,10.00,M,BKN,M,M,M,2000.00,M,M,M,M,M,M,M,M,M,M,57.20,KMCJ 122235Z AUTO VRB05KT 10SM BKN020 14/09 A3017 RMK A01,M
MCJ,2020-01-12 22:55,57.20,48.20,71.83,60.00,6.00,0.00,30.18,M,10.00,M,BKN,M,M,M,2100.00,M,M,M,M,M,M,M,M,M,M,57.20,KMCJ 122255Z AUTO 06006KT 10SM BKN021 14/09 A3018 RMK A01,M
MCJ,2020-01-12 23:15,57.20,48.20,71.83,50.00,4.00,0.00,30.18,M,10.00,M,BKN,M,M,M,2200.00,M,M,M,M,M,M,M,M,M,M,57.20,KMCJ 122315Z AUTO 05004KT 10SM BKN022 14/09 A3018 RMK A01,M
MCJ,2020-01-12 23:35,57.20,48.20,71.83,50.00,4.00,0.00,30.19,M,10.00,M,SCT,M,M,M,2100.00,M,M,M,M,M,M,M,M,M,M,57.20,KMCJ 122335Z AUTO 05004KT 10SM SCT021 14/09 A3019 RMK A01,M
MCJ,2020-01-12 23:55,55.40,48.20,76.66,0.00,0.00,0.00,30.18,M,10.00,M,SCT,M,M,M,2100.00,M,M,M,M,M,M,M,M,M,M,55.40,KMCJ 122355Z AUTO 00000KT 10SM SCT021 13/09 A3018 RMK A01,M
MCJ,2020-01-13 00:15,55.40,48.20,76.66,M,3.00,0.00,30.18,M,10.00,M,FEW,M,M,M,2000.00,M,M,M,M,M,M,M,M,M,M,55.40,KMCJ 130015Z AUTO VRB03KT 10SM FEW020 13/09 A3018 RMK A01,M
MCJ,2020-01-13 00:35,55.40,48.20,76.66,0.00,0.00,0.00,30.18,M,10.00,M,CLR,M,M,M,M,M,M,M,M,M,M,M,M,M,M,55.40,KMCJ 130035Z AUTO 00000KT 10SM CLR 13/09 A3018 RMK A01,M
MCJ,2020-01-13 00:55,55.40,48.20,76.66,0.00,0.00,0.00,30.18,M,10.00,M,CLR,M,M,M,M,M,M,M,M,M,M,M,M,M,M,55.40,KMCJ 130055Z AUTO 00000KT 10SM CLR 13/09 A3018 RMK A01,M
MCJ,2020-01-13 01:15,55.40,48.20,76.66,0.00,0.00,0.00,30.18,M,10.00,M,CLR,M,M,M,M,M,M,M,M,M,M,M,M,M,M,55.40,KMCJ 130115Z AUTO 00000KT 10SM CLR 13/09 A3018 RMK A01,M
MCJ,2020-01-13 01:35,53.60,50.00,87.56,0.00,0.00,0.00,30.18,M,10.00,M,CLR,M,M,M,M,M,M,M,M,M,M,M,M,M,M,53.60,KMCJ 130135Z AUTO 00000KT 10SM CLR 12/10 A3018 RMK A01,M
MCJ,2020-01-13 01:55,53.60,50.00,87.56,0.00,0.00,0.00,30.19,M,10.00,M,CLR,M,M,M,M,M,M,M,M,M,M,M,M,M,M,53.60,KMCJ 130155Z AUTO 00000KT 10SM CLR 12/10 A3019 RMK A01,M
MCJ,2020-01-13 02:15,53.60,50.00,87.56,0.00,0.00,0.00,30.19,M,10.00,M,CLR,M,M,M,M,M,M,M,M,M,M,M,M,M,M,53.60,KMCJ 130215Z AUTO 00000KT 10SM CLR 12/10 A3019 RMK A01,M
MCJ,2020-01-13 02:35,53.60,50.00,87.56,0.00,0.00,0.00,30.19,M,10.00,M,CLR,M,M,M,M,M,M,M,M,M,M,M,M,M,M,53.60,KMCJ 130235Z AUTO 00000KT 10SM CLR 12/10 A3019 RMK A01,M
MCJ,2020-01-13 02:55,53.60,50.00,87.56,0.00,0.00,0.00,30.19,M,10.00,M,CLR,M,M,M,M,M,M,M,M,M,M,M,M,M,M,53.60,KMCJ 130255Z AUTO 00000KT 10SM CLR 12/10 A3019 RMK A01,M
MCJ,2020-01-13 03:15,53.60,48.20,81.87,M,3.00,0.00,30.19,M,10.00,M,CLR,M,M,M,M,M,M,M,M,M,M,M,M,M,M,53.60,KMCJ 130315Z AUTO VRB03KT 10SM CLR 12/09 A3019 RMK A01,M
MCJ,2020-01-13 03:35,53.60,48.20,81.87,40.00,4.00,0.00,30.20,M,10.00,M,CLR,M,M,M,M,M,M,M,M,M,M,M,M,M,M,53.60,KMCJ 130335Z AUTO 04004KT 10SM CLR 12/09 A3020 RMK A01,M
MCJ,2020-01-13 03:55,53.60,48.20,81.87,M,4.00,0.00,30.20,M,10.00,M,CLR,M,M,M,M,M,M,M,M,M,M,M,M,M,M,53.60,KMCJ 130355Z AUTO VRB04KT 10SM CLR 12/09 A3020 RMK A01,M
MCJ,2020-01-13 04:15,51.80,48.20,87.47,40.00,4.00,0.00,30.20,M,10.00,M,CLR,M,M,M,M,M,M,M,M,M,M,M,M,M,M,51.80,KMCJ 130415Z AUTO 04004KT 10SM CLR 11/09 A3020 RMK A01,M
MCJ,2020-01-13 04:35,51.80,48.20,87.47,30.00,3.00,0.00,30.20,M,10.00,M,FEW,M,M,M,1700.00,M,M,M,M,M,M,M,M,M,M,51.80,KMCJ 130435Z AUTO 03003KT 10SM FEW017 11/09 A3020 RMK A01,M
MCJ,2020-01-13 04:55,51.80,48.20,87.47,0.00,0.00,0.00,30.21,M,10.00,M,CLR,M,M,M,M,M,M,M,M,M,M,M,M,M,M,51.80,KMCJ 130455Z AUTO 00000KT 10SM CLR 11/09 A3021 RMK A01,M
MCJ,2020-01-13 05:15,51.80,48.20,87.47,30.00,4.00,0.00,30.20,M,10.00,M,CLR,M,M,M,M,M,M,M,M,M,M,M,M,M,M,51.80,KMCJ 130515Z AUTO 03004KT 10SM CLR 11/09 A3020 RMK A01,M
MCJ,2020-01-13 05:35,53.60,48.20,81.87,40.00,5.00,0.00,30.20,M,10.00,M,CLR,M,M,M,M,M,M,M,M,M,M,M,M,M,M,53.60,KMCJ 130535Z AUTO 04005KT 10SM CLR 12/09 A3020 RMK A01,M
MCJ,2020-01-13 05:55,51.80,48.20,87.47,30.00,5.00,0.00,30.20,M,10.00,M,CLR,M,M,M,M,M,M,M,M,M,M,M,M,M,M,51.80,KMCJ 130555Z AUTO 03005KT 10SM CLR 11/09 A3020 RMK A01,M
MCJ,2020-01-13 06:15,51.80,48.20,87.47,30.00,6.00,0.00,30.19,M,10.00,M,BKN,M,M,M,4500.00,M,M,M,M,M,M,M,M,M,M,51.80,KMCJ 130615Z AUTO 03006KT 10SM BKN045 11/09 A3019 RMK A01,M
MCJ,2020-01-13 06:35,51.80,48.20,87.47,30.00,4.00,0.00,30.19,M,10.00,M,SCT,SCT,M,M,4400.00,6500.00,M,M,M,M,M,M,M,M,M,51.80,KMCJ 130635Z AUTO 03004KT 10SM SCT044 SCT065 11/09 A3019 RMK A01,M
MCJ,2020-01-13 06:55,51.80,48.20,87.47,60.00,6.00,0.00,30.18,M,10.00,M,BKN,BKN,M,M,4300.00,6500.00,M,M,M,M,M,M,M,M,M,51.80,KMCJ 130655Z AUTO 06006KT 10SM BKN043 BKN065 11/09 A3018 RMK A01,M
MCJ,2020-01-13 07:15,51.80,48.20,87.47,0.00,0.00,0.00,30.19,M,10.00,M,SCT,BKN,BKN,M,1700.00,4200.00,6500.00,M,M,M,M,M,M,M,M,51.80,KMCJ 130715Z AUTO 00000KT 10SM SCT017 BKN042 BKN065 11/09 A3019 RMK A01,M
MCJ,2020-01-13 07:35,53.60,48.20,81.87,20.00,6.00,0.00,30.19,M,10.00,M,M,M,M,M,M,M,M,M,M,M,M,M,M,M,M,53.60,KMCJ 130735Z AUTO 02006KT 10SM 12/09 A3019 RMK A01,M
MCJ,2020-01-13 07:55,53.60,48.20,81.87,30.00,6.00,0.00,30.19,M,10.00,M,BKN,BKN,OVC,M,1600.00,2300.00,4400.00,M,M,M,M,M,M,M,M,53.60,KMCJ 130755Z AUTO 03006KT 10SM BKN016 BKN023 OVC044 12/09 A3019 RMK A01,M
MCJ,2020-01-13 08:15,53.60,48.20,81.87,40.00,5.00,0.00,30.19,M,10.00,M,FEW,BKN,OVC,M,1600.00,2300.00,4500.00,M,M,M,M,M,M,M,M,53.60,KMCJ 130815Z AUTO 04005KT 10SM FEW016 BKN023 OVC045 12/09 A3019 RMK A01,M
MCJ,2020-01-13 08:35,53.60,48.20,81.87,50.00,4.00,0.00,30.18,M,10.00,M,BKN,OVC,M,M,2300.00,4500.00,M,M,M,M,M,M,M,M,M,53.60,KMCJ 130835Z AUTO 05004KT 10SM BKN023 OVC045 12/09 A3018 RMK A01,M
MCJ,2020-01-13 08:55,53.60,48.20,81.87,50.00,5.00,0.00,30.18,M,10.00,M,OVC,M,M,M,2100.00,M,M,M,M,M,M,M,M,M,M,53.60,KMCJ 130855Z AUTO 05005KT 10SM OVC021 12/09 A3018 RMK A01,M
MCJ,2020-01-13 09:15,53.60,48.20,81.87,M,6.00,0.00,30.17,M,10.00,M,BKN,OVC,M,M,2100.00,4000.00,M,M,M,M,M,M,M,M,M,53.60,KMCJ 130915Z AUTO VRB06KT 10SM BKN021 OVC040 12/09 A3017 RMK A01,M
MCJ,2020-01-13 09:35,53.60,48.20,81.87,40.00,6.00,0.00,30.17,M,6.00,M,BKN,OVC,M,M,2000.00,2600.00,M,M,HZ,M,M,M,M,M,M,53.60,KMCJ 130935Z AUTO 04006KT 6SM HZ BKN020 OVC026 12/09 A3017 RMK A01,M
MCJ,2020-01-13 09:55,53.60,50.00,87.56,50.00,5.00,0.00,30.17,M,3.00,M,SCT,OVC,M,M,1300.00,1900.00,M,M,BR,M,M,M,M,M,M,53.60,KMCJ 130955Z AUTO 05005KT 3SM BR SCT013 OVC019 12/10 A3017 RMK A01,M
MCJ,2020-01-13 10:15,53.60,50.00,87.56,40.00,5.00,0.00,30.17,M,2.50,M,FEW,OVC,M,M,1300.00,2000.00,M,M,BR,M,M,M,M,M,M,53.60,KMCJ 131015Z AUTO 04005KT 2 1/2SM BR FEW013 OVC020 12/10 A3017 RMK A01,M
MCJ,2020-01-13 10:35,53.60,51.80,93.60,50.00,7.00,0.00,30.17,M,1.75,M,SCT,BKN,OVC,M,200.00,1000.00,1500.00,M,BR,M,M,M,M,M,M,53.60,KMCJ 131035Z AUTO 05007KT 1 3/4SM BR SCT002 BKN010 OVC015 12/11 A3017 RMK A01,M
MCJ,2020-01-13 10:55,53.60,51.80,93.60,50.00,5.00,0.00,30.17,M,2.50,M,BKN,OVC,M,M,200.00,800.00,M,M,BR,M,M,M,M,M,M,53.60,KMCJ 131055Z AUTO 05005KT 2 1/2SM BR BKN002 OVC008 12/11 A3017 RMK A01,M
MCJ,2020-01-13 11:15,53.60,51.80,93.60,50.00,6.00,0.00,30.17,M,1.75,M,SCT,BKN,OVC,M,200.00,800.00,2900.00,M,BR,M,M,M,M,M,M,53.60,KMCJ 131115Z AUTO 05006KT 1 3/4SM BR SCT002 BKN008 OVC029 12/11 A3017 RMK A01,M
MCJ,2020-01-13 11:35,53.60,51.80,93.60,40.00,8.00,0.00,30.17,M,2.50,M,FEW,FEW,OVC,M,300.00,900.00,2900.00,M,BR,M,M,M,M,M,M,53.60,KMCJ 131135Z AUTO 04008KT 2 1/2SM BR FEW003 FEW009 OVC029 12/11 A3017 RMK A01,M
MCJ,2020-01-13 11:55,53.60,53.60,100.00,40.00,5.00,0.00,30.18,M,1.75,11.00,SCT,BKN,OVC,M,200.00,1000.00,2900.00,M,BR,M,M,M,M,M,M,53.60,KMCJ 131155Z AUTO 04005G11KT 1 3/4SM BR SCT002 BKN010 OVC029 12/12 A3018 RMK A01,M
MCJ,2020-01-13 12:15,53.60,53.60,100.00,50.00,8.00,0.00,30.18,M,1.50,M,BKN,OVC,M,M,200.00,800.00,M,M,BR,M,M,M,M,M,M,53.60,KMCJ 131215Z AUTO 05008KT 1 1/2SM BR BKN002 OVC008 12/12 A3018 RMK A01,M
MCJ,2020-01-13 12:35,53.60,53.60,100.00,50.00,6.00,0.00,30.18,M,2.50,M,BKN,OVC,M,M,200.00,800.00,M,M,BR,M,M,M,M,M,M,53.60,KMCJ 131235Z AUTO 05006KT 2 1/2SM BR BKN002 OVC008 12/12 A3018 RMK A01,M
MCJ,2020-01-13 12:55,53.60,53.60,100.00,60.00,8.00,0.00,30.18,M,1.50,M,OVC,M,M,M,200.00,M,M,M,BR,M,M,M,M,M,M,53.60,KMCJ 131255Z AUTO 06008KT 1 1/2SM BR OVC002 12/12 A3018 RMK A01,M
MCJ,2020-01-13 13:15,55.40,55.40,100.00,30.00,5.00,0.00,30.18,M,1.00,M,OVC,M,M,M,100.00,M,M,M,BR,M,M,M,M,M,M,55.40,KMCJ 131315Z AUTO 03005KT 1SM BR OVC001 13/13 A3018 RMK A01,M
MCJ,2020-01-13 13:35,55.40,55.40,100.00,40.00,8.00,0.00,30.18,M,0.25,M,OVC,M,M,M,100.00,M,M,M,FG,M,M,M,M,M,M,55.40,KMCJ 131335Z AUTO 04008KT 1/4SM FG OVC001 13/13 A3018 RMK A01,M
MCJ,2020-01-13 13:55,55.40,55.40,100.00,40.00,7.00,0.00,30.19,M,0.75,M,OVC,M,M,M,100.00,M,M,M,BR,M,M,M,M,M,M,55.40,KMCJ 131355Z AUTO 04007KT 3/4SM BR OVC001 13/13 A3019 RMK A01,M
MCJ,2020-01-13 14:15,55.40,55.40,100.00,30.00,6.00,0.00,30.19,M,0.75,11.00,OVC,M,M,M,100.00,M,M,M,BR,M,M,M,M,M,M,55.40,KMCJ 131415Z AUTO 03006G11KT 3/4SM BR OVC001 13/13 A3019 RMK A01,M
MCJ,2020-01-13 14:35,55.40,55.40,100.00,40.00,8.00,0.00,30.19,M,0.75,M,OVC,M,M,M,100.00,M,M,M,BR,M,M,M,M,M,M,55.40,KMCJ 131435Z AUTO 04008KT 3/4SM BR OVC001 13/13 A3019 RMK A01,M
MCJ,2020-01-13 14:55,55.40,55.40,100.00,40.00,7.00,0.00,30.19,M,1.25,12.00,OVC,M,M,M,100.00,M,M,M,BR,M,M,M,M,M,M,55.40,KMCJ 131455Z AUTO 04007G12KT 1 1/4SM BR OVC001 13/13 A3019 RMK A01,M
MCJ,2020-01-13 15:15,55.40,55.40,100.00,50.00,7.00,0.00,30.20,M,1.75,M,OVC,M,M,M,200.00,M,M,M,BR,M,M,M,M,M,M,55.40,KMCJ 131515Z AUTO 05007KT 1 3/4SM BR OVC002 13/13 A3020 RMK A01,M
MCJ,2020-01-13 15:35,55.40,55.40,100.00,40.00,7.00,0.00,30.20,M,0.75,M,OVC,M,M,M,200.00,M,M,M,BR,M,M,M,M,M,M,55.40,KMCJ 131535Z AUTO 04007KT 3/4SM BR OVC002 13/13 A3020 RMK A01,M
MCJ,2020-01-13 15:55,57.20,57.20,100.00,40.00,7.00,0.00,30.20,M,0.75,M,OVC,M,M,M,200.00,M,M,M,BR,M,M,M,M,M,M,57.20,KMCJ 131555Z AUTO 04007KT 3/4SM BR OVC002 14/14 A3020 RMK A01,M
MCJ,2020-01-13 16:15,57.20,57.20,100.00,60.00,7.00,0.00,30.20,M,1.00,M,OVC,M,M,M,100.00,M,M,M,BR,M,M,M,M,M,M,57.20,KMCJ 131615Z AUTO 06007KT 020V080 1SM BR OVC001 14/14 A3020 RMK A01,M
MCJ,2020-01-13 16:35,57.20,57.20,100.00,50.00,3.00,0.00,30.21,M,1.00,M,OVC,M,M,M,200.00,M,M,M,BR,M,M,M,M,M,M,57.20,KMCJ 131635Z AUTO 05003KT 1SM BR OVC002 14/14 A3021 RMK A01,M
MCJ,2020-01-13 16:55,57.20,59.00,M,40.00,6.00,0.00,30.21,M,0.75,M,OVC,M,M,M,100.00,M,M,M,BR,M,M,M,M,M,M,M,KMCJ 131655Z AUTO 04006KT 3/4SM BR OVC001 14/15 A3021 RMK A01,M
MCJ,2020-01-13 17:15,59.00,59.00,100.00,40.00,6.00,0.00,30.20,M,2.00,M,OVC,M,M,M,200.00,M,M,M,BR,M,M,M,M,M,M,59.00,KMCJ 131715Z AUTO 04006KT 2SM BR OVC002 15/15 A3020 RMK A01,M
MCJ,2020-01-13 17:35,59.00,59.00,100.00,30.00,4.00,0.00,30.20,M,1.00,M,OVC,M,M,M,200.00,M,M,M,BR,M,M,M,M,M,M,59.00,KMCJ 131735Z AUTO 03004KT 1SM BR OVC002 15/15 A3020 RMK A01,M
MCJ,2020-01-13 17:55,59.00,59.00,100.00,60.00,5.00,0.00,30.18,M,1.25,M,OVC,M,M,M,200.00,M,M,M,BR,M,M,M,M,M,M,59.00,KMCJ 131755Z AUTO 06005KT 1 1/4SM BR OVC002 15/15 A3018 RMK A01,M
MCJ,2020-01-13 18:15,59.00,59.00,100.00,M,6.00,0.00,30.17,M,1.50,M,OVC,M,M,M,200.00,M,M,M,BR,M,M,M,M,M,M,59.00,KMCJ 131815Z AUTO VRB06KT 1 1/2SM BR OVC002 15/15 A3017 RMK A01,M
MCJ,2020-01-13 18:35,59.00,59.00,100.00,40.00,6.00,0.00,30.15,M,0.75,M,OVC,M,M,M,200.00,M,M,M,BR,M,M,M,M,M,M,59.00,KMCJ 131835Z AUTO 04006KT 3/4SM BR OVC002 15/15 A3015 RMK A01,M
MCJ,2020-01-13 18:55,59.00,59.00,100.00,40.00,5.00,0.00,30.15,M,1.25,M,OVC,M,M,M,200.00,M,M,M,BR,M,M,M,M,M,M,59.00,KMCJ 131855Z AUTO 04005KT 1 1/4SM BR OVC002 15/15 A3015 RMK A01,M
MCJ,2020-01-13 19:15,59.00,59.00,100.00,0.00,0.00,0.00,30.14,M,1.75,M,OVC,M,M,M,100.00,M,M,M,BR,M,M,M,M,M,M,59.00,KMCJ 131915Z AUTO 00000KT 1 3/4SM BR OVC001 15/15 A3014 RMK A01,M
MCJ,2020-01-13 19:35,60.80,60.80,100.00,50.00,5.00,0.00,30.13,M,0.75,M,OVC,M,M,M,200.00,M,M,M,BR,M,M,M,M,M,M,60.80,KMCJ 131935Z AUTO 05005KT 3/4SM BR OVC002 16/16 A3013 RMK A01,M
MCJ,2020-01-13 19:55,60.80,60.80,100.00,50.00,6.00,0.00,30.12,M,2.00,M,OVC,M,M,M,200.00,M,M,M,BR,M,M,M,M,M,M,60.80,KMCJ 131955Z AUTO 05006KT 2SM BR OVC002 16/16 A3012 RMK A01,M
MCJ,2020-01-13 20:15,60.80,60.80,100.00,50.00,6.00,0.00,30.11,M,2.50,M,OVC,M,M,M,200.00,M,M,M,BR,M,M,M,M,M,M,60.80,KMCJ 132015Z AUTO 05006KT 2 1/2SM BR OVC002 16/16 A3011 RMK A01,M
MCJ,2020-01-13 20:35,62.60,62.60,100.00,0.00,0.00,0.00,30.11,M,2.00,M,OVC,M,M,M,200.00,M,M,M,BR,M,M,M,M,M,M,62.60,KMCJ 132035Z AUTO 00000KT 2SM BR OVC002 17/17 A3011 RMK A01,M
MCJ,2020-01-13 20:55,62.60,62.60,100.00,0.00,0.00,0.00,30.11,M,1.75,M,OVC,M,M,M,200.00,M,M,M,BR,M,M,M,M,M,M,62.60,KMCJ 132055Z AUTO 00000KT 1 3/4SM BR OVC002 17/17 A3011 RMK A01,M
MCJ,2020-01-13 21:15,62.60,62.60,100.00,M,4.00,0.00,30.11,M,1.50,M,OVC,M,M,M,300.00,M,M,M,BR,M,M,M,M,M,M,62.60,KMCJ 132115Z AUTO VRB04KT 1 1/2SM BR OVC003 17/17 A3011 RMK A01,M
MCJ,2020-01-13 21:35,62.60,62.60,100.00,50.00,5.00,0.00,30.11,M,3.00,M,OVC,M,M,M,400.00,M,M,M,BR,M,M,M,M,M,M,62.60,KMCJ 132135Z AUTO 05005KT 3SM BR OVC004 17/17 A3011 RMK A01,M
MCJ,2020-01-13 21:55,62.60,62.60,100.00,30.00,4.00,0.00,30.11,M,4.00,M,OVC,M,M,M,400.00,M,M,M,BR,M,M,M,M,M,M,62.60,KMCJ 132155Z AUTO 03004KT 4SM BR OVC004 17/17 A3011 RMK A01,M
MCJ,2020-01-13 22:15,62.60,62.60,100.00,M,5.00,0.00,30.11,M,3.00,M,OVC,M,M,M,400.00,M,M,M,BR,M,M,M,M,M,M,62.60,KMCJ 132215Z AUTO VRB05KT 3SM BR OVC004 17/17 A3011 RMK A01,M
MCJ,2020-01-13 22:35,62.60,62.60,100.00,M,5.00,0.00,30.11,M,1.75,M,OVC,M,M,M,300.00,M,M,M,BR,M,M,M,M,M,M,62.60,KMCJ 132235Z AUTO VRB05KT 1 3/4SM BR OVC003 17/17 A3011 RMK A01,M
MCJ,2020-01-13 22:55,62.60,62.60,100.00,M,4.00,0.00,30.11,M,3.00,M,OVC,M,M,M,300.00,M,M,M,BR,M,M,M,M,M,M,62.60,KMCJ 132255Z AUTO VRB04KT 3SM BR OVC003 17/17 A3011 RMK A01,M
MCJ,2020-01-13 23:15,62.60,62.60,100.00,M,4.00,0.00,30.11,M,3.00,M,OVC,M,M,M,300.00,M,M,M,BR,M,M,M,M,M,M,62.60,KMCJ 132315Z AUTO VRB04KT 3SM BR OVC003 17/17 A3011 RMK A01,M
MCJ,2020-01-13 23:35,62.60,62.60,100.00,0.00,0.00,0.00,30.11,M,2.00,M,OVC,M,M,M,200.00,M,M,M,BR,M,M,M,M,M,M,62.60,KMCJ 132335Z AUTO 00000KT 2SM BR OVC002 17/17 A3011 RMK A01,M
MCJ,2020-01-13 23:55,62.60,62.60,100.00,M,3.00,0.00,30.11,M,1.25,M,OVC,M,M,M,100.00,M,M,M,BR,M,M,M,M,M,M,62.60,KMCJ 132355Z AUTO VRB03KT 1 1/4SM BR OVC001 17/17 A3011 RMK A01,M
MCJ,2020-01-14 00:15,62.60,62.60,100.00,0.00,0.00,0.00,30.12,M,1.00,M,OVC,M,M,M,100.00,M,M,M,BR,M,M,M,M,M,M,62.60,KMCJ 140015Z AUTO 00000KT 1SM BR OVC001 17/17 A3012 RMK A01,M
MCJ,2020-01-14 00:35,62.60,62.60,100.00,0.00,0.00,0.00,30.12,M,0.75,M,OVC,M,M,M,100.00,M,M,M,BR,M,M,M,M,M,M,62.60,KMCJ 140035Z AUTO 00000KT 3/4SM BR OVC001 17/17 A3012 RMK A01,M
MCJ,2020-01-14 00:55,62.60,62.60,100.00,0.00,0.00,0.00,30.13,M,0.50,M,OVC,M,M,M,100.00,M,M,M,FG,M,M,M,M,M,M,62.60,KMCJ 140055Z AUTO 00000KT 1/2SM FG OVC001 17/17 A3013 RMK A01,M
MCJ,2020-01-14 01:15,62.60,62.60,100.00,0.00,0.00,0.00,30.13,M,0.25,M,OVC,M,M,M,100.00,M,M,M,FG,M,M,M,M,M,M,62.60,KMCJ 140115Z AUTO 00000KT 1/4SM FG OVC001 17/17 A3013 RMK A01,M
MCJ,2020-01-14 01:35,62.60,62.60,100.00,0.00,0.00,0.00,30.13,M,0.25,M,OVC,M,M,M,100.00,M,M,M,FG,M,M,M,M,M,M,62.60,KMCJ 140135Z AUTO 00000KT 1/4SM FG OVC001 17/17 A3013 RMK A01,M
MCJ,2020-01-14 01:55,62.60,62.60,100.00,50.00,5.00,0.00,30.14,M,0.25,M,OVC,M,M,M,100.00,M,M,M,FG,M,M,M,M,M,M,62.60,KMCJ 140155Z AUTO 05005KT M1/4SM FG OVC001 17/17 A3014 RMK A01 VIS M1/4V5,M
MCJ,2020-01-14 02:15,62.60,62.60,100.00,40.00,4.00,0.00,30.14,M,0.25,M,OVC,M,M,M,100.00,M,M,M,FG,M,M,M,M,M,M,62.60,KMCJ 140215Z AUTO 04004KT M1/4SM FG OVC001 17/17 A3014 RMK A01,M
MCJ,2020-01-14 02:35,62.60,62.60,100.00,0.00,0.00,0.00,30.14,M,0.25,M,OVC,M,M,M,100.00,M,M,M,FG,M,M,M,M,M,M,62.60,KMCJ 140235Z AUTO 00000KT M1/4SM FG OVC001 17/17 A3014 RMK A01,M
MCJ,2020-01-14 02:55,62.60,62.60,100.00,50.00,5.00,0.00,30.14,M,0.25,M,OVC,M,M,M,100.00,M,M,M,FG,M,M,M,M,M,M,62.60,KMCJ 140255Z AUTO 05005KT M1/4SM FG OVC001 17/17 A3014 RMK A01 VIS M1/4V5,M
MCJ,2020-01-14 03:15,62.60,62.60,100.00,0.00,0.00,0.00,30.14,M,0.25,M,OVC,M,M,M,100.00,M,M,M,FG,M,M,M,M,M,M,62.60,KMCJ 140315Z AUTO 00000KT 1/4SM FG OVC001 17/17 A3014 RMK A01,M
MCJ,2020-01-14 03:35,62.60,62.60,100.00,0.00,0.00,0.00,30.14,M,0.25,M,OVC,M,M,M,100.00,M,M,M,FG,M,M,M,M,M,M,62.60,KMCJ 140335Z AUTO 00000KT 1/4SM FG OVC001 17/17 A3014 RMK A01,M
MCJ,2020-01-14 03:55,62.60,64.40,M,0.00,0.00,0.00,30.14,M,0.25,M,OVC,M,M,M,100.00,M,M,M,FG,M,M,M,M,M,M,M,KMCJ 140355Z AUTO 00000KT M1/4SM FG OVC001 17/18 A3014 RMK A01,M
MCJ,2020-01-14 04:15,64.40,64.40,100.00,0.00,0.00,0.00,30.13,M,0.25,M,OVC,M,M,M,100.00,M,M,M,FG,M,M,M,M,M,M,64.40,KMCJ 140415Z AUTO 00000KT M1/4SM FG OVC001 18/18 A3013 RMK A01,M
MCJ,2020-01-14 04:35,64.40,64.40,100.00,0.00,0.00,0.00,30.12,M,0.25,M,OVC,M,M,M,100.00,M,M,M,FG,M,M,M,M,M,M,64.40,KMCJ 140435Z AUTO 00000KT M1/4SM FG OVC001 18/18 A3012 RMK A01,M
MCJ,2020-01-14 04:55,64.40,64.40,100.00,0.00,0.00,0.00,30.12,M,0.25,M,OVC,M,M,M,100.00,M,M,M,FG,M,M,M,M,M,M,64.40,KMCJ 140455Z AUTO 00000KT M1/4SM FG OVC001 18/18 A3012 RMK A01,M
MCJ,2020-01-14 05:15,64.40,64.40,100.00,0.00,0.00,0.00,30.11,M,0.25,M,OVC,M,M,M,100.00,M,M,M,FG,M,M,M,M,M,M,64.40,KMCJ 140515Z AUTO 00000KT M1/4SM FG OVC001 18/18 A3011 RMK A01,M
MCJ,2020-01-14 05:35,66.20,66.20,100.00,0.00,0.00,0.00,30.11,M,0.25,M,OVC,M,M,M,100.00,M,M,M,FG,M,M,M,M,M,M,66.20,KMCJ 140535Z AUTO 00000KT M1/4SM FG OVC001 19/19 A3011 RMK A01,M
MCJ,2020-01-14 05:55,66.20,66.20,100.00,0.00,0.00,0.00,30.12,M,0.25,M,OVC,M,M,M,100.00,M,M,M,FG,M,M,M,M,M,M,66.20,KMCJ 140555Z AUTO 00000KT M1/4SM FG OVC001 19/19 A3012 RMK A01,M
MCJ,2020-01-14 06:15,66.20,66.20,100.00,0.00,0.00,0.00,30.11,M,0.25,M,OVC,M,M,M,100.00,M,M,M,FG,M,M,M,M,M,M,66.20,KMCJ 140615Z AUTO 00000KT M1/4SM FG OVC001 19/19 A3011 RMK A01,M
MCJ,2020-01-14 06:35,68.00,68.00,100.00,0.00,0.00,0.00,30.11,M,0.25,M,OVC,M,M,M,100.00,M,M,M,FG,M,M,M,M,M,M,68.00,KMCJ 140635Z AUTO 00000KT M1/4SM FG OVC001 20/20 A3011 RMK A01,M
MCJ,2020-01-14 06:55,68.00,68.00,100.00,M,6.00,0.00,30.11,M,0.25,M,OVC,M,M,M,100.00,M,M,M,FG,M,M,M,M,M,M,68.00,KMCJ 140655Z AUTO VRB06KT M1/4SM FG OVC001 20/20 A3011 RMK A01,M
MCJ,2020-01-14 07:15,69.80,69.80,100.00,M,5.00,0.00,30.10,M,0.25,11.00,OVC,M,M,M,100.00,M,M,M,FG,M,M,M,M,M,M,69.80,KMCJ 140715Z AUTO VRB05G11KT M1/4SM FG OVC001 21/21 A3010 RMK A01,M
MCJ,2020-01-14 07:35,69.80,69.80,100.00,M,4.00,0.00,30.10,M,0.25,M,OVC,M,M,M,100.00,M,M,M,FG,M,M,M,M,M,M,69.80,KMCJ 140735Z AUTO VRB04KT M1/4SM FG OVC001 21/21 A3010 RMK A01,M
MCJ,2020-01-14 07:55,69.80,69.80,100.00,0.00,0.00,0.00,30.09,M,0.25,M,OVC,M,M,M,100.00,M,M,M,FG,M,M,M,M,M,M,69.80,KMCJ 140755Z AUTO 00000KT M1/4SM FG OVC001 21/21 A3009 RMK A01,M
MCJ,2020-01-14 08:15,69.80,69.80,100.00,M,4.00,0.00,30.09,M,0.25,M,OVC,M,M,M,100.00,M,M,M,FG,M,M,M,M,M,M,69.80,KMCJ 140815Z AUTO VRB04KT M1/4SM FG OVC001 21/21 A3009 RMK A01,M
MCJ,2020-01-14 08:35,69.80,69.80,100.00,M,5.00,0.00,30.09,M,0.25,12.00,OVC,M,M,M,100.00,M,M,M,FG,M,M,M,M,M,M,69.80,KMCJ 140835Z AUTO VRB05G12KT M1/4SM FG OVC001 21/21 A3009 RMK A01,M
MCJ,2020-01-14 08:55,69.80,69.80,100.00,M,3.00,0.00,30.08,M,0.25,10.00,OVC,M,M,M,100.00,M,M,M,FG,M,M,M,M,M,M,69.80,KMCJ 140855Z AUTO VRB03G10KT M1/4SM FG OVC001 21/21 A3008 RMK A01,M
MCJ,2020-01-14 09:15,69.80,71.60,M,M,5.00,0.00,30.09,M,0.25,11.00,OVC,M,M,M,100.00,M,M,M,FG,M,M,M,M,M,M,M,KMCJ 140915Z AUTO VRB05G11KT 1/4SM FG OVC001 21/22 A3009 RMK A01,M
MCJ,2020-01-14 09:35,69.80,71.60,M,M,4.00,0.00,30.08,M,0.25,M,OVC,M,M,M,100.00,M,M,M,FG,M,M,M,M,M,M,M,KMCJ 140935Z AUTO VRB04KT 1/4SM FG OVC001 21/22 A3008 RMK A01,M
MCJ,2020-01-14 09:55,69.80,71.60,M,M,6.00,0.00,30.08,M,0.25,M,OVC,M,M,M,100.00,M,M,M,FG,M,M,M,M,M,M,M,KMCJ 140955Z AUTO VRB06KT M1/4SM FG OVC001 21/22 A3008 RMK A01,M
MCJ,2020-01-14 10:15,69.80,69.80,100.00,M,4.00,0.00,30.08,M,0.25,M,OVC,M,M,M,100.00,M,M,M,FG,M,M,M,M,M,M,69.80,KMCJ 141015Z AUTO VRB04KT M1/4SM FG OVC001 21/21 A3008 RMK A01,M
MCJ,2020-01-14 10:35,69.80,71.60,M,M,4.00,0.00,30.08,M,0.25,M,OVC,M,M,M,100.00,M,M,M,FG,M,M,M,M,M,M,M,KMCJ 141035Z AUTO VRB04KT M1/4SM FG OVC001 21/22 A3008 RMK A01,M
MCJ,2020-01-14 10:55,69.80,69.80,100.00,0.00,0.00,0.00,30.08,M,0.25,11.00,OVC,M,M,M,100.00,M,M,M,FG,M,M,M,M,M,M,69.80,KMCJ 141055Z AUTO 00000G11KT M1/4SM FG OVC001 21/21 A3008 RMK A01 VIS M1/4V5,M
MCJ,2020-01-14 11:15,69.80,69.80,100.00,M,3.00,0.00,30.08,M,0.25,M,OVC,M,M,M,100.00,M,M,M,FG,M,M,M,M,M,M,69.80,KMCJ 141115Z AUTO VRB03KT M1/4SM FG OVC001 21/21 A3008 RMK A01,M
MCJ,2020-01-14 11:35,71.60,71.60,100.00,0.00,0.00,0.00,30.09,M,0.25,M,OVC,M,M,M,100.00,M,M,M,FG,M,M,M,M,M,M,71.60,KMCJ 141135Z AUTO 00000KT M1/4SM FG OVC001 22/22 A3009 RMK A01,M
MCJ,2020-01-14 11:55,71.60,71.60,100.00,0.00,0.00,0.00,30.09,M,0.25,M,OVC,M,M,M,100.00,M,M,M,FG,M,M,M,M,M,M,71.60,KMCJ 141155Z AUTO 00000KT 1/4SM FG OVC001 22/22 A3009 RMK A01,M
MCJ,2020-01-14 12:15,71.60,71.60,100.00,M,5.00,0.00,30.11,M,0.25,M,OVC,M,M,M,100.00,M,M,M,FG,M,M,M,M,M,M,71.60,KMCJ 141215Z AUTO VRB05KT 1/4SM FG OVC001 22/22 A3011 RMK A01,M
MCJ,2020-01-14 12:35,71.60,71.60,100.00,M,5.00,0.00,30.11,M,1.25,M,OVC,M,M,M,100.00,M,M,M,BR,M,M,M,M,M,M,71.60,KMCJ 141235Z AUTO VRB05KT 1 1/4SM BR OVC001 22/22 A3011 RMK A01,M
MCJ,2020-01-14 12:55,71.60,71.60,100.00,M,6.00,0.00,30.11,M,2.00,M,OVC,M,M,M,100.00,M,M,M,BR,M,M,M,M,M,M,71.60,KMCJ 141255Z AUTO VRB06KT 2SM BR OVC001 22/22 A3011 RMK A01,M
MCJ,2020-01-14 13:15,71.60,71.60,100.00,M,3.00,0.00,30.11,M,2.50,12.00,OVC,M,M,M,200.00,M,M,M,BR,M,M,M,M,M,M,71.60,KMCJ 141315Z AUTO VRB03G12KT 2 1/2SM BR OVC002 22/22 A3011 RMK A01,M
MCJ,2020-01-14 13:35,71.60,71.60,100.00,M,5.00,0.00,30.11,M,2.00,M,OVC,M,M,M,200.00,M,M,M,BR,M,M,M,M,M,M,71.60,KMCJ 141335Z AUTO VRB05KT 2SM BR OVC002 22/22 A3011 RMK A01,M
MCJ,2020-01-14 13:55,71.60,71.60,100.00,M,4.00,0.00,30.11,M,2.50,10.00,OVC,M,M,M,200.00,M,M,M,BR,M,M,M,M,M,M,71.60,KMCJ 141355Z AUTO VRB04G10KT 2 1/2SM BR OVC002 22/22 A3011 RMK A01,M
MCJ,2020-01-14 14:15,71.60,71.60,100.00,M,6.00,0.00,30.11,M,1.75,11.00,OVC,M,M,M,200.00,M,M,M,BR,M,M,M,M,M,M,71.60,KMCJ 141415Z AUTO VRB06G11KT 1 3/4SM BR OVC002 22/22 A3011 RMK A01,M
MCJ,2020-01-14 14:35,71.60,71.60,100.00,M,4.00,0.00,30.12,M,0.50,10.00,OVC,M,M,M,100.00,M,M,M,BR,M,M,M,M,M,M,71.60,KMCJ 141435Z AUTO VRB04G10KT 1/2SM BR OVC001 22/22 A3012 RMK A01,M
MCJ,2020-01-14 14:55,71.60,71.60,100.00,M,5.00,0.00,30.12,M,0.75,11.00,OVC,M,M,M,100.00,M,M,M,BR,M,M,M,M,M,M,71.60,KMCJ 141455Z AUTO VRB05G11KT 3/4SM BR OVC001 22/22 A3012 RMK A01,M
MCJ,2020-01-14 15:15,71.60,71.60,100.00,M,5.00,0.00,30.12,M,3.00,12.00,OVC,M,M,M,200.00,M,M,M,BR,M,M,M,M,M,M,71.60,KMCJ 141515Z AUTO VRB05G12KT 3SM BR OVC002 22/22 A3012 RMK A01,M
MCJ,2020-01-14 15:35,71.60,71.60,100.00,M,5.00,0.00,30.12,M,4.00,11.00,OVC,M,M,M,400.00,M,M,M,BR,M,M,M,M,M,M,71.60,KMCJ 141535Z AUTO VRB05G11KT 4SM BR OVC004 22/22 A3012 RMK A01,M
MCJ,2020-01-14 15:55,71.60,71.60,100.00,M,6.00,0.00,30.13,M,4.00,12.00,BKN,OVC,M,M,400.00,700.00,M,M,BR,M,M,M,M,M,M,71.60,KMCJ 141555Z AUTO VRB06G12KT 4SM BR BKN004 OVC007 22/22 A3013 RMK A01,M
MCJ,2020-01-14 16:15,73.40,73.40,100.00,200.00,7.00,0.00,30.14,M,5.00,M,OVC,M,M,M,500.00,M,M,M,BR,M,M,M,M,M,M,73.40,KMCJ 141615Z AUTO 20007KT 170V250 5SM BR OVC005 23/23 A3014 RMK A01,M
MCJ,2020-01-14 16:35,73.40,73.40,100.00,M,6.00,0.00,30.14,M,5.00,14.00,OVC,M,M,M,700.00,M,M,M,BR,M,M,M,M,M,M,73.40,KMCJ 141635Z AUTO VRB06G14KT 5SM BR OVC007 23/23 A3014 RMK A01,M
MCJ,2020-01-14 16:55,73.40,73.40,100.00,M,4.00,0.00,30.14,M,5.00,10.00,BKN,OVC,M,M,700.00,1000.00,M,M,BR,M,M,M,M,M,M,73.40,KMCJ 141655Z AUTO VRB04G10KT 5SM BR BKN007 OVC010 23/23 A3014 RMK A01,M
MCJ,2020-01-14 17:15,73.40,73.40,100.00,M,7.00,0.00,30.13,M,5.00,13.00,BKN,OVC,M,M,700.00,1200.00,M,M,BR,M,M,M,M,M,M,73.40,KMCJ 141715Z AUTO VRB07G13KT 5SM BR BKN007 OVC012 23/23 A3013 RMK A01,M
MCJ,2020-01-14 17:35,75.20,75.20,100.00,200.00,7.00,0.00,30.12,M,5.00,16.00,BKN,OVC,M,M,900.00,1700.00,M,M,BR,M,M,M,M,M,M,75.20,KMCJ 141735Z AUTO 20007G16KT 160V260 5SM BR BKN009 OVC017 24/24 A3012 RMK A01,M
MCJ,2020-01-14 17:55,77.00,73.40,88.67,M,6.00,0.00,30.11,M,6.00,12.00,SCT,BKN,OVC,M,1000.00,1500.00,2100.00,M,BR,M,M,M,M,M,M,77.00,KMCJ 141755Z AUTO VRB06G12KT 6SM BR SCT010 BKN015 OVC021 25/23 A3011 RMK A01,M
MCJ,2020-01-14 18:15,78.80,71.60,78.62,200.00,7.00,0.00,30.10,M,7.00,13.00,SCT,BKN,OVC,M,1100.00,1500.00,2800.00,M,M,M,M,M,M,M,M,78.80,KMCJ 141815Z AUTO 20007G13KT 170V230 7SM SCT011 BKN015 OVC028 26/22 A3010 RMK A01,M
MCJ,2020-01-14 18:35,78.80,71.60,78.62,M,7.00,0.00,30.08,M,7.00,18.00,BKN,OVC,M,M,1400.00,1800.00,M,M,M,M,M,M,M,M,M,78.80,KMCJ 141835Z AUTO VRB07G18KT 7SM BKN014 OVC018 26/22 A3008 RMK A01,M
MCJ,2020-01-14 18:55,80.60,71.60,74.11,M,6.00,0.00,30.07,M,9.00,19.00,BKN,BKN,OVC,M,1600.00,2000.00,2600.00,M,M,M,M,M,M,M,M,84.57,KMCJ 141855Z AUTO VRB06G19KT 9SM BKN016 BKN020 OVC026 27/22 A3007 RMK A01,M
MCJ,2020-01-14 19:15,80.60,71.60,74.11,M,6.00,0.00,30.06,M,8.00,15.00,SCT,BKN,BKN,M,1600.00,2200.00,2800.00,M,M,M,M,M,M,M,M,84.57,KMCJ 141915Z AUTO VRB06G15KT 8SM SCT016 BKN022 BKN028 27/22 A3006 RMK A01,M
MCJ,2020-01-14 19:35,78.80,71.60,78.62,M,4.00,0.00,30.06,M,8.00,19.00,SCT,BKN,BKN,M,1700.00,2100.00,3300.00,M,M,M,M,M,M,M,M,78.80,KMCJ 141935Z AUTO VRB04G19KT 8SM SCT017 BKN021 BKN033 26/22 A3006 RMK A01,M
MCJ,2020-01-14 19:55,78.80,71.60,78.62,M,7.00,0.00,30.05,M,8.00,M,FEW,BKN,OVC,M,1000.00,1600.00,4300.00,M,M,M,M,M,M,M,M,78.80,KMCJ 141955Z AUTO VRB07KT 8SM FEW010 BKN016 OVC043 26/22 A3005 RMK A01,M
MCJ,2020-01-14 20:15,78.80,73.40,83.55,M,4.00,0.00,30.05,M,7.00,M,FEW,BKN,BKN,M,1100.00,1700.00,2400.00,M,M,M,M,M,M,M,M,78.80,KMCJ 142015Z AUTO VRB04KT 7SM FEW011 BKN017 BKN024 26/23 A3005 RMK A01,M
MCJ,2020-01-14 20:35,77.00,73.40,88.67,M,7.00,0.00,30.04,M,3.00,M,FEW,SCT,BKN,M,1000.00,2600.00,3300.00,M,BR,M,M,M,M,M,M,77.00,KMCJ 142035Z AUTO VRB07KT 3SM BR FEW010 SCT026 BKN033 25/23 A3004 RMK A01,M
MCJ,2020-01-14 20:55,77.00,73.40,88.67,210.00,7.00,0.00,30.04,M,5.00,M,FEW,BKN,BKN,M,2000.00,3300.00,4000.00,M,BR,M,M,M,M,M,M,77.00,KMCJ 142055Z AUTO 21007KT 150V260 5SM BR FEW020 BKN033 BKN040 25/23 A3004 RMK A01,M
MCJ,2020-01-14 21:15,75.20,73.40,94.14,M,5.00,0.00,30.04,M,4.00,M,FEW,SCT,BKN,M,1400.00,2000.00,2600.00,M,BR,M,M,M,M,M,M,75.20,KMCJ 142115Z AUTO VRB05KT 4SM BR FEW014 SCT020 BKN026 24/23 A3004 RMK A01,M
MCJ,2020-01-14 21:35,77.00,73.40,88.67,210.00,8.00,0.00,30.03,M,7.00,13.00,FEW,SCT,BKN,M,1400.00,2600.00,4300.00,M,M,M,M,M,M,M,M,77.00,KMCJ 142135Z AUTO 21008G13KT 170V240 7SM FEW014 SCT026 BKN043 25/23 A3003 RMK A01,M
MCJ,2020-01-14 21:55,78.80,71.60,78.62,M,6.00,0.00,30.03,M,8.00,M,FEW,FEW,SCT,M,2500.00,3000.00,3700.00,M,M,M,M,M,M,M,M,78.80,KMCJ 142155Z AUTO VRB06KT 8SM FEW025 FEW030 SCT037 26/22 A3003 RMK A01,M
MCJ,2020-01-14 22:15,78.80,71.60,78.62,M,7.00,0.00,30.03,M,7.00,13.00,FEW,BKN,M,M,1500.00,3600.00,M,M,M,M,M,M,M,M,M,78.80,KMCJ 142215Z AUTO VRB07G13KT 7SM FEW015 BKN036 26/22 A3003 RMK A01,M
MCJ,2020-01-14 22:35,78.80,71.60,78.62,M,6.00,0.00,30.03,M,8.00,11.00,BKN,M,M,M,3600.00,M,M,M,M,M,M,M,M,M,M,78.80,KMCJ 142235Z AUTO VRB06G11KT 8SM BKN036 26/22 A3003 RMK A01,M
MCJ,2020-01-14 22:55,78.80,71.60,78.62,M,3.00,0.00,30.03,M,7.00,M,CLR,M,M,M,M,M,M,M,M,M,M,M,M,M,M,78.80,KMCJ 142255Z AUTO VRB03KT 7SM CLR 26/22 A3003 RMK A01,M
MCJ,2020-01-14 23:15,77.00,71.60,83.44,M,4.00,0.00,30.03,M,8.00,10.00,FEW,M,M,M,1700.00,M,M,M,M,M,M,M,M,M,M,77.00,KMCJ 142315Z AUTO VRB04G10KT 8SM FEW017 25/22 A3003 RMK A01,M
MCJ,2020-01-14 23:35,77.00,71.60,83.44,M,6.00,0.00,30.03,M,8.00,M,BKN,M,M,M,1800.00,M,M,M,M,M,M,M,M,M,M,77.00,KMCJ 142335Z AUTO VRB06KT 8SM BKN018 25/22 A3003 RMK A01,M
MCJ,2020-01-14 23:55,75.20,69.80,83.32,M,4.00,0.00,30.04,M,8.00,M,FEW,M,M,M,1800.00,M,M,M,M,M,M,M,M,M,M,75.20,KMCJ 142355Z AUTO VRB04KT 8SM FEW018 24/21 A3004 RMK A01,M
MCJ,2020-01-15 00:15,75.20,69.80,83.32,M,5.00,0.00,30.04,M,10.00,M,CLR,M,M,M,M,M,M,M,M,M,M,M,M,M,M,75.20,KMCJ 150015Z AUTO VRB05KT 10SM CLR 24/21 A3004 RMK A01,M
MCJ,2020-01-15 00:35,75.20,69.80,83.32,M,4.00,0.00,30.05,M,9.00,M,BKN,M,M,M,2300.00,M,M,M,M,M,M,M,M,M,M,75.20,KMCJ 150035Z AUTO VRB04KT 9SM BKN023 24/21 A3005 RMK A01,M
MCJ,2020-01-15 00:55,75.20,69.80,83.32,M,4.00,0.00,30.06,M,9.00,M,OVC,M,M,M,2400.00,M,M,M,M,M,M,M,M,M,M,75.20,KMCJ 150055Z AUTO VRB04KT 9SM OVC024 24/21 A3006 RMK A01,M
MCJ,2020-01-15 01:15,73.40,69.80,88.51,0.00,0.00,0.00,30.06,M,10.00,M,SCT,BKN,OVC,M,1300.00,1800.00,2400.00,M,M,M,M,M,M,M,M,73.40,KMCJ 150115Z AUTO 00000KT 10SM SCT013 BKN018 OVC024 23/21 A3006 RMK A01,M
MCJ,2020-01-15 01:35,73.40,69.80,88.51,0.00,0.00,0.00,30.07,M,8.00,M,BKN,OVC,M,M,1300.00,1700.00,M,M,M,M,M,M,M,M,M,73.40,KMCJ 150135Z AUTO 00000KT 8SM BKN013 OVC017 23/21 A3007 RMK A01,M
MCJ,2020-01-15 01:55,73.40,71.60,94.10,M,4.00,0.00,30.07,M,7.00,M,BKN,OVC,M,M,1000.00,1600.00,M,M,M,M,M,M,M,M,M,73.40,KMCJ 150155Z AUTO VRB04KT 7SM BKN010 OVC016 23/22 A3007 RMK A01,M
MCJ,2020-01-15 02:15,73.40,71.60,94.10,0.00,0.00,0.00,30.08,M,6.00,M,BKN,OVC,M,M,700.00,1000.00,M,M,BR,M,M,M,M,M,M,73.40,KMCJ 150215Z AUTO 00000KT 6SM BR BKN007 OVC010 23/22 A3008 RMK A01,M
MCJ,2020-01-15 02:35,73.40,71.60,94.10,0.00,0.00,0.00,30.08,M,6.00,M,OVC,M,M,M,600.00,M,M,M,BR,M,M,M,M,M,M,73.40,KMCJ 150235Z AUTO 00000KT 6SM BR OVC006 23/22 A3008 RMK A01,M
MCJ,2020-01-15 02:55,71.60,71.60,100.00,0.00,0.00,0.00,30.08,M,5.00,M,OVC,M,M,M,500.00,M,M,M,BR,M,M,M,M,M,M,71.60,KMCJ 150255Z AUTO 00000KT 5SM BR OVC005 22/22 A3008 RMK A01,M
MCJ,2020-01-15 03:15,71.60,71.60,100.00,M,5.00,0.00,30.08,M,6.00,M,OVC,M,M,M,500.00,M,M,M,BR,M,M,M,M,M,M,71.60,KMCJ 150315Z AUTO VRB05KT 6SM BR OVC005 22/22 A3008 RMK A01,M
MCJ,2020-01-15 03:35,71.60,71.60,100.00,M,4.00,0.00,30.08,M,8.00,M,OVC,M,M,M,500.00,M,M,M,M,M,M,M,M,M,M,71.60,KMCJ 150335Z AUTO VRB04KT 8SM OVC005 22/22 A3008 RMK A01,M
MCJ,2020-01-15 03:55,71.60,71.60,100.00,0.00,0.00,0.00,30.08,M,7.00,M,OVC,M,M,M,400.00,M,M,M,M,M,M,M,M,M,M,71.60,KMCJ 150355Z AUTO 00000KT 7SM OVC004 22/22 A3008 RMK A01,M
MCJ,2020-01-15 04:15,71.60,71.60,100.00,M,4.00,0.00,30.08,M,6.00,M,OVC,M,M,M,400.00,M,M,M,BR,M,M,M,M,M,M,71.60,KMCJ 150415Z AUTO VRB04KT 6SM BR OVC004 22/22 A3008 RMK A01,M
MCJ,2020-01-15 04:35,71.60,71.60,100.00,M,4.00,0.00,30.08,M,5.00,M,OVC,M,M,M,400.00,M,M,M,BR,M,M,M,M,M,M,71.60,KMCJ 150435Z AUTO VRB04KT 5SM BR OVC004 22/22 A3008 RMK A01,M
MCJ,2020-01-15 04:55,71.60,71.60,100.00,0.00,0.00,0.00,30.08,M,5.00,12.00,OVC,M,M,M,400.00,M,M,M,BR,M,M,M,M,M,M,71.60,KMCJ 150455Z AUTO 00000G12KT 5SM BR OVC004 22/22 A3008 RMK A01,M
MCJ,2020-01-15 05:15,69.80,69.80,100.00,M,4.00,0.00,30.08,M,2.00,M,OVC,M,M,M,100.00,M,M,M,BR,M,M,M,M,M,M,69.80,KMCJ 150515Z AUTO VRB04KT 2SM BR OVC001 21/21 A3008 RMK A01,M
MCJ,2020-01-15 05:35,69.80,69.80,100.00,0.00,0.00,0.00,30.08,M,1.75,M,OVC,M,M,M,100.00,M,M,M,BR,M,M,M,M,M,M,69.80,KMCJ 150535Z AUTO 00000KT 1 3/4SM BR OVC001 21/21 A3008 RMK A01,M
MCJ,2020-01-15 05:55,69.80,69.80,100.00,M,3.00,0.00,30.07,M,0.50,10.00,OVC,M,M,M,100.00,M,M,M,BR,M,M,M,M,M,M,69.80,KMCJ 150555Z AUTO VRB03G10KT 1/2SM BR OVC001 21/21 A3007 RMK A01,M
MCJ,2020-01-15 06:15,69.80,69.80,100.00,0.00,0.00,0.00,30.07,M,1.00,M,OVC,M,M,M,100.00,M,M,M,BR,M,M,M,M,M,M,69.80,KMCJ 150615Z AUTO 00000KT 1SM BR OVC001 21/21 A3007 RMK A01,M
MCJ,2020-01-15 06:35,69.80,69.80,100.00,0.00,0.00,0.00,30.07,M,0.50,M,OVC,M,M,M,100.00,M,M,M,FG,M,M,M,M,M,M,69.80,KMCJ 150635Z AUTO 00000KT 1/2SM FG OVC001 21/21 A3007 RMK A01,M
MCJ,2020-01-15 06:55,69.80,69.80,100.00,0.00,0.00,0.00,30.07,M,0.25,M,OVC,M,M,M,100.00,M,M,M,FG,M,M,M,M,M,M,69.80,KMCJ 150655Z AUTO 00000KT 1/4SM FG OVC001 21/21 A3007 RMK A01,M
MCJ,2020-01-15 07:15,69.80,69.80,100.00,0.00,0.00,0.00,30.08,M,0.25,M,OVC,M,M,M,100.00,M,M,M,FG,M,M,M,M,M,M,69.80,KMCJ 150715Z AUTO 00000KT 1/4SM FG OVC001 21/21 A3008 RMK A01,M
MCJ,2020-01-15 07:35,69.80,69.80,100.00,0.00,0.00,0.00,30.08,M,0.25,M,OVC,M,M,M,100.00,M,M,M,FG,M,M,M,M,M,M,69.80,KMCJ 150735Z AUTO 00000KT 1/4SM FG OVC001 21/21 A3008 RMK A01,M
MCJ,2020-01-15 07:55,69.80,69.80,100.00,M,5.00,0.00,30.07,M,0.25,M,OVC,M,M,M,100.00,M,M,M,FG,M,M,M,M,M,M,69.80,KMCJ 150755Z AUTO VRB05KT 1/4SM FG OVC001 21/21 A3007 RMK A01,M
MCJ,2020-01-15 08:15,69.80,69.80,100.00,M,5.00,0.00,30.08,M,0.25,11.00,OVC,M,M,M,100.00,M,M,M,FG,M,M,M,M,M,M,69.80,KMCJ 150815Z AUTO VRB05G11KT 1/4SM FG OVC001 21/21 A3008 RMK A01,M
MCJ,2020-01-15 08:35,69.80,69.80,100.00,0.00,0.00,0.00,30.07,M,0.50,M,OVC,M,M,M,100.00,M,M,M,FG,M,M,M,M,M,M,69.80,KMCJ 150835Z AUTO 00000KT 1/2SM FG OVC001 21/21 A3007 RMK A01,M
MCJ,2020-01-15 08:55,69.80,69.80,100.00,M,3.00,0.00,30.07,M,0.75,M,OVC,M,M,M,100.00,M,M,M,BR,M,M,M,M,M,M,69.80,KMCJ 150855Z AUTO VRB03KT 3/4SM BR OVC001 21/21 A3007 RMK A01,M
MCJ,2020-01-15 09:15,69.80,69.80,100.00,M,3.00,0.00,30.07,M,0.50,M,OVC,M,M,M,100.00,M,M,M,BR,M,M,M,M,M,M,69.80,KMCJ 150915Z AUTO VRB03KT 1/2SM BR OVC001 21/21 A3007 RMK A01,M
MCJ,2020-01-15 09:35,69.80,69.80,100.00,0.00,0.00,0.00,30.07,M,0.50,M,OVC,M,M,M,100.00,M,M,M,BR,M,M,M,M,M,M,69.80,KMCJ 150935Z AUTO 00000KT 1/2SM BR OVC001 21/21 A3007 RMK A01,M
MCJ,2020-01-15 09:55,69.80,69.80,100.00,M,3.00,0.00,30.06,M,0.50,M,OVC,M,M,M,100.00,M,M,M,BR,M,M,M,M,M,M,69.80,KMCJ 150955Z AUTO VRB03KT 1/2SM BR OVC001 21/21 A3006 RMK A01,M
MCJ,2020-01-15 10:15,69.80,69.80,100.00,M,3.00,0.00,30.06,M,0.75,M,OVC,M,M,M,100.00,M,M,M,BR,M,M,M,M,M,M,69.80,KMCJ 151015Z AUTO VRB03KT 3/4SM BR OVC001 21/21 A3006 RMK A01,M
MCJ,2020-01-15 10:35,69.80,69.80,100.00,M,4.00,0.00,30.06,M,0.50,M,OVC,M,M,M,100.00,M,M,M,BR,M,M,M,M,M,M,69.80,KMCJ 151035Z AUTO VRB04KT 1/2SM BR OVC001 21/21 A3006 RMK A01,M
MCJ,2020-01-15 10:55,69.80,69.80,100.00,0.00,0.00,0.00,30.06,M,1.00,M,OVC,M,M,M,100.00,M,M,M,BR,M,M,M,M,M,M,69.80,KMCJ 151055Z AUTO 00000KT 1SM BR OVC001 21/21 A3006 RMK A01,M
MCJ,2020-01-15 11:15,69.80,69.80,100.00,0.00,0.00,0.00,30.06,M,1.25,11.00,OVC,M,M,M,100.00,M,M,M,BR,M,M,M,M,M,M,69.80,KMCJ 151115Z AUTO 00000G11KT 1 1/4SM BR OVC001 21/21 A3006 RMK A01,M
MCJ,2020-01-15 11:35,69.80,69.80,100.00,0.00,0.00,0.00,30.07,M,1.00,M,OVC,M,M,M,100.00,M,M,M,BR,M,M,M,M,M,M,69.80,KMCJ 151135Z AUTO 00000KT 1SM BR OVC001 21/21 A3007 RMK A01,M
MCJ,2020-01-15 12:15,69.80,69.80,100.00,0.00,0.00,0.00,30.06,M,1.25,M,OVC,M,M,M,100.00,M,M,M,BR,M,M,M,M,M,M,69.80,KMCJ 151215Z AUTO 00000KT 1 1/4SM BR OVC001 21/21 A3006 RMK A01,M
MCJ,2020-01-15 12:35,69.80,69.80,100.00,0.00,0.00,0.00,30.06,M,2.00,M,OVC,M,M,M,100.00,M,M,M,BR,M,M,M,M,M,M,69.80,KMCJ 151235Z AUTO 00000KT 2SM BR OVC001 21/21 A3006 RMK A01,M
MCJ,2020-01-15 12:55,69.80,69.80,100.00,M,5.00,0.00,30.06,M,4.00,M,OVC,M,M,M,200.00,M,M,M,BR,M,M,M,M,M,M,69.80,KMCJ 151255Z AUTO VRB05KT 4SM BR OVC002 21/21 A3006 RMK A01,M
MCJ,2020-01-15 13:15,69.80,69.80,100.00,0.00,0.00,0.00,30.07,M,3.00,M,OVC,M,M,M,200.00,M,M,M,BR,M,M,M,M,M,M,69.80,KMCJ 151315Z AUTO 00000KT 3SM BR OVC002 21/21 A3007 RMK A01,M
MCJ,2020-01-15 13:35,69.80,69.80,100.00,M,4.00,0.00,30.07,M,2.50,M,OVC,M,M,M,300.00,M,M,M,BR,M,M,M,M,M,M,69.80,KMCJ 151335Z AUTO VRB04KT 2 1/2SM BR OVC003 21/21 A3007 RMK A01,M
MCJ,2020-01-15 13:55,69.80,69.80,100.00,0.00,0.00,0.00,30.08,M,3.00,M,OVC,M,M,M,300.00,M,M,M,BR,M,M,M,M,M,M,69.80,KMCJ 151355Z AUTO 00000KT 3SM BR OVC003 21/21 A3008 RMK A01,M
MCJ,2020-01-15 14:15,69.80,71.60,M,0.00,0.00,0.00,30.08,M,3.00,M,OVC,M,M,M,300.00,M,M,M,BR,M,M,M,M,M,M,M,KMCJ 151415Z AUTO 00000KT 3SM BR OVC003 21/22 A3008 RMK A01,M
MCJ,2020-01-15 14:35,71.60,71.60,100.00,M,4.00,0.00,30.08,M,4.00,M,OVC,M,M,M,400.00,M,M,M,BR,M,M,M,M,M,M,71.60,KMCJ 151435Z AUTO VRB04KT 4SM BR OVC004 22/22 A3008 RMK A01,M
MCJ,2020-01-15 14:55,71.60,71.60,100.00,0.00,0.00,0.00,30.09,M,4.00,M,OVC,M,M,M,400.00,M,M,M,BR,M,M,M,M,M,M,71.60,KMCJ 151455Z AUTO 00000KT 4SM BR OVC004 22/22 A3009 RMK A01,M
MCJ,2020-01-15 15:15,71.60,71.60,100.00,0.00,0.00,0.00,30.10,M,4.00,M,OVC,M,M,M,500.00,M,M,M,BR,M,M,M,M,M,M,71.60,KMCJ 151515Z AUTO 00000KT 4SM BR OVC005 22/22 A3010 RMK A01,M
MCJ,2020-01-15 15:35,71.60,71.60,100.00,0.00,0.00,0.00,30.11,M,5.00,M,OVC,M,M,M,500.00,M,M,M,BR,M,M,M,M,M,M,71.60,KMCJ 151535Z AUTO 00000KT 5SM BR OVC005 22/22 A3011 RMK A01,M
MCJ,2020-01-15 15:55,71.60,71.60,100.00,M,3.00,0.00,30.11,M,5.00,M,OVC,M,M,M,500.00,M,M,M,BR,M,M,M,M,M,M,71.60,KMCJ 151555Z AUTO VRB03KT 5SM BR OVC005 22/22 A3011 RMK A01,M
MCJ,2020-01-15 16:15,71.60,73.40,M,0.00,0.00,0.00,30.12,M,5.00,M,BKN,BKN,OVC,M,600.00,900.00,1300.00,M,BR,M,M,M,M,M,M,M,KMCJ 151615Z AUTO 00000KT 5SM BR BKN006 BKN009 OVC013 22/23 A3012 RMK A01,M
MCJ,2020-01-15 16:35,73.40,73.40,100.00,M,3.00,0.00,30.12,M,6.00,M,SCT,BKN,OVC,M,600.00,900.00,1800.00,M,BR,M,M,M,M,M,M,73.40,KMCJ 151635Z AUTO VRB03KT 6SM BR SCT006 BKN009 OVC018 23/23 A3012 RMK A01,M
MCJ,2020-01-15 16:55,73.40,71.60,94.10,M,5.00,0.00,30.12,M,6.00,11.00,BKN,BKN,OVC,M,900.00,1300.00,1800.00,M,BR,M,M,M,M,M,M,73.40,KMCJ 151655Z AUTO VRB05G11KT 6SM BR BKN009 BKN013 OVC018 23/22 A3012 RMK A01,M
MCJ,2020-01-15 17:15,73.40,71.60,94.10,M,4.00,0.00,30.12,M,6.00,M,SCT,BKN,OVC,M,1000.00,1500.00,1900.00,M,BR,M,M,M,M,M,M,73.40,KMCJ 151715Z AUTO VRB04KT 6SM BR SCT010 BKN015 OVC019 23/22 A3012 RMK A01,M
MCJ,2020-01-15 17:35,75.20,71.60,88.59,0.00,0.00,0.00,30.12,M,7.00,M,SCT,BKN,OVC,M,1000.00,1400.00,2200.00,M,M,M,M,M,M,M,M,75.20,KMCJ 151735Z AUTO 00000KT 7SM SCT010 BKN014 OVC022 24/22 A3012 RMK A01,M
MCJ,2020-01-15 17:55,75.20,69.80,83.32,0.00,0.00,0.00,30.12,M,8.00,M,BKN,OVC,M,M,1200.00,1700.00,M,M,M,M,M,M,M,M,M,75.20,KMCJ 151755Z AUTO 00000KT 8SM BKN012 OVC017 24/21 A3012 RMK A01,M
MCJ,2020-01-15 18:15,75.20,69.80,83.32,M,4.00,0.00,30.11,M,7.00,M,BKN,BKN,OVC,M,1100.00,1700.00,3100.00,M,M,M,M,M,M,M,M,75.20,KMCJ 151815Z AUTO VRB04KT 7SM BKN011 BKN017 OVC031 24/21 A3011 RMK A01,M
MCJ,2020-01-15 18:35,77.00,69.80,78.48,0.00,0.00,0.00,30.11,M,8.00,M,SCT,BKN,OVC,M,1300.00,2100.00,3300.00,M,M,M,M,M,M,M,M,77.00,KMCJ 151835Z AUTO 00000KT 8SM SCT013 BKN021 OVC033 25/21 A3011 RMK A01,M
MCJ,2020-01-15 18:55,77.00,69.80,78.48,M,4.00,0.00,30.10,M,7.00,M,SCT,BKN,OVC,M,1400.00,2100.00,3200.00,M,M,M,M,M,M,M,M,77.00,KMCJ 151855Z AUTO VRB04KT 7SM SCT014 BKN021 OVC032 25/21 A3010 RMK A01,M
MCJ,2020-01-15 19:15,77.00,69.80,78.48,0.00,0.00,0.00,30.09,M,9.00,M,BKN,BKN,OVC,M,1500.00,2000.00,4000.00,M,M,M,M,M,M,M,M,77.00,KMCJ 151915Z AUTO 00000KT 9SM BKN015 BKN020 OVC040 25/21 A3009 RMK A01,M
MCJ,2020-01-15 19:35,77.00,69.80,78.48,0.00,0.00,0.00,30.08,M,9.00,M,SCT,BKN,OVC,M,1700.00,3300.00,4100.00,M,M,M,M,M,M,M,M,77.00,KMCJ 151935Z AUTO 00000KT 9SM SCT017 BKN033 OVC041 25/21 A3008 RMK A01,M
MCJ,2020-01-15 19:55,77.00,69.80,78.48,0.00,0.00,0.00,30.07,M,9.00,M,FEW,SCT,BKN,M,1800.00,2400.00,4000.00,M,M,M,M,M,M,M,M,77.00,KMCJ 151955Z AUTO 00000KT 9SM FEW018 SCT024 BKN040 25/21 A3007 RMK A01,M
MCJ,2020-01-15 20:15,78.80,69.80,73.95,0.00,0.00,0.00,30.07,M,8.00,M,FEW,FEW,FEW,M,1800.00,2400.00,4000.00,M,M,M,M,M,M,M,M,78.80,KMCJ 152015Z AUTO 00000KT 8SM FEW018 FEW024 FEW040 26/21 A3007 RMK A01,M
MCJ,2020-01-15 20:35,78.80,68.00,69.52,0.00,0.00,0.00,30.06,M,9.00,M,SCT,M,M,M,1900.00,M,M,M,M,M,M,M,M,M,M,78.80,KMCJ 152035Z AUTO 00000KT 9SM SCT019 26/20 A3006 RMK A01,M
MCJ,2020-01-15 20:55,78.80,68.00,69.52,180.00,7.00,0.00,30.05,M,9.00,M,FEW,M,M,M,2000.00,M,M,M,M,M,M,M,M,M,M,78.80,KMCJ 152055Z AUTO 18007KT 9SM FEW020 26/20 A3005 RMK A01,M
MCJ,2020-01-15 21:15,78.80,68.00,69.52,M,6.00,0.00,30.05,M,9.00,M,FEW,M,M,M,2500.00,M,M,M,M,M,M,M,M,M,M,78.80,KMCJ 152115Z AUTO VRB06KT 9SM FEW025 26/20 A3005 RMK A01,M
MCJ,2020-01-15 21:35,80.60,68.00,65.54,170.00,9.00,0.00,30.06,M,9.00,14.00,SCT,SCT,M,M,2800.00,3200.00,M,M,M,M,M,M,M,M,M,83.29,KMCJ 152135Z AUTO 17009G14KT 140V220 9SM SCT028 SCT032 27/20 A3006 RMK A01,M
MCJ,2020-01-15 21:55,80.60,68.00,65.54,M,4.00,0.00,30.06,M,9.00,10.00,FEW,SCT,M,M,2600.00,3200.00,M,M,M,M,M,M,M,M,M,83.29,KMCJ 152155Z AUTO VRB04G10KT 9SM FEW026 SCT032 27/20 A3006 RMK A01,M
MCJ,2020-01-15 22:15,78.80,68.00,69.52,M,4.00,0.00,30.06,M,9.00,M,SCT,BKN,M,M,2600.00,3200.00,M,M,M,M,M,M,M,M,M,78.80,KMCJ 152215Z AUTO VRB04KT 9SM SCT026 BKN032 26/20 A3006 RMK A01,M
MCJ,2020-01-15 22:35,78.80,68.00,69.52,M,4.00,0.00,30.07,M,9.00,11.00,SCT,SCT,M,M,2600.00,3200.00,M,M,M,M,M,M,M,M,M,78.80,KMCJ 152235Z AUTO VRB04G11KT 9SM SCT026 SCT032 26/20 A3007 RMK A01,M
MCJ,2020-01-15 22:55,77.00,68.00,73.78,0.00,0.00,0.00,30.08,M,9.00,10.00,CLR,M,M,M,M,M,M,M,M,M,M,M,M,M,M,77.00,KMCJ 152255Z AUTO 00000G10KT 9SM CLR 25/20 A3008 RMK A01,M
MCJ,2020-01-15 23:15,77.00,68.00,73.78,M,3.00,0.00,30.08,M,9.00,11.00,CLR,M,M,M,M,M,M,M,M,M,M,M,M,M,M,77.00,KMCJ 152315Z AUTO VRB03G11KT 9SM CLR 25/20 A3008 RMK A01,M
MCJ,2020-01-15 23:35,75.20,68.00,78.34,M,3.00,0.00,30.09,M,9.00,M,CLR,M,M,M,M,M,M,M,M,M,M,M,M,M,M,75.20,KMCJ 152335Z AUTO VRB03KT 9SM CLR 24/20 A3009 RMK A01,M
MCJ,2020-01-15 23:55,75.20,68.00,78.34,M,3.00,0.00,30.10,M,9.00,10.00,CLR,M,M,M,M,M,M,M,M,M,M,M,M,M,M,75.20,KMCJ 152355Z AUTO VRB03G10KT 9SM CLR 24/20 A3010 RMK A01,M
MCJ,2020-01-16 00:15,75.20,68.00,78.34,0.00,0.00,0.00,30.10,M,10.00,M,CLR,M,M,M,M,M,M,M,M,M,M,M,M,M,M,75.20,KMCJ 160015Z AUTO 00000KT 10SM CLR 24/20 A3010 RMK A01,M
MCJ,2020-01-16 00:35,73.40,68.00,83.21,M,4.00,0.00,30.11,M,9.00,M,CLR,M,M,M,M,M,M,M,M,M,M,M,M,M,M,73.40,KMCJ 160035Z AUTO VRB04KT 9SM CLR 23/20 A3011 RMK A01,M
MCJ,2020-01-16 00:55,73.40,68.00,83.21,0.00,0.00,0.00,30.11,M,10.00,M,CLR,M,M,M,M,M,M,M,M,M,M,M,M,M,M,73.40,KMCJ 160055Z AUTO 00000KT 10SM CLR 23/20 A3011 RMK A01,M
MCJ,2020-01-16 01:15,71.60,68.00,88.43,0.00,0.00,0.00,30.11,M,10.00,M,CLR,M,M,M,M,M,M,M,M,M,M,M,M,M,M,71.60,KMCJ 160115Z AUTO 00000KT 10SM CLR 22/20 A3011 RMK A01,M
MCJ,2020-01-16 01:35,71.60,68.00,88.43,0.00,0.00,0.00,30.12,M,8.00,M,CLR,M,M,M,M,M,M,M,M,M,M,M,M,M,M,71.60,KMCJ 160135Z AUTO 00000KT 8SM CLR 22/20 A3012 RMK A01,M
MCJ,2020-01-16 01:55,71.60,69.80,94.06,0.00,0.00,0.00,30.13,M,7.00,M,FEW,M,M,M,500.00,M,M,M,M,M,M,M,M,M,M,71.60,KMCJ 160155Z AUTO 00000KT 7SM FEW005 22/21 A3013 RMK A01,M
MCJ,2020-01-16 02:15,69.80,69.80,100.00,0.00,0.00,0.00,30.14,M,6.00,M,BKN,M,M,M,400.00,M,M,M,BR,M,M,M,M,M,M,69.80,KMCJ 160215Z AUTO 00000KT 6SM BR BKN004 21/21 A3014 RMK A01,M
MCJ,2020-01-16 02:35,69.80,69.80,100.00,0.00,0.00,0.00,30.15,M,4.00,M,OVC,M,M,M,200.00,M,M,M,BR,M,M,M,M,M,M,69.80,KMCJ 160235Z AUTO 00000KT 4SM BR OVC002 21/21 A3015 RMK A01,M
MCJ,2020-01-16 02:55,69.80,69.80,100.00,0.00,0.00,0.00,30.16,M,4.00,M,OVC,M,M,M,100.00,M,M,M,BR,M,M,M,M,M,M,69.80,KMCJ 160255Z AUTO 00000KT 4SM BR OVC001 21/21 A3016 RMK A01,M
MCJ,2020-01-16 03:15,69.80,69.80,100.00,0.00,0.00,0.00,30.16,M,1.75,M,OVC,M,M,M,100.00,M,M,M,BR,M,M,M,M,M,M,69.80,KMCJ 160315Z AUTO 00000KT 1 3/4SM BR OVC001 21/21 A3016 RMK A01,M
MCJ,2020-01-16 03:35,69.80,69.80,100.00,0.00,0.00,0.00,30.16,M,1.75,M,OVC,M,M,M,100.00,M,M,M,BR,M,M,M,M,M,M,69.80,KMCJ 160335Z AUTO 00000KT 1 3/4SM BR OVC001 21/21 A3016 RMK A01,M
MCJ,2020-01-16 03:55,69.80,69.80,100.00,0.00,0.00,0.00,30.16,M,3.00,M,OVC,M,M,M,100.00,M,M,M,BR,M,M,M,M,M,M,69.80,KMCJ 160355Z AUTO 00000KT 3SM BR OVC001 21/21 A3016 RMK A01,M
MCJ,2020-01-16 04:15,69.80,69.80,100.00,0.00,0.00,0.00,30.17,M,2.50,M,OVC,M,M,M,100.00,M,M,M,BR,M,M,M,M,M,M,69.80,KMCJ 160415Z AUTO 00000KT 2 1/2SM BR OVC001 21/21 A3017 RMK A01,M
MCJ,2020-01-16 04:35,69.80,69.80,100.00,0.00,0.00,0.00,30.17,M,3.00,M,OVC,M,M,M,100.00,M,M,M,BR,M,M,M,M,M,M,69.80,KMCJ 160435Z AUTO 00000KT 3SM BR OVC001 21/21 A3017 RMK A01,M
MCJ,2020-01-16 04:55,69.80,69.80,100.00,0.00,0.00,0.00,30.17,M,3.00,M,OVC,M,M,M,100.00,M,M,M,BR,M,M,M,M,M,M,69.80,KMCJ 160455Z AUTO 00000KT 3SM BR OVC001 21/21 A3017 RMK A01,M
MCJ,2020-01-16 05:15,69.80,69.80,100.00,M,3.00,0.00,30.16,M,2.50,M,OVC,M,M,M,100.00,M,M,M,BR,M,M,M,M,M,M,69.80,KMCJ 160515Z AUTO VRB03KT 2 1/2SM BR OVC001 21/21 A3016 RMK A01,M
MCJ,2020-01-16 05:35,69.80,69.80,100.00,0.00,0.00,0.00,30.16,M,4.00,M,OVC,M,M,M,100.00,M,M,M,BR,M,M,M,M,M,M,69.80,KMCJ 160535Z AUTO 00000KT 4SM BR OVC001 21/21 A3016 RMK A01,M
MCJ,2020-01-16 05:55,69.80,69.80,100.00,0.00,0.00,0.00,30.18,M,3.00,M,OVC,M,M,M,100.00,M,M,M,BR,M,M,M,M,M,M,69.80,KMCJ 160555Z AUTO 00000KT 3SM BR OVC001 21/21 A3018 RMK A01,M
MCJ,2020-01-16 06:15,69.80,69.80,100.00,0.00,0.00,0.00,30.17,M,2.50,M,OVC,M,M,M,100.00,M,M,M,BR,M,M,M,M,M,M,69.80,KMCJ 160615Z AUTO 00000KT 2 1/2SM BR OVC001 21/21 A3017 RMK A01,M
MCJ,2020-01-16 06:35,69.80,69.80,100.00,0.00,0.00,0.00,30.17,M,3.00,M,OVC,M,M,M,100.00,M,M,M,BR,M,M,M,M,M,M,69.80,KMCJ 160635Z AUTO 00000KT 3SM BR OVC001 21/21 A3017 RMK A01,M
MCJ,2020-01-16 06:55,69.80,69.80,100.00,0.00,0.00,0.00,30.17,M,2.50,M,OVC,M,M,M,100.00,M,M,M,BR,M,M,M,M,M,M,69.80,KMCJ 160655Z AUTO 00000KT 2 1/2SM BR OVC001 21/21 A3017 RMK A01,M
MCJ,2020-01-16 07:15,69.80,69.80,100.00,0.00,0.00,0.00,30.17,M,4.00,M,OVC,M,M,M,100.00,M,M,M,BR,M,M,M,M,M,M,69.80,KMCJ 160715Z AUTO 00000KT 4SM BR OVC001 21/21 A3017 RMK A01,M
MCJ,2020-01-16 07:35,69.80,69.80,100.00,0.00,0.00,0.00,30.17,M,4.00,M,OVC,M,M,M,100.00,M,M,M,BR,M,M,M,M,M,M,69.80,KMCJ 160735Z AUTO 00000KT 4SM BR OVC001 21/21 A3017 RMK A01,M
MCJ,2020-01-16 07:55,69.80,69.80,100.00,0.00,0.00,0.00,30.17,M,1.50,M,OVC,M,M,M,100.00,M,M,M,BR,M,M,M,M,M,M,69.80,KMCJ 160755Z AUTO 00000KT 1 1/2SM BR OVC001 21/21 A3017 RMK A01,M
MCJ,2020-01-16 08:15,69.80,69.80,100.00,0.00,0.00,0.00,30.18,M,0.75,M,OVC,M,M,M,100.00,M,M,M,BR,M,M,M,M,M,M,69.80,KMCJ 160815Z AUTO 00000KT 3/4SM BR OVC001 21/21 A3018 RMK A01,M
MCJ,2020-01-16 08:35,69.80,69.80,100.00,0.00,0.00,0.00,30.18,M,0.75,M,OVC,M,M,M,100.00,M,M,M,BR,M,M,M,M,M,M,69.80,KMCJ 160835Z AUTO 00000KT 3/4SM BR OVC001 21/21 A3018 RMK A01,M
MCJ,2020-01-16 08:55,69.80,69.80,100.00,0.00,0.00,0.00,30.18,M,0.25,M,OVC,M,M,M,100.00,M,M,M,FG,M,M,M,M,M,M,69.80,KMCJ 160855Z AUTO 00000KT M1/4SM FG OVC001 21/21 A3018 RMK A01,M
MCJ,2020-01-16 09:15,69.80,69.80,100.00,50.00,3.00,0.00,30.18,M,0.25,M,OVC,M,M,M,100.00,M,M,M,FG,M,M,M,M,M,M,69.80,KMCJ 160915Z AUTO 05003KT 1/4SM FG OVC001 21/21 A3018 RMK A01,M
MCJ,2020-01-16 09:35,69.80,69.80,100.00,0.00,0.00,0.00,30.18,M,0.50,M,OVC,M,M,M,100.00,M,M,M,BR,M,M,M,M,M,M,69.80,KMCJ 160935Z AUTO 00000KT 1/2SM BR OVC001 21/21 A3018 RMK A01,M
MCJ,2020-01-16 09:55,69.80,69.80,100.00,0.00,0.00,0.00,30.19,M,0.50,M,OVC,M,M,M,100.00,M,M,M,FG,M,M,M,M,M,M,69.80,KMCJ 160955Z AUTO 00000KT 1/2SM FG OVC001 21/21 A3019 RMK A01,M
MCJ,2020-01-16 10:15,69.80,69.80,100.00,0.00,0.00,0.00,30.20,M,0.25,M,OVC,M,M,M,100.00,M,M,M,FG,M,M,M,M,M,M,69.80,KMCJ 161015Z AUTO 00000KT M1/4SM FG OVC001 21/21 A3020 RMK A01,M
MCJ,2020-01-16 10:35,69.80,69.80,100.00,0.00,0.00,0.00,30.20,M,0.25,M,OVC,M,M,M,100.00,M,M,M,FG,M,M,M,M,M,M,69.80,KMCJ 161035Z AUTO 00000KT 1/4SM FG OVC001 21/21 A3020 RMK A01,M
MCJ,2020-01-16 10:55,69.80,69.80,100.00,0.00,0.00,0.00,30.21,M,0.25,M,OVC,M,M,M,100.00,M,M,M,FG,M,M,M,M,M,M,69.80,KMCJ 161055Z AUTO 00000KT 1/4SM FG OVC001 21/21 A3021 RMK A01,M
MCJ,2020-01-16 11:15,69.80,69.80,100.00,0.00,0.00,0.00,30.22,M,0.25,M,OVC,M,M,M,100.00,M,M,M,FG,M,M,M,M,M,M,69.80,KMCJ 161115Z AUTO 00000KT 1/4SM FG OVC001 21/21 A3022 RMK A01,M
MCJ,2020-01-16 11:35,69.80,69.80,100.00,0.00,0.00,0.00,30.22,M,0.25,M,OVC,M,M,M,100.00,M,M,M,FG,M,M,M,M,M,M,69.80,KMCJ 161135Z AUTO 00000KT 1/4SM FG OVC001 21/21 A3022 RMK A01,M
MCJ,2020-01-16 11:55,69.80,69.80,100.00,40.00,5.00,0.00,30.23,M,0.25,M,OVC,M,M,M,100.00,M,M,M,FG,M,M,M,M,M,M,69.80,KMCJ 161155Z AUTO 04005KT M1/4SM FG OVC001 21/21 A3023 RMK A01,M
MCJ,2020-01-16 12:15,68.00,68.00,100.00,40.00,4.00,0.00,30.23,M,0.25,M,OVC,M,M,M,100.00,M,M,M,FG,M,M,M,M,M,M,68.00,KMCJ 161215Z AUTO 04004KT M1/4SM FG OVC001 20/20 A3023 RMK A01,M
MCJ,2020-01-16 12:35,68.00,68.00,100.00,30.00,4.00,0.00,30.24,M,0.25,M,OVC,M,M,M,100.00,M,M,M,FG,M,M,M,M,M,M,68.00,KMCJ 161235Z AUTO 03004KT M1/4SM FG OVC001 20/20 A3024 RMK A01,M
MCJ,2020-01-16 12:55,68.00,68.00,100.00,40.00,5.00,0.00,30.24,M,0.25,M,OVC,M,M,M,100.00,M,M,M,FG,M,M,M,M,M,M,68.00,KMCJ 161255Z AUTO 04005KT M1/4SM FG OVC001 20/20 A3024 RMK A01,M
MCJ,2020-01-16 13:15,68.00,68.00,100.00,60.00,5.00,0.00,30.24,M,0.25,M,OVC,M,M,M,100.00,M,M,M,FG,M,M,M,M,M,M,68.00,KMCJ 161315Z AUTO 06005KT M1/4SM FG OVC001 20/20 A3024 RMK A01,M
MCJ,2020-01-16 13:35,68.00,68.00,100.00,50.00,4.00,0.00,30.24,M,0.25,M,OVC,M,M,M,100.00,M,M,M,FG,M,M,M,M,M,M,68.00,KMCJ 161335Z AUTO 05004KT M1/4SM FG OVC001 20/20 A3024 RMK A01,M
MCJ,2020-01-16 13:55,68.00,68.00,100.00,M,4.00,0.00,30.24,M,0.25,M,OVC,M,M,M,100.00,M,M,M,FG,M,M,M,M,M,M,68.00,KMCJ 161355Z AUTO VRB04KT M1/4SM FG OVC001 20/20 A3024 RMK A01,M
MCJ,2020-01-16 14:15,68.00,68.00,100.00,M,4.00,0.00,30.25,M,0.25,M,OVC,M,M,M,100.00,M,M,M,FG,M,M,M,M,M,M,68.00,KMCJ 161415Z AUTO VRB04KT M1/4SM FG OVC001 20/20 A3025 RMK A01,M
MCJ,2020-01-16 14:35,68.00,68.00,100.00,0.00,0.00,0.00,30.25,M,0.25,M,OVC,M,M,M,100.00,M,M,M,FG,M,M,M,M,M,M,68.00,KMCJ 161435Z AUTO 00000KT M1/4SM FG OVC001 20/20 A3025 RMK A01,M
MCJ,2020-01-16 14:55,68.00,68.00,100.00,0.00,0.00,0.00,30.26,M,0.25,M,OVC,M,M,M,100.00,M,M,M,FG,M,M,M,M,M,M,68.00,KMCJ 161455Z AUTO 00000KT 1/4SM FG OVC001 20/20 A3026 RMK A01,M
MCJ,2020-01-16 15:15,68.00,68.00,100.00,0.00,0.00,0.00,30.27,M,0.25,M,OVC,M,M,M,100.00,M,M,M,FG,M,M,M,M,M,M,68.00,KMCJ 161515Z AUTO 00000KT 1/4SM FG OVC001 20/20 A3027 RMK A01,M
MCJ,2020-01-16 15:35,68.00,68.00,100.00,0.00,0.00,0.00,30.27,M,1.00,M,OVC,M,M,M,100.00,M,M,M,BR,M,M,M,M,M,M,68.00,KMCJ 161535Z AUTO 00000KT 1SM BR OVC001 20/20 A3027 RMK A01,M
MCJ,2020-01-16 15:55,68.00,68.00,100.00,0.00,0.00,0.00,30.28,M,1.25,M,OVC,M,M,M,100.00,M,M,M,BR,M,M,M,M,M,M,68.00,KMCJ 161555Z AUTO 00000KT 1 1/4SM BR OVC001 20/20 A3028 RMK A01,M
MCJ,2020-01-16 16:15,69.80,69.80,100.00,M,4.00,0.00,30.28,M,1.25,M,OVC,M,M,M,100.00,M,M,M,BR,M,M,M,M,M,M,69.80,KMCJ 161615Z AUTO VRB04KT 1 1/4SM BR OVC001 21/21 A3028 RMK A01,M
MCJ,2020-01-16 16:35,69.80,69.80,100.00,0.00,0.00,0.00,30.28,M,1.75,M,OVC,M,M,M,100.00,M,M,M,BR,M,M,M,M,M,M,69.80,KMCJ 161635Z AUTO 00000KT 1 3/4SM BR OVC001 21/21 A3028 RMK A01,M
MCJ,2020-01-16 16:55,69.80,69.80,100.00,0.00,0.00,0.00,30.28,M,3.00,M,OVC,M,M,M,200.00,M,M,M,BR,M,M,M,M,M,M,69.80,KMCJ 161655Z AUTO 00000KT 3SM BR OVC002 21/21 A3028 RMK A01,M
MCJ,2020-01-16 17:15,69.80,69.80,100.00,0.00,0.00,0.00,30.27,M,3.00,M,OVC,M,M,M,300.00,M,M,M,BR,M,M,M,M,M,M,69.80,KMCJ 161715Z AUTO 00000KT 3SM BR OVC003 21/21 A3027 RMK A01,M
MCJ,2020-01-16 17:35,71.60,69.80,94.06,0.00,0.00,0.00,30.27,M,4.00,M,BKN,OVC,M,M,400.00,700.00,M,M,BR,M,M,M,M,M,M,71.60,KMCJ 161735Z AUTO 00000KT 4SM BR BKN004 OVC007 22/21 A3027 RMK A01,M
MCJ,2020-01-16 17:55,71.60,69.80,94.06,0.00,0.00,0.00,30.26,M,5.00,M,OVC,M,M,M,500.00,M,M,M,BR,M,M,M,M,M,M,71.60,KMCJ 161755Z AUTO 00000KT 5SM BR OVC005 22/21 A3026 RMK A01,M
MCJ,2020-01-16 18:15,71.60,68.00,88.43,0.00,0.00,0.00,30.25,M,6.00,M,OVC,M,M,M,500.00,M,M,M,BR,M,M,M,M,M,M,71.60,KMCJ 161815Z AUTO 00000KT 6SM BR OVC005 22/20 A3025 RMK A01,M
MCJ,2020-01-16 18:35,71.60,68.00,88.43,M,4.00,0.00,30.25,M,5.00,M,OVC,M,M,M,400.00,M,M,M,BR,M,M,M,M,M,M,71.60,KMCJ 161835Z AUTO VRB04KT 5SM BR OVC004 22/20 A3025 RMK A01,M
MCJ,2020-01-16 18:55,71.60,68.00,88.43,70.00,7.00,0.00,30.24,M,8.00,M,OVC,M,M,M,400.00,M,M,M,M,M,M,M,M,M,M,71.60,KMCJ 161855Z AUTO 07007KT 020V090 8SM OVC004 22/20 A3024 RMK A01,M
MCJ,2020-01-16 19:15,71.60,68.00,88.43,0.00,0.00,0.00,30.23,M,9.00,M,OVC,M,M,M,500.00,M,M,M,M,M,M,M,M,M,M,71.60,KMCJ 161915Z AUTO 00000KT 9SM OVC005 22/20 A3023 RMK A01,M
MCJ,2020-01-16 19:35,71.60,68.00,88.43,0.00,0.00,0.00,30.23,M,9.00,M,OVC,M,M,M,500.00,M,M,M,M,M,M,M,M,M,M,71.60,KMCJ 161935Z AUTO 00000KT 9SM OVC005 22/20 A3023 RMK A01,M
MCJ,2020-01-16 19:55,71.60,68.00,88.43,0.00,0.00,0.00,30.23,M,7.00,M,OVC,M,M,M,600.00,M,M,M,M,M,M,M,M,M,M,71.60,KMCJ 161955Z AUTO 00000KT 7SM OVC006 22/20 A3023 RMK A01,M
MCJ,2020-01-16 20:15,71.60,68.00,88.43,0.00,0.00,0.00,30.23,M,9.00,M,OVC,M,M,M,600.00,M,M,M,M,M,M,M,M,M,M,71.60,KMCJ 162015Z AUTO 00000KT 9SM OVC006 22/20 A3023 RMK A01,M
MCJ,2020-01-16 20:35,71.60,68.00,88.43,0.00,0.00,0.00,30.22,M,9.00,M,OVC,M,M,M,500.00,M,M,M,M,M,M,M,M,M,M,71.60,KMCJ 162035Z AUTO 00000KT 9SM OVC005 22/20 A3022 RMK A01,M
MCJ,2020-01-16 20:55,71.60,68.00,88.43,0.00,0.00,0.00,30.22,M,9.00,M,OVC,M,M,M,500.00,M,M,M,M,M,M,M,M,M,M,71.60,KMCJ 162055Z AUTO 00000KT 9SM OVC005 22/20 A3022 RMK A01,M
MCJ,2020-01-16 21:15,71.60,68.00,88.43,0.00,0.00,0.00,30.22,M,10.00,M,M,M,M,M,M,M,M,M,M,M,M,M,M,M,M,71.60,KMCJ 162115Z AUTO 00000KT 10SM 22/20 A3022 RMK A01,M
MCJ,2020-01-16 21:35,71.60,68.00,88.43,M,3.00,0.00,30.22,M,10.00,M,OVC,M,M,M,800.00,M,M,M,M,M,M,M,M,M,M,71.60,KMCJ 162135Z AUTO VRB03KT 10SM OVC008 22/20 A3022 RMK A01,M
MCJ,2020-01-16 21:55,71.60,68.00,88.43,20.00,3.00,0.00,30.22,M,10.00,M,BKN,OVC,M,M,800.00,1300.00,M,M,M,M,M,M,M,M,M,71.60,KMCJ 162155Z AUTO 02003KT 10SM BKN008 OVC013 22/20 A3022 RMK A01,M
MCJ,2020-01-16 22:15,71.60,68.00,88.43,0.00,0.00,0.00,30.22,M,9.00,M,BKN,OVC,M,M,1200.00,1700.00,M,M,M,M,M,M,M,M,M,71.60,KMCJ 162215Z AUTO 00000KT 9SM BKN012 OVC017 22/20 A3022 RMK A01,M
MCJ,2020-01-16 22:35,71.60,68.00,88.43,M,3.00,0.00,30.21,M,9.00,M,FEW,SCT,BKN,M,1000.00,1600.00,2200.00,M,M,M,M,M,M,M,M,71.60,KMCJ 162235Z AUTO VRB03KT 9SM FEW010 SCT016 BKN022 22/20 A3021 RMK A01,M
MCJ,2020-01-16 22:55,71.60,68.00,88.43,0.00,0.00,0.00,30.21,M,9.00,11.00,BKN,BKN,BKN,M,1200.00,2300.00,4300.00,M,M,M,M,M,M,M,M,71.60,KMCJ 162255Z AUTO 00000G11KT 9SM BKN012 BKN023 BKN043 22/20 A3021 RMK A01,M
MCJ,2020-01-16 23:15,71.60,68.00,88.43,0.00,0.00,0.00,30.22,M,8.00,M,SCT,M,M,M,1300.00,M,M,M,M,M,M,M,M,M,M,71.60,KMCJ 162315Z AUTO 00000KT 8SM SCT013 22/20 A3022 RMK A01,M
MCJ,2020-01-16 23:35,69.80,68.00,94.01,0.00,0.00,0.00,30.22,M,8.00,M,FEW,SCT,M,M,1000.00,1400.00,M,M,M,M,M,M,M,M,M,69.80,KMCJ 162335Z AUTO 00000KT 8SM FEW010 SCT014 21/20 A3022 RMK A01,M
MCJ,2020-01-16 23:55,69.80,68.00,94.01,0.00,0.00,0.00,30.22,M,8.00,M,CLR,M,M,M,M,M,M,M,M,M,M,M,M,M,M,69.80,KMCJ 162355Z AUTO 00000KT 8SM CLR 21/20 A3022 RMK A01,M
MCJ,2020-01-17 01:35,68.00,68.00,100.00,0.00,0.00,0.00,30.24,M,4.00,M,OVC,M,M,M,100.00,M,M,M,BR,M,M,M,M,M,M,68.00,KMCJ 170135Z AUTO 00000KT 4SM BR OVC001 20/20 A3024 RMK A01,M
MCJ,2020-01-17 01:55,68.00,68.00,100.00,0.00,0.00,0.00,30.24,M,4.00,M,OVC,M,M,M,200.00,M,M,M,BR,M,M,M,M,M,M,68.00,KMCJ 170155Z AUTO 00000KT 4SM BR OVC002 20/20 A3024 RMK A01,M
MCJ,2020-01-17 02:15,68.00,68.00,100.00,0.00,0.00,0.00,30.24,M,5.00,M,OVC,M,M,M,200.00,M,M,M,BR,M,M,M,M,M,M,68.00,KMCJ 170215Z AUTO 00000KT 5SM BR OVC002 20/20 A3024 RMK A01,M
MCJ,2020-01-17 02:35,68.00,68.00,100.00,0.00,0.00,0.00,30.25,M,5.00,M,OVC,M,M,M,200.00,M,M,M,BR,M,M,M,M,M,M,68.00,KMCJ 170235Z AUTO 00000KT 5SM BR OVC002 20/20 A3025 RMK A01,M
MCJ,2020-01-17 02:55,68.00,68.00,100.00,0.00,0.00,0.00,30.25,M,4.00,M,OVC,M,M,M,100.00,M,M,M,BR,M,M,M,M,M,M,68.00,KMCJ 170255Z AUTO 00000KT 4SM BR OVC001 20/20 A3025 RMK A01,M
MCJ,2020-01-17 03:15,68.00,68.00,100.00,M,4.00,0.00,30.25,M,5.00,M,OVC,M,M,M,100.00,M,M,M,BR,M,M,M,M,M,M,68.00,KMCJ 170315Z AUTO VRB04KT 5SM BR OVC001 20/20 A3025 RMK A01,M
MCJ,2020-01-17 03:35,68.00,68.00,100.00,0.00,0.00,0.00,30.25,M,6.00,M,OVC,M,M,M,200.00,M,M,M,BR,M,M,M,M,M,M,68.00,KMCJ 170335Z AUTO 00000KT 6SM BR OVC002 20/20 A3025 RMK A01,M
MCJ,2020-01-17 03:55,68.00,68.00,100.00,M,4.00,0.00,30.26,M,5.00,M,OVC,M,M,M,200.00,M,M,M,BR,M,M,M,M,M,M,68.00,KMCJ 170355Z AUTO VRB04KT 5SM BR OVC002 20/20 A3026 RMK A01,M
MCJ,2020-01-17 04:15,68.00,68.00,100.00,M,6.00,0.00,30.26,M,1.75,13.00,OVC,M,M,M,100.00,M,M,M,BR,M,M,M,M,M,M,68.00,KMCJ 170415Z AUTO VRB06G13KT 1 3/4SM BR OVC001 20/20 A3026 RMK A01,M
MCJ,2020-01-17 04:35,68.00,68.00,100.00,M,4.00,0.00,30.27,M,2.00,10.00,OVC,M,M,M,100.00,M,M,M,BR,M,M,M,M,M,M,68.00,KMCJ 170435Z AUTO VRB04G10KT 2SM BR OVC001 20/20 A3027 RMK A01,M
MCJ,2020-01-17 04:55,68.00,68.00,100.00,M,5.00,0.00,30.27,M,1.75,16.00,OVC,M,M,M,100.00,M,M,M,BR,M,M,M,M,M,M,68.00,KMCJ 170455Z AUTO VRB05G16KT 1 3/4SM BR OVC001 20/20 A3027 RMK A01,M
MCJ,2020-01-17 05:15,66.20,66.20,100.00,50.00,7.00,0.00,30.27,M,2.50,15.00,BKN,OVC,M,M,200.00,500.00,M,M,BR,M,M,M,M,M,M,66.20,KMCJ 170515Z AUTO 05007G15KT 310V090 2 1/2SM BR BKN002 OVC005 19/19 A3027 RMK A01,M
MCJ,2020-01-17 05:35,66.20,66.20,100.00,50.00,7.00,0.00,30.27,M,2.00,16.00,OVC,M,M,M,400.00,M,M,M,BR,M,M,M,M,M,M,66.20,KMCJ 170535Z AUTO 05007G16KT 020V080 2SM BR OVC004 19/19 A3027 RMK A01,M
MCJ,2020-01-17 05:55,66.20,66.20,100.00,60.00,11.00,0.00,30.27,M,2.50,M,OVC,M,M,M,300.00,M,M,M,BR,M,M,M,M,M,M,66.20,KMCJ 170555Z AUTO 06011KT 030V100 2 1/2SM BR OVC003 19/19 A3027 RMK A01,M
MCJ,2020-01-17 06:15,66.20,66.20,100.00,M,3.00,0.00,30.26,M,2.50,10.00,OVC,M,M,M,300.00,M,M,M,BR,M,M,M,M,M,M,66.20,KMCJ 170615Z AUTO VRB03G10KT 2 1/2SM BR OVC003 19/19 A3026 RMK A01,M
MCJ,2020-01-17 06:35,66.20,66.20,100.00,M,6.00,0.00,30.26,M,3.00,M,OVC,M,M,M,300.00,M,M,M,BR,M,M,M,M,M,M,66.20,KMCJ 170635Z AUTO VRB06KT 3SM BR OVC003 19/19 A3026 RMK A01,M
MCJ,2020-01-17 06:55,66.20,66.20,100.00,M,3.00,0.00,30.26,M,4.00,M,OVC,M,M,M,300.00,M,M,M,BR,M,M,M,M,M,M,66.20,KMCJ 170655Z AUTO VRB03KT 4SM BR OVC003 19/19 A3026 RMK A01,M
MCJ,2020-01-17 07:15,66.20,66.20,100.00,50.00,7.00,0.00,30.26,M,3.00,M,OVC,M,M,M,300.00,M,M,M,BR,M,M,M,M,M,M,66.20,KMCJ 170715Z AUTO 05007KT 3SM BR OVC003 19/19 A3026 RMK A01,M
MCJ,2020-01-17 07:35,64.40,64.40,100.00,M,3.00,0.00,30.25,M,5.00,10.00,OVC,M,M,M,300.00,M,M,M,BR,M,M,M,M,M,M,64.40,KMCJ 170735Z AUTO VRB03G10KT 5SM BR OVC003 18/18 A3025 RMK A01,M
MCJ,2020-01-17 07:55,64.40,64.40,100.00,M,4.00,0.00,30.25,M,5.00,M,OVC,M,M,M,400.00,M,M,M,BR,M,M,M,M,M,M,64.40,KMCJ 170755Z AUTO VRB04KT 5SM BR OVC004 18/18 A3025 RMK A01,M
MCJ,2020-01-17 08:15,64.40,64.40,100.00,M,5.00,0.00,30.24,M,5.00,M,OVC,M,M,M,400.00,M,M,M,BR,M,M,M,M,M,M,64.40,KMCJ 170815Z AUTO VRB05KT 5SM BR OVC004 18/18 A3024 RMK A01,M
MCJ,2020-01-17 08:35,64.40,64.40,100.00,M,8.00,0.00,30.24,M,3.00,14.00,OVC,M,M,M,300.00,M,M,M,BR,M,M,M,M,M,M,64.40,KMCJ 170835Z AUTO VRB08G14KT 3SM BR OVC003 18/18 A3024 RMK A01,M
MCJ,2020-01-17 08:55,64.40,64.40,100.00,60.00,11.00,0.00,30.24,M,4.00,M,OVC,M,M,M,300.00,M,M,M,BR,M,M,M,M,M,M,64.40,KMCJ 170855Z AUTO 06011KT 030V090 4SM BR OVC003 18/18 A3024 RMK A01,M
MCJ,2020-01-17 09:15,64.40,64.40,100.00,M,6.00,0.00,30.24,M,5.00,12.00,OVC,M,M,M,400.00,M,M,M,BR,M,M,M,M,M,M,64.40,KMCJ 170915Z AUTO VRB06G12KT 5SM BR OVC004 18/18 A3024 RMK A01,M
MCJ,2020-01-17 09:35,64.40,64.40,100.00,M,6.00,0.00,30.24,M,5.00,12.00,OVC,M,M,M,400.00,M,M,M,BR,M,M,M,M,M,M,64.40,KMCJ 170935Z AUTO VRB06G12KT 5SM BR OVC004 18/18 A3024 RMK A01,M
MCJ,2020-01-17 09:55,64.40,64.40,100.00,50.00,7.00,0.00,30.23,M,5.00,13.00,OVC,M,M,M,400.00,M,M,M,BR,M,M,M,M,M,M,64.40,KMCJ 170955Z AUTO 05007G13KT 030V090 5SM BR OVC004 18/18 A3023 RMK A01,M
MCJ,2020-01-17 10:15,62.60,62.60,100.00,40.00,7.00,0.00,30.23,M,1.75,M,OVC,M,M,M,300.00,M,M,M,BR,M,M,M,M,M,M,62.60,KMCJ 171015Z AUTO 04007KT 340V090 1 3/4SM BR OVC003 17/17 A3023 RMK A01,M
MCJ,2020-01-17 10:35,62.60,62.60,100.00,50.00,7.00,0.00,30.23,M,1.50,13.00,OVC,M,M,M,200.00,M,M,M,BR,M,M,M,M,M,M,62.60,KMCJ 171035Z AUTO 05007G13KT 020V090 1 1/2SM BR OVC002 17/17 A3023 RMK A01,M
MCJ,2020-01-17 11:15,62.60,62.60,100.00,40.00,8.00,0.00,30.23,M,1.00,M,OVC,M,M,M,100.00,M,M,M,BR,M,M,M,M,M,M,62.60,KMCJ 171115Z AUTO 04008KT 1SM BR OVC001 17/17 A3023 RMK A01,M
MCJ,2020-01-17 11:35,60.80,62.60,M,50.00,7.00,0.00,30.23,M,1.75,13.00,OVC,M,M,M,100.00,M,M,M,BR,M,M,M,M,M,M,M,KMCJ 171135Z AUTO 05007G13KT 1 3/4SM BR OVC001 16/17 A3023 RMK A01,M
MCJ,2020-01-17 11:55,60.80,62.60,M,40.00,7.00,0.00,30.23,M,3.00,M,OVC,M,M,M,200.00,M,M,M,BR,M,M,M,M,M,M,M,KMCJ 171155Z AUTO 04007KT 3SM BR OVC002 16/17 A3023 RMK A01,M
MCJ,2020-01-17 12:15,60.80,60.80,100.00,40.00,10.00,0.00,30.24,M,3.00,M,OVC,M,M,M,200.00,M,M,M,BR,M,M,M,M,M,M,60.80,KMCJ 171215Z AUTO 04010KT 3SM BR OVC002 16/16 A3024 RMK A01,M
MCJ,2020-01-17 12:35,60.80,60.80,100.00,50.00,8.00,0.00,30.24,M,1.50,M,OVC,M,M,M,200.00,M,M,M,BR,M,M,M,M,M,M,60.80,KMCJ 171235Z AUTO 05008KT 1 1/2SM BR OVC002 16/16 A3024 RMK A01,M
MCJ,2020-01-17 12:55,60.80,60.80,100.00,M,7.00,0.00,30.25,M,1.75,M,OVC,M,M,M,200.00,M,M,M,BR,M,M,M,M,M,M,60.80,KMCJ 171255Z AUTO VRB07KT 1 3/4SM BR OVC002 16/16 A3025 RMK A01,M
MCJ,2020-01-17 13:15,60.80,60.80,100.00,40.00,6.00,0.00,30.25,M,2.00,M,OVC,M,M,M,200.00,M,M,M,BR,M,M,M,M,M,M,60.80,KMCJ 171315Z AUTO 04006KT 2SM BR OVC002 16/16 A3025 RMK A01,M
MCJ,2020-01-17 13:35,60.80,60.80,100.00,50.00,7.00,0.00,30.25,M,0.75,M,OVC,M,M,M,200.00,M,M,M,BR,M,M,M,M,M,M,60.80,KMCJ 171335Z AUTO 05007KT 3/4SM BR OVC002 16/16 A3025 RMK A01,M
MCJ,2020-01-17 13:55,60.80,60.80,100.00,40.00,8.00,0.00,30.25,M,1.25,M,OVC,M,M,M,200.00,M,M,M,BR,M,M,M,M,M,M,60.80,KMCJ 171355Z AUTO 04008KT 1 1/4SM BR OVC002 16/16 A3025 RMK A01,M
MCJ,2020-01-17 14:15,60.80,60.80,100.00,40.00,7.00,0.00,30.25,M,1.00,M,OVC,M,M,M,200.00,M,M,M,BR,M,M,M,M,M,M,60.80,KMCJ 171415Z AUTO 04007KT 1SM BR OVC002 16/16 A3025 RMK A01,M
MCJ,2020-01-17 14:35,60.80,60.80,100.00,50.00,6.00,0.00,30.25,M,1.00,M,OVC,M,M,M,100.00,M,M,M,BR,M,M,M,M,M,M,60.80,KMCJ 171435Z AUTO 05006KT 1SM BR OVC001 16/16 A3025 RMK A01,M
MCJ,2020-01-17 14:55,60.80,62.60,M,50.00,7.00,0.00,30.26,M,1.25,M,OVC,M,M,M,100.00,M,M,M,BR,M,M,M,M,M,M,M,KMCJ 171455Z AUTO 05007KT 020V080 1 1/4SM BR OVC001 16/17 A3026 RMK A01,M
MCJ,2020-01-17 15:15,62.60,62.60,100.00,50.00,8.00,0.00,30.26,M,1.50,M,OVC,M,M,M,200.00,M,M,M,BR,M,M,M,M,M,M,62.60,KMCJ 171515Z AUTO 05008KT 1 1/2SM BR OVC002 17/17 A3026 RMK A01,M
MCJ,2020-01-17 15:35,62.60,62.60,100.00,40.00,6.00,0.00,30.26,M,2.50,M,OVC,M,M,M,200.00,M,M,M,BR,M,M,M,M,M,M,62.60,KMCJ 171535Z AUTO 04006KT 2 1/2SM BR OVC002 17/17 A3026 RMK A01,M
MCJ,2020-01-17 15:55,62.60,62.60,100.00,60.00,8.00,0.00,30.26,M,2.50,M,OVC,M,M,M,200.00,M,M,M,BR,M,M,M,M,M,M,62.60,KMCJ 171555Z AUTO 06008KT 2 1/2SM BR OVC002 17/17 A3026 RMK A01,M
MCJ,2020-01-17 16:15,64.40,64.40,100.00,50.00,7.00,0.00,30.26,M,3.00,M,OVC,M,M,M,200.00,M,M,M,BR,M,M,M,M,M,M,64.40,KMCJ 171615Z AUTO 05007KT 010V090 3SM BR OVC002 18/18 A3026 RMK A01,M
MCJ,2020-01-17 16:35,64.40,64.40,100.00,60.00,8.00,0.00,30.26,M,3.00,13.00,OVC,M,M,M,200.00,M,M,M,BR,M,M,M,M,M,M,64.40,KMCJ 171635Z AUTO 06008G13KT 350V130 3SM BR OVC002 18/18 A3026 RMK A01,M
MCJ,2020-01-17 16:55,64.40,64.40,100.00,70.00,8.00,0.00,30.26,M,2.00,M,OVC,M,M,M,200.00,M,M,M,BR,M,M,M,M,M,M,64.40,KMCJ 171655Z AUTO 07008KT 040V100 2SM BR OVC002 18/18 A3026 RMK A01,M
MCJ,2020-01-17 17:15,64.40,64.40,100.00,M,3.00,0.00,30.26,M,2.50,M,OVC,M,M,M,200.00,M,M,M,BR,M,M,M,M,M,M,64.40,KMCJ 171715Z AUTO VRB03KT 2 1/2SM BR OVC002 18/18 A3026 RMK A01,M
MCJ,2020-01-17 17:35,66.20,66.20,100.00,0.00,0.00,0.00,30.25,M,3.00,M,OVC,M,M,M,300.00,M,M,M,BR,M,M,M,M,M,M,66.20,KMCJ 171735Z AUTO 00000KT 3SM BR OVC003 19/19 A3025 RMK A01,M
MCJ,2020-01-17 17:55,66.20,66.20,100.00,M,4.00,0.00,30.24,M,5.00,M,OVC,M,M,M,500.00,M,M,M,BR,M,M,M,M,M,M,66.20,KMCJ 171755Z AUTO VRB04KT 5SM BR OVC005 19/19 A3024 RMK A01,M
MCJ,2020-01-17 18:15,68.00,66.20,93.97,M,3.00,0.00,30.23,M,5.00,M,OVC,M,M,M,600.00,M,M,M,BR,M,M,M,M,M,M,68.00,KMCJ 171815Z AUTO VRB03KT 5SM BR OVC006 20/19 A3023 RMK A01,M
MCJ,2020-01-17 18:35,68.00,66.20,93.97,M,3.00,0.00,30.22,M,5.00,M,OVC,M,M,M,800.00,M,M,M,BR,M,M,M,M,M,M,68.00,KMCJ 171835Z AUTO VRB03KT 5SM BR OVC008 20/19 A3022 RMK A01,M
MCJ,2020-01-17 18:55,69.80,64.40,82.98,M,4.00,0.00,30.20,M,6.00,M,OVC,M,M,M,1000.00,M,M,M,HZ,M,M,M,M,M,M,69.80,KMCJ 171855Z AUTO VRB04KT 6SM HZ OVC010 21/18 A3020 RMK A01,M
MCJ,2020-01-17 19:15,69.80,64.40,82.98,0.00,0.00,0.00,30.19,M,7.00,M,BKN,BKN,OVC,M,1000.00,1600.00,3100.00,M,M,M,M,M,M,M,M,69.80,KMCJ 171915Z AUTO 00000KT 7SM BKN010 BKN016 OVC031 21/18 A3019 RMK A01,M
MCJ,2020-01-17 19:35,69.80,64.40,82.98,0.00,0.00,0.00,30.18,M,6.00,M,BKN,BKN,OVC,M,1000.00,1500.00,2500.00,M,HZ,M,M,M,M,M,M,69.80,KMCJ 171935Z AUTO 00000KT 6SM HZ BKN010 BKN015 OVC025 21/18 A3018 RMK A01,M
MCJ,2020-01-17 19:55,69.80,64.40,82.98,M,3.00,0.00,30.16,M,6.00,M,BKN,OVC,M,M,1000.00,1700.00,M,M,HZ,M,M,M,M,M,M,69.80,KMCJ 171955Z AUTO VRB03KT 6SM HZ BKN010 OVC017 21/18 A3016 RMK A01,M
MCJ,2020-01-17 20:15,69.80,64.40,82.98,M,4.00,0.00,30.16,M,6.00,M,OVC,M,M,M,900.00,M,M,M,HZ,M,M,M,M,M,M,69.80,KMCJ 172015Z AUTO VRB04KT 6SM HZ OVC009 21/18 A3016 RMK A01,M
MCJ,2020-01-17 20:35,68.00,64.40,88.26,0.00,0.00,0.00,30.16,M,6.00,M,OVC,M,M,M,800.00,M,M,M,HZ,M,M,M,M,M,M,68.00,KMCJ 172035Z AUTO 00000KT 6SM HZ OVC008 20/18 A3016 RMK A01,M
MCJ,2020-01-17 20:55,68.00,64.40,88.26,M,6.00,0.00,30.15,M,6.00,M,OVC,M,M,M,800.00,M,M,M,HZ,M,M,M,M,M,M,68.00,KMCJ 172055Z AUTO VRB06KT 6SM HZ OVC008 20/18 A3015 RMK A01,M
MCJ,2020-01-17 21:15,69.80,64.40,82.98,M,5.00,0.00,30.14,M,6.00,M,OVC,M,M,M,800.00,M,M,M,HZ,M,M,M,M,M,M,69.80,KMCJ 172115Z AUTO VRB05KT 6SM HZ OVC008 21/18 A3014 RMK A01,M
MCJ,2020-01-17 21:35,69.80,64.40,82.98,M,3.00,0.00,30.14,M,6.00,M,BKN,BKN,OVC,M,800.00,1300.00,4800.00,M,HZ,M,M,M,M,M,M,69.80,KMCJ 172135Z AUTO VRB03KT 6SM HZ BKN008 BKN013 OVC048 21/18 A3014 RMK A01,M
MCJ,2020-01-17 21:55,69.80,64.40,82.98,M,4.00,0.00,30.14,M,5.00,M,BKN,OVC,M,M,700.00,1000.00,M,M,HZ,M,M,M,M,M,M,69.80,KMCJ 172155Z AUTO VRB04KT 5SM HZ BKN007 OVC010 21/18 A3014 RMK A01,M
MCJ,2020-01-17 22:15,68.00,64.40,88.26,M,4.00,0.00,30.14,M,4.00,M,OVC,M,M,M,700.00,M,M,M,BR,M,M,M,M,M,M,68.00,KMCJ 172215Z AUTO VRB04KT 4SM BR OVC007 20/18 A3014 RMK A01,M
MCJ,2020-01-17 22:35,68.00,64.40,88.26,M,4.00,0.00,30.13,M,4.00,M,OVC,M,M,M,600.00,M,M,M,BR,M,M,M,M,M,M,68.00,KMCJ 172235Z AUTO VRB04KT 4SM BR OVC006 20/18 A3013 RMK A01,M
MCJ,2020-01-17 22:55,66.20,64.40,93.92,0.00,0.00,0.00,30.13,M,3.00,M,OVC,M,M,M,500.00,M,M,M,BR,M,M,M,M,M,M,66.20,KMCJ 172255Z AUTO 00000KT 3SM BR OVC005 19/18 A3013 RMK A01,M
MCJ,2020-01-17 23:15,66.20,64.40,93.92,M,4.00,0.00,30.14,M,3.00,M,OVC,M,M,M,500.00,M,M,M,BR,M,M,M,M,M,M,66.20,KMCJ 172315Z AUTO VRB04KT 3SM BR OVC005 19/18 A3014 RMK A01,M
MCJ,2020-01-17 23:35,66.20,64.40,93.92,0.00,0.00,0.00,30.14,M,3.00,M,OVC,M,M,M,500.00,M,M,M,BR,M,M,M,M,M,M,66.20,KMCJ 172335Z AUTO 00000KT 3SM BR OVC005 19/18 A3014 RMK A01,M
MCJ,2020-01-17 23:55,66.20,64.40,93.92,0.00,0.00,0.00,30.15,M,3.00,M,OVC,M,M,M,500.00,M,M,M,BR,M,M,M,M,M,M,66.20,KMCJ 172355Z AUTO 00000KT 3SM BR OVC005 19/18 A3015 RMK A01,M
MCJ,2020-01-18 00:15,66.20,64.40,93.92,M,4.00,0.00,30.15,M,4.00,M,OVC,M,M,M,500.00,M,M,M,BR,M,M,M,M,M,M,66.20,KMCJ 180015Z AUTO VRB04KT 4SM BR OVC005 19/18 A3015 RMK A01,M
MCJ,2020-01-18 00:35,66.20,64.40,93.92,0.00,0.00,0.00,30.16,M,5.00,M,OVC,M,M,M,500.00,M,M,M,BR,M,M,M,M,M,M,66.20,KMCJ 180035Z AUTO 00000KT 5SM BR OVC005 19/18 A3016 RMK A01,M
MCJ,2020-01-18 00:55,66.20,64.40,93.92,0.00,0.00,0.00,30.15,M,5.00,M,OVC,M,M,M,500.00,M,M,M,BR,M,M,M,M,M,M,66.20,KMCJ 180055Z AUTO 00000KT 5SM BR OVC005 19/18 A3015 RMK A01,M
MCJ,2020-01-18 01:15,66.20,64.40,93.92,M,3.00,0.00,30.16,M,4.00,M,OVC,M,M,M,400.00,M,M,M,BR,M,M,M,M,M,M,66.20,KMCJ 180115Z AUTO VRB03KT 4SM BR OVC004 19/18 A3016 RMK A01,M
MCJ,2020-01-18 01:35,66.20,64.40,93.92,0.00,0.00,0.00,30.16,M,4.00,M,OVC,M,M,M,400.00,M,M,M,BR,M,M,M,M,M,M,66.20,KMCJ 180135Z AUTO 00000KT 4SM BR OVC004 19/18 A3016 RMK A01,M
MCJ,2020-01-18 01:55,66.20,66.20,100.00,0.00,0.00,0.00,30.16,M,4.00,M,OVC,M,M,M,400.00,M,M,M,BR,M,M,M,M,M,M,66.20,KMCJ 180155Z AUTO 00000KT 4SM BR OVC004 19/19 A3016 RMK A01,M
MCJ,2020-01-18 02:15,66.20,66.20,100.00,0.00,0.00,0.00,30.16,M,4.00,M,OVC,M,M,M,300.00,M,M,M,BR,M,M,M,M,M,M,66.20,KMCJ 180215Z AUTO 00000KT 4SM BR OVC003 19/19 A3016 RMK A01,M
MCJ,2020-01-18 02:35,66.20,66.20,100.00,M,3.00,0.00,30.16,M,3.00,M,OVC,M,M,M,300.00,M,M,M,BR,M,M,M,M,M,M,66.20,KMCJ 180235Z AUTO VRB03KT 3SM BR OVC003 19/19 A3016 RMK A01,M
MCJ,2020-01-18 02:55,66.20,66.20,100.00,0.00,0.00,0.00,30.15,M,3.00,M,OVC,M,M,M,200.00,M,M,M,BR,M,M,M,M,M,M,66.20,KMCJ 180255Z AUTO 00000KT 3SM BR OVC002 19/19 A3015 RMK A01,M
MCJ,2020-01-18 03:15,66.20,66.20,100.00,0.00,0.00,0.00,30.15,M,2.50,M,OVC,M,M,M,200.00,M,M,M,BR,M,M,M,M,M,M,66.20,KMCJ 180315Z AUTO 00000KT 2 1/2SM BR OVC002 19/19 A3015 RMK A01,M
MCJ,2020-01-18 03:35,66.20,66.20,100.00,0.00,0.00,0.00,30.14,M,2.50,M,OVC,M,M,M,200.00,M,M,M,BR,M,M,M,M,M,M,66.20,KMCJ 180335Z AUTO 00000KT 2 1/2SM BR OVC002 19/19 A3014 RMK A01,M
MCJ,2020-01-18 03:55,66.20,66.20,100.00,0.00,0.00,0.00,30.14,M,3.00,M,OVC,M,M,M,200.00,M,M,M,BR,M,M,M,M,M,M,66.20,KMCJ 180355Z AUTO 00000KT 3SM BR OVC002 19/19 A3014 RMK A01,M
MCJ,2020-01-18 04:15,66.20,66.20,100.00,0.00,0.00,0.00,30.13,M,3.00,M,OVC,M,M,M,300.00,M,M,M,BR,M,M,M,M,M,M,66.20,KMCJ 180415Z AUTO 00000KT 3SM BR OVC003 19/19 A3013 RMK A01,M
MCJ,2020-01-18 04:35,66.20,66.20,100.00,M,3.00,0.00,30.13,M,3.00,M,OVC,M,M,M,300.00,M,M,M,BR,M,M,M,M,M,M,66.20,KMCJ 180435Z AUTO VRB03KT 3SM BR OVC003 19/19 A3013 RMK A01,M
MCJ,2020-01-18 04:55,66.20,66.20,100.00,0.00,0.00,0.00,30.13,M,3.00,M,OVC,M,M,M,300.00,M,M,M,BR,M,M,M,M,M,M,66.20,KMCJ 180455Z AUTO 00000KT 3SM BR OVC003 19/19 A3013 RMK A01,M
MCJ,2020-01-18 05:15,66.20,66.20,100.00,M,3.00,0.00,30.13,M,3.00,M,OVC,M,M,M,300.00,M,M,M,BR,M,M,M,M,M,M,66.20,KMCJ 180515Z AUTO VRB03KT 3SM BR OVC003 19/19 A3013 RMK A01,M
MCJ,2020-01-18 05:35,66.20,68.00,M,0.00,0.00,0.00,30.12,M,3.00,M,OVC,M,M,M,300.00,M,M,M,BR,M,M,M,M,M,M,M,KMCJ 180535Z AUTO 00000KT 3SM BR OVC003 19/20 A3012 RMK A01,M
MCJ,2020-01-18 05:55,68.00,68.00,100.00,0.00,0.00,0.00,30.12,M,3.00,M,OVC,M,M,M,200.00,M,M,M,BR,M,M,M,M,M,M,68.00,KMCJ 180555Z AUTO 00000KT 3SM BR OVC002 20/20 A3012 RMK A01,M
MCJ,2020-01-18 06:15,68.00,68.00,100.00,0.00,0.00,0.00,30.11,M,3.00,M,OVC,M,M,M,200.00,M,M,M,BR,M,M,M,M,M,M,68.00,KMCJ 180615Z AUTO 00000KT 3SM BR OVC002 20/20 A3011 RMK A01,M
MCJ,2020-01-18 06:35,68.00,68.00,100.00,0.00,0.00,0.00,30.10,M,3.00,M,OVC,M,M,M,200.00,M,M,M,BR,M,M,M,M,M,M,68.00,KMCJ 180635Z AUTO 00000KT 3SM BR OVC002 20/20 A3010 RMK A01,M
MCJ,2020-01-18 06:55,68.00,68.00,100.00,0.00,0.00,0.00,30.10,M,3.00,M,OVC,M,M,M,300.00,M,M,M,BR,M,M,M,M,M,M,68.00,KMCJ 180655Z AUTO 00000KT 3SM BR OVC003 20/20 A3010 RMK A01,M
MCJ,2020-01-18 07:15,68.00,68.00,100.00,M,5.00,0.00,30.10,M,4.00,M,OVC,M,M,M,300.00,M,M,M,BR,M,M,M,M,M,M,68.00,KMCJ 180715Z AUTO VRB05KT 4SM BR OVC003 20/20 A3010 RMK A01,M
MCJ,2020-01-18 07:35,68.00,68.00,100.00,M,6.00,0.00,30.10,M,5.00,11.00,OVC,M,M,M,300.00,M,M,M,BR,M,M,M,M,M,M,68.00,KMCJ 180735Z AUTO VRB06G11KT 5SM BR OVC003 20/20 A3010 RMK A01,M
MCJ,2020-01-18 07:55,68.00,68.00,100.00,M,3.00,0.00,30.10,M,6.00,M,OVC,M,M,M,300.00,M,M,M,BR,M,M,M,M,M,M,68.00,KMCJ 180755Z AUTO VRB03KT 6SM BR OVC003 20/20 A3010 RMK A01,M
MCJ,2020-01-18 08:15,68.00,68.00,100.00,M,5.00,0.00,30.10,M,7.00,11.00,OVC,M,M,M,400.00,M,M,M,M,M,M,M,M,M,M,68.00,KMCJ 180815Z AUTO VRB05G11KT 7SM OVC004 20/20 A3010 RMK A01,M
MCJ,2020-01-18 08:35,69.80,69.80,100.00,M,6.00,0.00,30.11,M,6.00,12.00,OVC,M,M,M,300.00,M,M,M,BR,M,M,M,M,M,M,69.80,KMCJ 180835Z AUTO VRB06G12KT 6SM BR OVC003 21/21 A3011 RMK A01,M
MCJ,2020-01-18 08:55,69.80,69.80,100.00,0.00,0.00,0.00,30.11,M,7.00,M,OVC,M,M,M,400.00,M,M,M,M,M,M,M,M,M,M,69.80,KMCJ 180855Z AUTO 00000KT 7SM OVC004 21/21 A3011 RMK A01,M
MCJ,2020-01-18 09:15,69.80,69.80,100.00,0.00,0.00,0.00,30.12,M,7.00,M,OVC,M,M,M,400.00,M,M,M,M,M,M,M,M,M,M,69.80,KMCJ 180915Z AUTO 00000KT 7SM OVC004 21/21 A3012 RMK A01,M
MCJ,2020-01-18 09:35,69.80,69.80,100.00,0.00,0.00,0.00,30.12,M,6.00,M,OVC,M,M,M,400.00,M,M,M,BR,M,M,M,M,M,M,69.80,KMCJ 180935Z AUTO 00000KT 6SM BR OVC004 21/21 A3012 RMK A01,M
MCJ,2020-01-18 09:55,69.80,69.80,100.00,0.00,0.00,0.00,30.12,M,6.00,M,OVC,M,M,M,400.00,M,M,M,BR,M,M,M,M,M,M,69.80,KMCJ 180955Z AUTO 00000KT 6SM BR OVC004 21/21 A3012 RMK A01,M
MCJ,2020-01-18 10:15,69.80,69.80,100.00,M,4.00,0.00,30.11,M,6.00,M,OVC,M,M,M,400.00,M,M,M,BR,M,M,M,M,M,M,69.80,KMCJ 181015Z AUTO VRB04KT 6SM BR OVC004 21/21 A3011 RMK A01,M
MCJ,2020-01-18 10:35,69.80,69.80,100.00,0.00,0.00,0.00,30.11,M,6.00,M,OVC,M,M,M,400.00,M,M,M,BR,M,M,M,M,M,M,69.80,KMCJ 181035Z AUTO 00000KT 6SM BR OVC004 21/21 A3011 RMK A01,M
MCJ,2020-01-18 10:55,69.80,69.80,100.00,M,3.00,0.00,30.11,M,6.00,M,OVC,M,M,M,400.00,M,M,M,BR,M,M,M,M,M,M,69.80,KMCJ 181055Z AUTO VRB03KT 6SM BR OVC004 21/21 A3011 RMK A01,M
MCJ,2020-01-18 11:15,69.80,69.80,100.00,0.00,0.00,0.00,30.12,M,6.00,M,BKN,BKN,OVC,M,400.00,700.00,1200.00,M,BR,M,M,M,M,M,M,69.80,KMCJ 181115Z AUTO 00000KT 6SM BR BKN004 BKN007 OVC012 21/21 A3012 RMK A01,M
MCJ,2020-01-18 11:35,69.80,69.80,100.00,0.00,0.00,0.00,30.12,M,5.00,M,BKN,BKN,OVC,M,400.00,900.00,1500.00,M,BR,M,M,M,M,M,M,69.80,KMCJ 181135Z AUTO 00000KT 5SM BR BKN004 BKN009 OVC015 21/21 A3012 RMK A01,M
MCJ,2020-01-18 11:55,69.80,69.80,100.00,M,4.00,0.00,30.12,M,5.00,M,OVC,M,M,M,300.00,M,M,M,BR,M,M,M,M,M,M,69.80,KMCJ 181155Z AUTO VRB04KT 5SM BR OVC003 21/21 A3012 RMK A01,M
MCJ,2020-01-18 12:15,69.80,69.80,100.00,0.00,0.00,0.00,30.11,M,5.00,M,OVC,M,M,M,300.00,M,M,M,BR,M,M,M,M,M,M,69.80,KMCJ 181215Z AUTO 00000KT 5SM BR OVC003 21/21 A3011 RMK A01,M
MCJ,2020-01-18 12:35,69.80,69.80,100.00,0.00,0.00,0.00,30.11,M,5.00,M,OVC,M,M,M,300.00,M,M,M,BR,M,M,M,M,M,M,69.80,KMCJ 181235Z AUTO 00000KT 5SM BR OVC003 21/21 A3011 RMK A01,M
MCJ,2020-01-18 12:55,69.80,69.80,100.00,0.00,0.00,0.00,30.10,M,4.00,M,OVC,M,M,M,100.00,M,M,M,BR,M,M,M,M,M,M,69.80,KMCJ 181255Z AUTO 00000KT 4SM BR OVC001 21/21 A3010 RMK A01,M
MCJ,2020-01-18 13:15,68.00,68.00,100.00,M,4.00,0.00,30.11,M,3.00,M,OVC,M,M,M,100.00,M,M,M,BR,M,M,M,M,M,M,68.00,KMCJ 181315Z AUTO VRB04KT 3SM BR OVC001 20/20 A3011 RMK A01,M
MCJ,2020-01-18 13:35,69.80,69.80,100.00,0.00,0.00,0.00,30.13,M,3.00,M,OVC,M,M,M,200.00,M,M,M,BR,M,M,M,M,M,M,69.80,KMCJ 181335Z AUTO 00000KT 3SM BR OVC002 21/21 A3013 RMK A01,M
MCJ,2020-01-18 13:55,69.80,69.80,100.00,M,5.00,0.00,30.14,M,3.00,M,OVC,M,M,M,300.00,M,M,M,BR,M,M,M,M,M,M,69.80,KMCJ 181355Z AUTO VRB05KT 3SM BR OVC003 21/21 A3014 RMK A01,M
MCJ,2020-01-18 14:15,69.80,69.80,100.00,M,4.00,0.00,30.15,M,4.00,M,OVC,M,M,M,300.00,M,M,M,BR,M,M,M,M,M,M,69.80,KMCJ 181415Z AUTO VRB04KT 4SM BR OVC003 21/21 A3015 RMK A01,M
MCJ,2020-01-18 14:35,69.80,69.80,100.00,0.00,0.00,0.00,30.15,M,4.00,M,OVC,M,M,M,300.00,M,M,M,BR,M,M,M,M,M,M,69.80,KMCJ 181435Z AUTO 00000KT 4SM BR OVC003 21/21 A3015 RMK A01,M
MCJ,2020-01-18 14:55,69.80,69.80,100.00,0.00,0.00,0.00,30.16,M,4.00,M,OVC,M,M,M,300.00,M,M,M,BR,M,M,M,M,M,M,69.80,KMCJ 181455Z AUTO 00000KT 4SM BR OVC003 21/21 A3016 RMK A01,M
MCJ,2020-01-18 15:15,69.80,69.80,100.00,M,5.00,0.00,30.17,M,4.00,M,OVC,M,M,M,300.00,M,M,M,BR,M,M,M,M,M,M,69.80,KMCJ 181515Z AUTO VRB05KT 4SM BR OVC003 21/21 A3017 RMK A01,M
MCJ,2020-01-18 15:35,69.80,69.80,100.00,M,4.00,0.00,30.17,M,2.00,M,BKN,BKN,BKN,M,300.00,2600.00,3200.00,M,BR,M,M,M,M,M,M,69.80,KMCJ 181535Z AUTO VRB04KT 2SM BR BKN003 BKN026 BKN032 21/21 A3017 RMK A01 VIS 1V4,M
MCJ,2020-01-18 15:55,69.80,69.80,100.00,M,3.00,0.00,30.18,M,3.00,M,SCT,SCT,SCT,M,400.00,2600.00,5000.00,M,BR,M,M,M,M,M,M,69.80,KMCJ 181555Z AUTO VRB03KT 3SM BR SCT004 SCT026 SCT050 21/21 A3018 RMK A01,M
MCJ,2020-01-18 16:15,69.80,69.80,100.00,M,5.00,0.00,30.18,M,5.00,M,BKN,BKN,M,M,400.00,1700.00,M,M,BR,M,M,M,M,M,M,69.80,KMCJ 181615Z AUTO VRB05KT 5SM BR BKN004 BKN017 21/21 A3018 RMK A01,M
MCJ,2020-01-18 16:35,69.80,69.80,100.00,0.00,0.00,0.00,30.18,M,6.00,M,BKN,BKN,BKN,M,400.00,700.00,1700.00,M,BR,M,M,M,M,M,M,69.80,KMCJ 181635Z AUTO 00000KT 6SM BR BKN004 BKN007 BKN017 21/21 A3018 RMK A01,M
MCJ,2020-01-18 16:55,71.60,71.60,100.00,M,3.00,0.00,30.17,M,7.00,M,BKN,M,M,M,500.00,M,M,M,M,M,M,M,M,M,M,71.60,KMCJ 181655Z AUTO VRB03KT 7SM BKN005 22/22 A3017 RMK A01,M
MCJ,2020-01-18 17:15,71.60,69.80,94.06,M,4.00,0.00,30.17,M,8.00,M,SCT,BKN,M,M,600.00,900.00,M,M,M,M,M,M,M,M,M,71.60,KMCJ 181715Z AUTO VRB04KT 8SM SCT006 BKN009 22/21 A3017 RMK A01,M
MCJ,2020-01-18 17:35,71.60,69.80,94.06,0.00,0.00,0.00,30.18,M,9.00,M,BKN,OVC,M,M,600.00,900.00,M,M,M,M,M,M,M,M,M,71.60,KMCJ 181735Z AUTO 00000KT 9SM BKN006 OVC009 22/21 A3018 RMK A01,M
MCJ,2020-01-18 17:55,73.40,69.80,88.51,0.00,0.00,0.00,30.16,M,9.00,M,BKN,BKN,OVC,M,700.00,1000.00,3900.00,M,M,M,M,M,M,M,M,73.40,KMCJ 181755Z AUTO 00000KT 9SM BKN007 BKN010 OVC039 23/21 A3016 RMK A01,M
MCJ,2020-01-18 18:15,73.40,69.80,88.51,0.00,0.00,0.00,30.15,M,9.00,M,SCT,SCT,BKN,M,800.00,3100.00,5000.00,M,M,M,M,M,M,M,M,73.40,KMCJ 181815Z AUTO 00000KT 9SM SCT008 SCT031 BKN050 23/21 A3015 RMK A01,M
MCJ,2020-01-18 18:35,73.40,69.80,88.51,0.00,0.00,0.00,30.13,M,9.00,M,FEW,SCT,BKN,M,2900.00,5500.00,6500.00,M,M,M,M,M,M,M,M,73.40,KMCJ 181835Z AUTO 00000KT 9SM FEW029 SCT055 BKN065 23/21 A3013 RMK A01,M
MCJ,2020-01-18 18:55,73.40,68.00,83.21,M,3.00,0.00,30.13,M,9.00,M,FEW,BKN,BKN,M,1900.00,4600.00,6500.00,M,M,M,M,M,M,M,M,73.40,KMCJ 181855Z AUTO VRB03KT 9SM FEW019 BKN046 BKN065 23/20 A3013 RMK A01,M
MCJ,2020-01-18 19:15,71.60,69.80,94.06,0.00,0.00,0.00,30.12,M,0.25,M,BKN,OVC,M,M,100.00,1000.00,M,M,FG,M,M,M,M,M,M,71.60,KMCJ 181915Z AUTO 00000KT 1/4SM FG BKN001 OVC010 22/21 A3012 RMK A01,M
MCJ,2020-01-18 19:35,68.00,66.20,93.97,320.00,7.00,0.00,30.12,M,3.00,14.00,FEW,BKN,OVC,M,400.00,1200.00,3200.00,M,BR,M,M,M,M,M,M,68.00,KMCJ 181935Z AUTO 32007G14KT 3SM BR FEW004 BKN012 OVC032 20/19 A3012 RMK A01,M
MCJ,2020-01-18 19:55,68.00,66.20,93.97,0.00,0.00,0.00,30.11,M,8.00,M,FEW,BKN,BKN,M,2000.00,3200.00,3800.00,M,M,M,M,M,M,M,M,68.00,KMCJ 181955Z AUTO 00000KT 8SM FEW020 BKN032 BKN038 20/19 A3011 RMK A01,M
MCJ,2020-01-18 20:15,68.00,64.40,88.26,0.00,0.00,0.00,30.11,M,9.00,M,BKN,BKN,M,M,3900.00,5000.00,M,M,M,M,M,M,M,M,M,68.00,KMCJ 182015Z AUTO 00000KT 9SM BKN039 BKN050 20/18 A3011 RMK A01,M
MCJ,2020-01-18 20:35,68.00,64.40,88.26,0.00,0.00,0.00,30.11,M,6.00,M,FEW,SCT,M,M,3800.00,5500.00,M,M,BR,M,M,M,M,M,M,68.00,KMCJ 182035Z AUTO 00000KT 6SM BR FEW038 SCT055 20/18 A3011 RMK A01,M
MCJ,2020-01-18 20:55,68.00,66.20,93.97,0.00,0.00,0.00,30.10,M,4.00,M,FEW,FEW,M,M,4200.00,6000.00,M,M,BR,M,M,M,M,M,M,68.00,KMCJ 182055Z AUTO 00000KT 4SM BR FEW042 FEW060 20/19 A3010 RMK A01,M
MCJ,2020-01-18 21:15,68.00,66.20,93.97,0.00,0.00,0.00,30.09,M,6.00,M,CLR,M,M,M,M,M,M,M,BR,M,M,M,M,M,M,68.00,KMCJ 182115Z AUTO 00000KT 6SM BR CLR 20/19 A3009 RMK A01,M
MCJ,2020-01-18 21:35,68.00,66.20,93.97,0.00,0.00,0.00,30.10,M,5.00,M,CLR,M,M,M,M,M,M,M,BR,M,M,M,M,M,M,68.00,KMCJ 182135Z AUTO 00000KT 5SM BR CLR 20/19 A3010 RMK A01,M
MCJ,2020-01-18 21:55,68.00,66.20,93.97,0.00,0.00,0.00,30.12,M,4.00,M,FEW,SCT,BKN,M,1100.00,2300.00,4500.00,M,BR,M,M,M,M,M,M,68.00,KMCJ 182155Z AUTO 00000KT 4SM BR FEW011 SCT023 BKN045 20/19 A3012 RMK A01,M
MCJ,2020-01-18 22:15,68.00,66.20,93.97,360.00,8.00,0.00,30.13,M,5.00,M,SCT,BKN,OVC,M,900.00,2400.00,4300.00,M,BR,M,M,M,M,M,M,68.00,KMCJ 182215Z AUTO 36008KT 330V040 5SM BR SCT009 BKN024 OVC043 20/19 A3013 RMK A01,M
MCJ,2020-01-18 22:35,66.20,64.40,93.92,350.00,9.00,0.00,30.14,M,4.00,16.00,FEW,BKN,OVC,M,900.00,1500.00,4500.00,M,BR,M,M,M,M,M,M,66.20,KMCJ 182235Z AUTO 35009G16KT 4SM BR FEW009 BKN015 OVC045 19/18 A3014 RMK A01,M
MCJ,2020-01-18 22:55,66.20,64.40,93.92,340.00,9.00,0.00,30.14,M,8.00,M,BKN,OVC,M,M,1500.00,4900.00,M,M,M,M,M,M,M,M,M,66.20,KMCJ 182255Z AUTO 34009KT 8SM BKN015 OVC049 19/18 A3014 RMK A01,M
MCJ,2020-01-18 23:15,66.20,64.40,93.92,350.00,6.00,0.00,30.15,M,10.00,M,SCT,BKN,M,M,1500.00,5000.00,M,M,M,M,M,M,M,M,M,66.20,KMCJ 182315Z AUTO 35006KT 10SM SCT015 BKN050 19/18 A3015 RMK A01,M
MCJ,2020-01-18 23:35,66.20,64.40,93.92,350.00,8.00,0.00,30.15,M,10.00,M,BKN,BKN,OVC,M,1600.00,4300.00,5500.00,M,M,M,M,M,M,M,M,66.20,KMCJ 182335Z AUTO 35008KT 10SM BKN016 BKN043 OVC055 19/18 A3015 RMK A01,M
MCJ,2020-01-18 23:55,66.20,60.80,82.74,340.00,10.00,0.00,30.16,M,10.00,M,BKN,OVC,M,M,1500.00,4500.00,M,M,M,M,M,M,M,M,M,66.20,KMCJ 182355Z AUTO 34010KT 10SM BKN015 OVC045 19/16 A3016 RMK A01,M
MCJ,2020-01-19 00:15,66.20,57.20,72.74,340.00,8.00,0.00,30.18,M,10.00,M,FEW,FEW,OVC,M,1500.00,1900.00,4900.00,M,M,M,M,M,M,M,M,66.20,KMCJ 190015Z AUTO 34008KT 10SM FEW015 FEW019 OVC049 19/14 A3018 RMK A01,M
MCJ,2020-01-19 00:35,66.20,57.20,72.74,350.00,8.00,0.00,30.18,M,10.00,13.00,OVC,M,M,M,4900.00,M,M,M,M,M,M,M,M,M,M,66.20,KMCJ 190035Z AUTO 35008G13KT 10SM OVC049 19/14 A3018 RMK A01,M
MCJ,2020-01-19 00:55,66.20,57.20,72.74,340.00,11.00,0.00,30.19,M,10.00,16.00,OVC,M,M,M,5000.00,M,M,M,M,M,M,M,M,M,M,66.20,KMCJ 190055Z AUTO 34011G16KT 10SM OVC050 19/14 A3019 RMK A01,M
MCJ,2020-01-19 01:15,66.20,57.20,72.74,360.00,10.00,0.00,30.19,M,10.00,M,OVC,M,M,M,5000.00,M,M,M,M,M,M,M,M,M,M,66.20,KMCJ 190115Z AUTO 36010KT 10SM OVC050 19/14 A3019 RMK A01,M
MCJ,2020-01-19 01:35,66.20,57.20,72.74,350.00,8.00,0.00,30.20,M,10.00,M,BKN,OVC,M,M,5000.00,6500.00,M,M,M,M,M,M,M,M,M,66.20,KMCJ 190135Z AUTO 35008KT 10SM BKN050 OVC065 19/14 A3020 RMK A01,M
MCJ,2020-01-19 01:55,66.20,57.20,72.74,350.00,8.00,0.00,30.21,M,10.00,M,BKN,OVC,M,M,5500.00,6500.00,M,M,M,M,M,M,M,M,M,66.20,KMCJ 190155Z AUTO 35008KT 10SM BKN055 OVC065 19/14 A3021 RMK A01,M
MCJ,2020-01-19 02:15,64.40,57.20,77.45,360.00,9.00,0.00,30.22,M,10.00,M,OVC,M,M,M,5500.00,M,M,M,M,M,M,M,M,M,M,64.40,KMCJ 190215Z AUTO 36009KT 10SM OVC055 18/14 A3022 RMK A01,M
MCJ,2020-01-19 02:35,64.40,55.40,72.56,10.00,11.00,0.00,30.23,M,10.00,20.00,M,M,M,M,M,M,M,M,M,M,M,M,M,M,M,64.40,KMCJ 190235Z AUTO 01011G20KT 10SM 18/13 A3023 RMK A01,M
MCJ,2020-01-19 02:55,64.40,53.60,67.95,360.00,13.00,0.00,30.23,M,10.00,19.00,BKN,BKN,OVC,M,5500.00,7500.00,9500.00,M,M,M,M,M,M,M,M,64.40,KMCJ 190255Z AUTO 36013G19KT 330V040 10SM BKN055 BKN075 OVC095 18/12 A3023 RMK A01,M
MCJ,2020-01-19 03:15,64.40,51.80,63.60,350.00,15.00,0.00,30.24,M,10.00,20.00,FEW,OVC,M,M,5500.00,9000.00,M,M,M,M,M,M,M,M,M,64.40,KMCJ 190315Z AUTO 35015G20KT 10SM FEW055 OVC090 18/11 A3024 RMK A01,M
MCJ,2020-01-19 03:35,62.60,48.20,59.26,350.00,9.00,0.00,30.25,M,10.00,22.00,BKN,OVC,M,M,6000.00,9500.00,M,M,M,M,M,M,M,M,M,62.60,KMCJ 190335Z AUTO 35009G22KT 10SM BKN060 OVC095 17/09 A3025 RMK A01,M
MCJ,2020-01-19 03:55,62.60,46.40,55.37,360.00,14.00,0.00,30.26,M,10.00,19.00,SCT,BKN,SCT,M,6500.00,7500.00,9500.00,M,M,M,M,M,M,M,M,62.60,KMCJ 190355Z AUTO 36014G19KT 10SM SCT065 BKN075 SCT095 17/08 A3026 RMK A01,M
MCJ,2020-01-19 04:15,60.80,46.40,59.01,360.00,14.00,0.00,30.27,M,10.00,22.00,FEW,FEW,M,M,7000.00,9500.00,M,M,M,M,M,M,M,M,M,60.80,KMCJ 190415Z AUTO 36014G22KT 10SM FEW070 FEW095 16/08 A3027 RMK A01,M
MCJ,2020-01-19 04:35,60.80,46.40,59.01,360.00,13.00,0.00,30.27,M,10.00,20.00,SCT,M,M,M,9000.00,M,M,M,M,M,M,M,M,M,M,60.80,KMCJ 190435Z AUTO 36013G20KT 10SM SCT090 16/08 A3027 RMK A01,M
MCJ,2020-01-19 04:55,60.80,46.40,59.01,360.00,10.00,0.00,30.28,M,10.00,20.00,SCT,M,M,M,9000.00,M,M,M,M,M,M,M,M,M,M,60.80,KMCJ 190455Z AUTO 36010G20KT 10SM SCT090 16/08 A3028 RMK A01,M
MCJ,2020-01-19 05:15,59.00,44.60,58.77,340.00,13.00,0.00,30.28,M,10.00,M,FEW,M,M,M,9000.00,M,M,M,M,M,M,M,M,M,M,59.00,KMCJ 190515Z AUTO 34013KT 10SM FEW090 15/07 A3028 RMK A01,M
MCJ,2020-01-19 05:35,57.20,44.60,62.69,350.00,11.00,0.00,30.28,M,10.00,18.00,CLR,M,M,M,M,M,M,M,M,M,M,M,M,M,M,57.20,KMCJ 190535Z AUTO 35011G18KT 10SM CLR 14/07 A3028 RMK A01,M
MCJ,2020-01-19 05:55,57.20,44.60,62.69,350.00,16.00,0.00,30.29,M,10.00,22.00,CLR,M,M,M,M,M,M,M,M,M,M,M,M,M,M,57.20,KMCJ 190555Z AUTO 35016G22KT 10SM CLR 14/07 A3029 RMK A01,M
MCJ,2020-01-19 06:15,55.40,44.60,66.91,350.00,13.00,0.00,30.29,M,10.00,M,CLR,M,M,M,M,M,M,M,M,M,M,M,M,M,M,55.40,KMCJ 190615Z AUTO 35013KT 10SM CLR 13/07 A3029 RMK A01,M
MCJ,2020-01-19 06:35,55.40,42.80,62.46,350.00,10.00,0.00,30.30,M,10.00,22.00,CLR,M,M,M,M,M,M,M,M,M,M,M,M,M,M,55.40,KMCJ 190635Z AUTO 35010G22KT 310V010 10SM CLR 13/06 A3030 RMK A01,M
MCJ,2020-01-19 06:55,53.60,41.00,62.23,350.00,14.00,0.00,30.29,M,10.00,22.00,CLR,M,M,M,M,M,M,M,M,M,M,M,M,M,M,53.60,KMCJ 190655Z AUTO 35014G22KT 10SM CLR 12/05 A3029 RMK A01,M
MCJ,2020-01-19 07:15,53.60,41.00,62.23,350.00,10.00,0.00,30.29,M,10.00,20.00,CLR,M,M,M,M,M,M,M,M,M,M,M,M,M,M,53.60,KMCJ 190715Z AUTO 35010G20KT 10SM CLR 12/05 A3029 RMK A01,M
MCJ,2020-01-19 07:35,53.60,39.20,58.02,360.00,14.00,0.00,30.29,M,10.00,20.00,CLR,M,M,M,M,M,M,M,M,M,M,M,M,M,M,53.60,KMCJ 190735Z AUTO 36014G20KT 10SM CLR 12/04 A3029 RMK A01,M
MCJ,2020-01-19 07:55,51.80,39.20,61.99,10.00,14.00,0.00,30.30,M,10.00,M,CLR,M,M,M,M,M,M,M,M,M,M,M,M,M,M,51.80,KMCJ 190755Z AUTO 01014KT 10SM CLR 11/04 A3030 RMK A01,M
MCJ,2020-01-19 08:15,51.80,37.40,57.77,360.00,12.00,0.00,30.31,M,10.00,17.00,CLR,M,M,M,M,M,M,M,M,M,M,M,M,M,M,51.80,KMCJ 190815Z AUTO 36012G17KT 10SM CLR 11/03 A3031 RMK A01,M
MCJ,2020-01-19 08:35,51.80,35.60,53.81,360.00,13.00,0.00,30.31,M,10.00,M,CLR,M,M,M,M,M,M,M,M,M,M,M,M,M,M,51.80,KMCJ 190835Z AUTO 36013KT 10SM CLR 11/02 A3031 RMK A01,M
MCJ,2020-01-19 08:55,51.80,35.60,53.81,360.00,12.00,0.00,30.32,M,10.00,17.00,CLR,M,M,M,M,M,M,M,M,M,M,M,M,M,M,51.80,KMCJ 190855Z AUTO 36012G17KT 10SM CLR 11/02 A3032 RMK A01,M
MCJ,2020-01-19 09:15,51.80,33.80,50.08,10.00,12.00,0.00,30.32,M,10.00,M,CLR,M,M,M,M,M,M,M,M,M,M,M,M,M,M,51.80,KMCJ 190915Z AUTO 01012KT 10SM CLR 11/01 A3032 RMK A01,M
MCJ,2020-01-19 09:35,50.00,33.80,53.54,10.00,11.00,0.00,30.32,M,10.00,18.00,CLR,M,M,M,M,M,M,M,M,M,M,M,M,M,M,45.21,KMCJ 190935Z AUTO 01011G18KT 10SM CLR 10/01 A3032 RMK A01,M
MCJ,2020-01-19 09:55,50.00,32.00,49.81,10.00,13.00,0.00,30.32,M,10.00,M,CLR,M,M,M,M,M,M,M,M,M,M,M,M,M,M,44.63,KMCJ 190955Z AUTO 01013KT 10SM CLR 10/00 A3032 RMK A01,M
MCJ,2020-01-19 10:15,50.00,30.20,46.31,360.00,16.00,0.00,30.32,M,10.00,M,CLR,M,M,M,M,M,M,M,M,M,M,M,M,M,M,43.88,KMCJ 191015Z AUTO 36016KT 10SM CLR 10/M01 A3032 RMK A01,M
MCJ,2020-01-19 10:35,50.00,28.40,43.03,10.00,11.00,0.00,30.32,M,10.00,16.00,CLR,M,M,M,M,M,M,M,M,M,M,M,M,M,M,45.21,KMCJ 191035Z AUTO 01011G16KT 330V060 10SM CLR 10/M02 A3032 RMK A01,M
MCJ,2020-01-19 10:55,48.20,28.40,46.02,360.00,12.00,0.00,30.32,M,10.00,21.00,CLR,M,M,M,M,M,M,M,M,M,M,M,M,M,M,42.62,KMCJ 191055Z AUTO 36012G21KT 10SM CLR 09/M02 A3032 RMK A01,M
MCJ,2020-01-19 11:15,48.20,26.60,42.73,10.00,16.00,0.00,30.33,M,10.00,21.00,CLR,M,M,M,M,M,M,M,M,M,M,M,M,M,M,41.53,KMCJ 191115Z AUTO 01016G21KT 10SM CLR 09/M03 A3033 RMK A01,M
MCJ,2020-01-19 11:35,48.20,24.80,39.66,360.00,14.00,0.00,30.34,M,10.00,22.00,CLR,M,M,M,M,M,M,M,M,M,M,M,M,M,M,42.04,KMCJ 191135Z AUTO 36014G22KT 10SM CLR 09/M04 A3034 RMK A01,M
MCJ,2020-01-19 11:55,48.20,24.80,39.66,360.00,12.00,0.00,30.34,M,10.00,20.00,CLR,M,M,M,M,M,M,M,M,M,M,M,M,M,M,42.62,KMCJ 191155Z AUTO 36012G20KT 10SM CLR 09/M04 A3034 RMK A01,M
MCJ,2020-01-19 12:15,46.40,23.00,39.36,360.00,15.00,0.00,30.36,M,10.00,M,CLR,M,M,M,M,M,M,M,M,M,M,M,M,M,M,39.45,KMCJ 191215Z AUTO 36015KT 10SM CLR 08/M05 A3036 RMK A01,M
MCJ,2020-01-19 12:35,46.40,23.00,39.36,360.00,13.00,0.00,30.37,M,10.00,21.00,CLR,M,M,M,M,M,M,M,M,M,M,M,M,M,M,40.02,KMCJ 191235Z AUTO 36013G21KT 10SM CLR 08/M05 A3037 RMK A01,M
MCJ,2020-01-19 12:55,46.40,23.00,39.36,10.00,13.00,0.00,30.38,M,10.00,23.00,CLR,M,M,M,M,M,M,M,M,M,M,M,M,M,M,40.02,KMCJ 191255Z AUTO 01013G23KT 10SM CLR 08/M05 A3038 RMK A01,M
MCJ,2020-01-19 13:15,46.40,21.20,36.48,360.00,12.00,0.00,30.39,M,10.00,20.00,CLR,M,M,M,M,M,M,M,M,M,M,M,M,M,M,40.33,KMCJ 191315Z AUTO 36012G20KT 10SM CLR 08/M06 A3039 RMK A01,M
MCJ,2020-01-19 13:35,44.60,21.20,39.06,350.00,14.00,0.00,30.41,M,10.00,19.00,CLR,M,M,M,M,M,M,M,M,M,M,M,M,M,M,37.40,KMCJ 191335Z AUTO 35014G19KT 10SM CLR 07/M06 A3041 RMK A01,M
MCJ,2020-01-19 13:55,44.60,19.40,36.18,360.00,13.00,0.00,30.42,M,10.00,25.00,CLR,M,M,M,M,M,M,M,M,M,M,M,M,M,M,37.71,KMCJ 191355Z AUTO 36013G25KT 10SM CLR 07/M07 A3042 RMK A01,M
MCJ,2020-01-19 14:15,44.60,19.40,36.18,360.00,13.00,0.00,30.43,M,10.00,18.00,CLR,M,M,M,M,M,M,M,M,M,M,M,M,M,M,37.71,KMCJ 191415Z AUTO 36013G18KT 10SM CLR 07/M07 A3043 RMK A01,M
MCJ,2020-01-19 14:35,44.60,19.40,36.18,360.00,12.00,0.00,30.43,M,10.00,19.00,CLR,M,M,M,M,M,M,M,M,M,M,M,M,M,M,38.04,KMCJ 191435Z AUTO 36012G19KT 10SM CLR 07/M07 A3043 RMK A01,M
MCJ,2020-01-19 14:55,44.60,19.40,36.18,360.00,19.00,0.00,30.45,M,10.00,M,CLR,M,M,M,M,M,M,M,M,M,M,M,M,M,M,36.10,KMCJ 191455Z AUTO 36019KT 10SM CLR 07/M07 A3045 RMK A01,M
MCJ,2020-01-19 15:15,46.40,19.40,33.79,360.00,13.00,0.00,30.46,M,10.00,24.00,CLR,M,M,M,M,M,M,M,M,M,M,M,M,M,M,40.02,KMCJ 191515Z AUTO 36013G24KT 10SM CLR 08/M07 A3046 RMK A01,M
MCJ,2020-01-19 15:35,46.40,17.60,31.28,10.00,12.00,0.00,30.47,M,10.00,19.00,CLR,M,M,M,M,M,M,M,M,M,M,M,M,M,M,40.33,KMCJ 191535Z AUTO 01012G19KT 10SM CLR 08/M08 A3047 RMK A01,M
MCJ,2020-01-19 15:55,48.20,17.60,29.23,10.00,10.00,0.00,30.48,M,10.00,18.00,CLR,M,M,M,M,M,M,M,M,M,M,M,M,M,M,43.28,KMCJ 191555Z AUTO 01010G18KT 350V050 10SM CLR 09/M08 A3048 RMK A01,M
MCJ,2020-01-19 16:15,50.00,15.80,25.28,30.00,18.00,0.00,30.48,M,10.00,M,CLR,M,M,M,M,M,M,M,M,M,M,M,M,M,M,43.44,KMCJ 191615Z AUTO 03018KT 10SM CLR 10/M09 A3048 RMK A01,M
MCJ,2020-01-19 16:35,50.00,14.00,23.37,20.00,16.00,0.00,30.48,M,10.00,23.00,CLR,M,M,M,M,M,M,M,M,M,M,M,M,M,M,43.88,KMCJ 191635Z AUTO 02016G23KT 10SM CLR 10/M10 A3048 RMK A01,M
MCJ,2020-01-19 16:55,51.80,14.00,21.86,30.00,17.00,0.00,30.47,M,10.00,M,CLR,M,M,M,M,M,M,M,M,M,M,M,M,M,M,51.80,KMCJ 191655Z AUTO 03017KT 10SM CLR 11/M10 A3047 RMK A01,M
MCJ,2020-01-19 17:15,51.80,14.00,21.86,360.00,14.00,0.00,30.47,M,10.00,19.00,CLR,M,M,M,M,M,M,M,M,M,M,M,M,M,M,51.80,KMCJ 191715Z AUTO 36014G19KT 10SM CLR 11/M10 A3047 RMK A01,M
MCJ,2020-01-19 17:35,51.80,15.80,23.65,360.00,12.00,0.00,30.47,M,10.00,M,CLR,M,M,M,M,M,M,M,M,M,M,M,M,M,M,51.80,KMCJ 191735Z AUTO 36012KT 10SM CLR 11/M09 A3047 RMK A01,M
MCJ,2020-01-19 17:55,53.60,14.00,20.46,350.00,11.00,0.00,30.47,M,9.00,17.00,CLR,M,M,M,M,M,M,M,M,M,M,M,M,M,M,53.60,KMCJ 191755Z AUTO 35011G17KT 9SM CLR 12/M10 A3047 RMK A01,M
MCJ,2020-01-19 18:15,55.40,14.00,19.16,20.00,13.00,0.00,30.46,M,10.00,19.00,CLR,M,M,M,M,M,M,M,M,M,M,M,M,M,M,55.40,KMCJ 191815Z AUTO 02013G19KT 10SM CLR 13/M10 A3046 RMK A01,M
MCJ,2020-01-19 18:35,55.40,15.80,20.73,350.00,10.00,0.00,30.45,M,10.00,16.00,CLR,M,M,M,M,M,M,M,M,M,M,M,M,M,M,55.40,KMCJ 191835Z AUTO 35010G16KT 320V020 10SM CLR 13/M09 A3045 RMK A01,M
MCJ,2020-01-19 18:55,57.20,14.00,17.95,20.00,16.00,0.00,30.44,M,10.00,M,CLR,M,M,M,M,M,M,M,M,M,M,M,M,M,M,57.20,KMCJ 191855Z AUTO 02016KT 10SM CLR 14/M10 A3044 RMK A01,M
MCJ,2020-01-19 19:15,57.20,12.20,16.58,360.00,10.00,0.00,30.42,M,10.00,20.00,CLR,M,M,M,M,M,M,M,M,M,M,M,M,M,M,57.20,KMCJ 191915Z AUTO 36010G20KT 310V050 10SM CLR 14/M11 A3042 RMK A01,M
MCJ,2020-01-19 19:35,59.00,14.00,16.83,30.00,15.00,0.00,30.41,M,10.00,M,CLR,M,M,M,M,M,M,M,M,M,M,M,M,M,M,59.00,KMCJ 191935Z AUTO 03015KT 10SM CLR 15/M10 A3041 RMK A01,M
MCJ,2020-01-19 19:55,59.00,12.20,15.55,20.00,16.00,0.00,30.40,M,10.00,23.00,CLR,M,M,M,M,M,M,M,M,M,M,M,M,M,M,59.00,KMCJ 191955Z AUTO 02016G23KT 10SM CLR 15/M11 A3040 RMK A01,M
MCJ,2020-01-19 20:15,60.80,14.00,15.78,20.00,11.00,0.00,30.40,M,10.00,16.00,CLR,M,M,M,M,M,M,M,M,M,M,M,M,M,M,60.80,KMCJ 192015Z AUTO 02011G16KT 10SM CLR 16/M10 A3040 RMK A01,M
MCJ,2020-01-19 20:35,60.80,14.00,15.78,30.00,12.00,0.00,30.39,M,10.00,19.00,CLR,M,M,M,M,M,M,M,M,M,M,M,M,M,M,60.80,KMCJ 192035Z AUTO 03012G19KT 350V050 10SM CLR 16/M10 A3039 RMK A01,M
MCJ,2020-01-19 20:55,60.80,14.00,15.78,10.00,8.00,0.00,30.39,M,10.00,18.00,CLR,M,M,M,M,M,M,M,M,M,M,M,M,M,M,60.80,KMCJ 192055Z AUTO 01008G18KT 350V050 10SM CLR 16/M10 A3039 RMK A01,M
MCJ,2020-01-19 21:15,60.80,14.00,15.78,30.00,12.00,0.00,30.39,M,10.00,19.00,CLR,M,M,M,M,M,M,M,M,M,M,M,M,M,M,60.80,KMCJ 192115Z AUTO 03012G19KT 10SM CLR 16/M10 A3039 RMK A01,M
MCJ,2020-01-19 21:35,60.80,15.80,17.07,30.00,11.00,0.00,30.39,M,10.00,M,CLR,M,M,M,M,M,M,M,M,M,M,M,M,M,M,60.80,KMCJ 192135Z AUTO 03011KT 10SM CLR 16/M09 A3039 RMK A01,M
MCJ,2020-01-19 21:55,60.80,15.80,17.07,30.00,13.00,0.00,30.39,M,10.00,24.00,CLR,M,M,M,M,M,M,M,M,M,M,M,M,M,M,60.80,KMCJ 192155Z AUTO 03013G24KT 340V050 10SM CLR 16/M09 A3039 RMK A01,M
MCJ,2020-01-19 22:15,60.80,15.80,17.07,30.00,15.00,0.00,30.39,M,9.00,M,CLR,M,M,M,M,M,M,M,M,M,M,M,M,M,M,60.80,KMCJ 192215Z AUTO 03015KT 9SM CLR 16/M09 A3039 RMK A01,M
MCJ,2020-01-19 22:35,60.80,17.60,18.46,350.00,7.00,0.00,30.39,M,10.00,17.00,CLR,M,M,M,M,M,M,M,M,M,M,M,M,M,M,60.80,KMCJ 192235Z AUTO 35007G17KT 330V030 10SM CLR 16/M08 A3039 RMK A01,M
MCJ,2020-01-19 22:55,59.00,17.60,19.68,20.00,14.00,0.00,30.40,M,10.00,M,CLR,M,M,M,M,M,M,M,M,M,M,M,M,M,M,59.00,KMCJ 192255Z AUTO 02014KT 10SM CLR 15/M08 A3040 RMK A01,M
MCJ,2020-01-19 23:15,59.00,17.60,19.68,360.00,15.00,0.00,30.40,M,10.00,M,CLR,M,M,M,M,M,M,M,M,M,M,M,M,M,M,59.00,KMCJ 192315Z AUTO 36015KT 10SM CLR 15/M08 A3040 RMK A01,M
MCJ,2020-01-19 23:35,57.20,17.60,20.99,360.00,14.00,0.00,30.41,M,10.00,19.00,CLR,M,M,M,M,M,M,M,M,M,M,M,M,M,M,57.20,KMCJ 192335Z AUTO 36014G19KT 10SM CLR 14/M08 A3041 RMK A01,M
MCJ,2020-01-19 23:55,55.40,17.60,22.41,10.00,6.00,0.00,30.41,M,10.00,12.00,CLR,M,M,M,M,M,M,M,M,M,M,M,M,M,M,55.40,KMCJ 192355Z AUTO 01006G12KT 10SM CLR 13/M08 A3041 RMK A01,M
MCJ,2020-01-20 00:15,55.40,19.40,24.21,M,6.00,0.00,30.42,M,10.00,12.00,CLR,M,M,M,M,M,M,M,M,M,M,M,M,M,M,55.40,KMCJ 200015Z AUTO VRB06G12KT 10SM CLR 13/M07 A3042 RMK A01,M
MCJ,2020-01-20 00:35,53.60,21.20,27.91,360.00,11.00,0.00,30.43,M,10.00,M,CLR,M,M,M,M,M,M,M,M,M,M,M,M,M,M,53.60,KMCJ 200035Z AUTO 36011KT 10SM CLR 12/M06 A3043 RMK A01,M
MCJ,2020-01-20 00:55,53.60,21.20,27.91,360.00,7.00,0.00,30.43,M,10.00,13.00,CLR,M,M,M,M,M,M,M,M,M,M,M,M,M,M,53.60,KMCJ 200055Z AUTO 36007G13KT 10SM CLR 12/M06 A3043 RMK A01,M
MCJ,2020-01-20 01:15,53.60,21.20,27.91,350.00,8.00,0.00,30.43,M,10.00,13.00,CLR,M,M,M,M,M,M,M,M,M,M,M,M,M,M,53.60,KMCJ 200115Z AUTO 35008G13KT 10SM CLR 12/M06 A3043 RMK A01,M
MCJ,2020-01-20 01:35,53.60,23.00,30.11,350.00,9.00,0.00,30.44,M,10.00,M,CLR,M,M,M,M,M,M,M,M,M,M,M,M,M,M,53.60,KMCJ 200135Z AUTO 35009KT 10SM CLR 12/M05 A3044 RMK A01,M
MCJ,2020-01-20 01:55,51.80,23.00,32.17,350.00,8.00,0.00,30.45,M,10.00,M,CLR,M,M,M,M,M,M,M,M,M,M,M,M,M,M,51.80,KMCJ 200155Z AUTO 35008KT 10SM CLR 11/M05 A3045 RMK A01,M
MCJ,2020-01-20 02:15,51.80,23.00,32.17,350.00,9.00,0.00,30.45,M,10.00,M,CLR,M,M,M,M,M,M,M,M,M,M,M,M,M,M,51.80,KMCJ 200215Z AUTO 35009KT 10SM CLR 11/M05 A3045 RMK A01,M
MCJ,2020-01-20 02:35,51.80,23.00,32.17,360.00,8.00,0.00,30.46,M,10.00,M,CLR,M,M,M,M,M,M,M,M,M,M,M,M,M,M,51.80,KMCJ 200235Z AUTO 36008KT 10SM CLR 11/M05 A3046 RMK A01,M
MCJ,2020-01-20 02:55,51.80,23.00,32.17,10.00,9.00,0.00,30.46,M,10.00,M,CLR,M,M,M,M,M,M,M,M,M,M,M,M,M,M,51.80,KMCJ 200255Z AUTO 01009KT 10SM CLR 11/M05 A3046 RMK A01,M
MCJ,2020-01-20 03:15,51.80,23.00,32.17,360.00,8.00,0.00,30.46,M,10.00,M,CLR,M,M,M,M,M,M,M,M,M,M,M,M,M,M,51.80,KMCJ 200315Z AUTO 36008KT 10SM CLR 11/M05 A3046 RMK A01,M
MCJ,2020-01-20 03:35,51.80,23.00,32.17,360.00,7.00,0.00,30.47,M,10.00,M,CLR,M,M,M,M,M,M,M,M,M,M,M,M,M,M,51.80,KMCJ 200335Z AUTO 36007KT 10SM CLR 11/M05 A3047 RMK A01,M
MCJ,2020-01-20 03:55,50.00,24.80,37.08,360.00,9.00,0.00,30.47,M,10.00,M,CLR,M,M,M,M,M,M,M,M,M,M,M,M,M,M,45.90,KMCJ 200355Z AUTO 36009KT 340V040 10SM CLR 10/M04 A3047 RMK A01,M
MCJ,2020-01-20 04:15,50.00,24.80,37.08,350.00,8.00,0.00,30.48,M,10.00,M,CLR,M,M,M,M,M,M,M,M,M,M,M,M,M,M,46.29,KMCJ 200415Z AUTO 35008KT 10SM CLR 10/M04 A3048 RMK A01,M
MCJ,2020-01-20 04:35,50.00,24.80,37.08,350.00,8.00,0.00,30.48,M,10.00,M,CLR,M,M,M,M,M,M,M,M,M,M,M,M,M,M,46.29,KMCJ 200435Z AUTO 35008KT 10SM CLR 10/M04 A3048 RMK A01,M
MCJ,2020-01-20 04:55,48.20,24.80,39.66,350.00,8.00,0.00,30.49,M,10.00,M,CLR,M,M,M,M,M,M,M,M,M,M,M,M,M,M,44.07,KMCJ 200455Z AUTO 35008KT 10SM CLR 09/M04 A3049 RMK A01,M
MCJ,2020-01-20 05:15,48.20,24.80,39.66,350.00,8.00,0.00,30.49,M,10.00,M,CLR,M,M,M,M,M,M,M,M,M,M,M,M,M,M,44.07,KMCJ 200515Z AUTO 35008KT 10SM CLR 09/M04 A3049 RMK A01,M
MCJ,2020-01-20 05:35,48.20,24.80,39.66,350.00,7.00,0.00,30.49,M,10.00,M,CLR,M,M,M,M,M,M,M,M,M,M,M,M,M,M,44.53,KMCJ 200535Z AUTO 35007KT 10SM CLR 09/M04 A3049 RMK A01,M
MCJ,2020-01-20 05:55,48.20,24.80,39.66,350.00,8.00,0.00,30.50,M,10.00,M,CLR,M,M,M,M,M,M,M,M,M,M,M,M,M,M,44.07,KMCJ 200555Z AUTO 35008KT 10SM CLR 09/M04 A3050 RMK A01,M
MCJ,2020-01-20 06:15,46.40,26.60,45.73,350.00,8.00,0.00,30.50,M,10.00,M,CLR,M,M,M,M,M,M,M,M,M,M,M,M,M,M,41.85,KMCJ 200615Z AUTO 35008KT 10SM CLR 08/M03 A3050 RMK A01,M
MCJ,2020-01-20 06:35,46.40,24.80,42.44,350.00,9.00,0.00,30.49,M,10.00,M,CLR,M,M,M,M,M,M,M,M,M,M,M,M,M,M,41.42,KMCJ 200635Z AUTO 35009KT 10SM CLR 08/M04 A3049 RMK A01,M
MCJ,2020-01-20 06:55,46.40,26.60,45.73,350.00,10.00,0.00,30.50,M,10.00,M,CLR,M,M,M,M,M,M,M,M,M,M,M,M,M,M,41.03,KMCJ 200655Z AUTO 35010KT 10SM CLR 08/M03 A3050 RMK A01,M
MCJ,2020-01-20 07:15,46.40,26.60,45.73,350.00,10.00,0.00,30.49,M,10.00,M,CLR,M,M,M,M,M,M,M,M,M,M,M,M,M,M,41.03,KMCJ 200715Z AUTO 35010KT 10SM CLR 08/M03 A3049 RMK A01,M
MCJ,2020-01-20 07:35,46.40,26.60,45.73,350.00,8.00,0.00,30.50,M,10.00,M,CLR,M,M,M,M,M,M,M,M,M,M,M,M,M,M,41.85,KMCJ 200735Z AUTO 35008KT 10SM CLR 08/M03 A3050 RMK A01,M
MCJ,2020-01-20 07:55,46.40,26.60,45.73,350.00,8.00,0.00,30.50,M,10.00,M,CLR,M,M,M,M,M,M,M,M,M,M,M,M,M,M,41.85,KMCJ 200755Z AUTO 35008KT 10SM CLR 08/M03 A3050 RMK A01,M
MCJ,2020-01-20 08:15,46.40,26.60,45.73,360.00,6.00,0.00,30.50,M,10.00,M,CLR,M,M,M,M,M,M,M,M,M,M,M,M,M,M,42.87,KMCJ 200815Z AUTO 36006KT 10SM CLR 08/M03 A3050 RMK A01,M
MCJ,2020-01-20 08:35,44.60,28.40,52.72,350.00,7.00,0.00,30.50,M,10.00,M,CLR,M,M,M,M,M,M,M,M,M,M,M,M,M,M,40.14,KMCJ 200835Z AUTO 35007KT 10SM CLR 07/M02 A3050 RMK A01,M
MCJ,2020-01-20 08:55,44.60,28.40,52.72,350.00,7.00,0.00,30.50,M,10.00,M,CLR,M,M,M,M,M,M,M,M,M,M,M,M,M,M,40.14,KMCJ 200855Z AUTO 35007KT 10SM CLR 07/M02 A3050 RMK A01,M
MCJ,2020-01-20 09:15,44.60,28.40,52.72,350.00,8.00,0.00,30.50,M,10.00,M,CLR,M,M,M,M,M,M,M,M,M,M,M,M,M,M,39.63,KMCJ 200915Z AUTO 35008KT 10SM CLR 07/M02 A3050 RMK A01,M
MCJ,2020-01-20 09:35,44.60,26.60,48.96,350.00,8.00,0.00,30.50,M,10.00,M,CLR,M,M,M,M,M,M,M,M,M,M,M,M,M,M,39.63,KMCJ 200935Z AUTO 35008KT 10SM CLR 07/M03 A3050 RMK A01,M
MCJ,2020-01-20 09:55,44.60,26.60,48.96,350.00,9.00,0.00,30.50,M,10.00,M,CLR,M,M,M,M,M,M,M,M,M,M,M,M,M,M,39.18,KMCJ 200955Z AUTO 35009KT 10SM CLR 07/M03 A3050 RMK A01,M
MCJ,2020-01-20 10:15,44.60,24.80,45.44,350.00,8.00,0.00,30.50,M,10.00,M,CLR,M,M,M,M,M,M,M,M,M,M,M,M,M,M,39.63,KMCJ 201015Z AUTO 35008KT 10SM CLR 07/M04 A3050 RMK A01,M
MCJ,2020-01-20 10:35,42.80,26.60,52.45,360.00,7.00,0.00,30.50,M,10.00,14.00,CLR,M,M,M,M,M,M,M,M,M,M,M,M,M,M,37.94,KMCJ 201035Z AUTO 36007G14KT 10SM CLR 06/M03 A3050 RMK A01,M
MCJ,2020-01-20 10:55,42.80,24.80,48.67,350.00,9.00,0.00,30.50,M,10.00,M,CLR,M,M,M,M,M,M,M,M,M,M,M,M,M,M,36.94,KMCJ 201055Z AUTO 35009KT 10SM CLR 06/M04 A3050 RMK A01,M
MCJ,2020-01-20 11:15,42.80,24.80,48.67,360.00,10.00,0.00,30.51,M,10.00,M,CLR,M,M,M,M,M,M,M,M,M,M,M,M,M,M,36.51,KMCJ 201115Z AUTO 36010KT 10SM CLR 06/M04 A3051 RMK A01,M
MCJ,2020-01-20 11:35,42.80,24.80,48.67,360.00,7.00,0.00,30.52,M,10.00,M,CLR,M,M,M,M,M,M,M,M,M,M,M,M,M,M,37.94,KMCJ 201135Z AUTO 36007KT 10SM CLR 06/M04 A3052 RMK A01,M
MCJ,2020-01-20 11:55,42.80,24.80,48.67,360.00,8.00,0.00,30.53,M,10.00,M,CLR,M,M,M,M,M,M,M,M,M,M,M,M,M,M,37.42,KMCJ 201155Z AUTO 36008KT 10SM CLR 06/M04 A3053 RMK A01,M
MCJ,2020-01-20 12:15,42.80,24.80,48.67,350.00,7.00,0.00,30.54,M,10.00,M,CLR,M,M,M,M,M,M,M,M,M,M,M,M,M,M,37.94,KMCJ 201215Z AUTO 35007KT 10SM CLR 06/M04 A3054 RMK A01,M
MCJ,2020-01-20 12:35,44.60,23.00,42.14,360.00,5.00,0.00,30.55,M,10.00,M,CLR,M,M,M,M,M,M,M,M,M,M,M,M,M,M,41.36,KMCJ 201235Z AUTO 36005KT 10SM CLR 07/M05 A3055 RMK A01,M
MCJ,2020-01-20 12:55,44.60,23.00,42.14,M,3.00,0.00,30.55,M,10.00,M,CLR,M,M,M,M,M,M,M,M,M,M,M,M,M,M,43.09,KMCJ 201255Z AUTO VRB03KT 10SM CLR 07/M05 A3055 RMK A01,M
MCJ,2020-01-20 13:15,44.60,23.00,42.14,30.00,6.00,0.00,30.56,M,10.00,M,CLR,M,M,M,M,M,M,M,M,M,M,M,M,M,M,40.71,KMCJ 201315Z AUTO 03006KT 10SM CLR 07/M05 A3056 RMK A01,M
MCJ,2020-01-20 13:35,44.60,23.00,42.14,30.00,4.00,0.00,30.56,M,10.00,M,CLR,M,M,M,M,M,M,M,M,M,M,M,M,M,M,42.13,KMCJ 201335Z AUTO 03004KT 10SM CLR 07/M05 A3056 RMK A01,M
MCJ,2020-01-20 13:55,44.60,23.00,42.14,360.00,8.00,0.00,30.56,M,10.00,13.00,CLR,M,M,M,M,M,M,M,M,M,M,M,M,M,M,39.63,KMCJ 201355Z AUTO 36008G13KT 10SM CLR 07/M05 A3056 RMK A01,M
MCJ,2020-01-20 14:15,44.60,24.80,45.44,360.00,8.00,0.00,30.57,M,10.00,M,CLR,M,M,M,M,M,M,M,M,M,M,M,M,M,M,39.63,KMCJ 201415Z AUTO 36008KT 10SM CLR 07/M04 A3057 RMK A01,M
MCJ,2020-01-20 14:35,44.60,23.00,42.14,M,6.00,0.00,30.57,M,10.00,14.00,CLR,M,M,M,M,M,M,M,M,M,M,M,M,M,M,40.71,KMCJ 201435Z AUTO VRB06G14KT 10SM CLR 07/M05 A3057 RMK A01,M
MCJ,2020-01-20 14:55,44.60,23.00,42.14,350.00,8.00,0.00,30.58,M,10.00,14.00,CLR,M,M,M,M,M,M,M,M,M,M,M,M,M,M,39.63,KMCJ 201455Z AUTO 35008G14KT 290V030 10SM CLR 07/M05 A3058 RMK A01,M
MCJ,2020-01-20 15:15,46.40,21.20,36.48,20.00,9.00,0.00,30.58,M,10.00,M,CLR,M,M,M,M,M,M,M,M,M,M,M,M,M,M,41.42,KMCJ 201515Z AUTO 02009KT 10SM CLR 08/M06 A3058 RMK A01,M
MCJ,2020-01-20 15:35,48.20,21.20,34.09,360.00,7.00,0.00,30.58,M,10.00,13.00,CLR,M,M,M,M,M,M,M,M,M,M,M,M,M,M,44.53,KMCJ 201535Z AUTO 36007G13KT 10SM CLR 09/M06 A3058 RMK A01,M
MCJ,2020-01-20 15:55,50.00,21.20,31.87,360.00,9.00,0.00,30.58,M,10.00,M,CLR,M,M,M,M,M,M,M,M,M,M,M,M,M,M,45.90,KMCJ 201555Z AUTO 36009KT 10SM CLR 10/M06 A3058 RMK A01,M
MCJ,2020-01-20 16:15,50.00,21.20,31.87,350.00,9.00,0.00,30.58,M,10.00,M,CLR,M,M,M,M,M,M,M,M,M,M,M,M,M,M,45.90,KMCJ 201615Z AUTO 35009KT 10SM CLR 10/M06 A3058 RMK A01,M
MCJ,2020-01-20 16:35,51.80,21.20,29.82,10.00,8.00,0.00,30.57,M,10.00,M,CLR,M,M,M,M,M,M,M,M,M,M,M,M,M,M,51.80,KMCJ 201635Z AUTO 01008KT 10SM CLR 11/M06 A3057 RMK A01,M
MCJ,2020-01-20 16:55,51.80,19.40,27.62,360.00,7.00,0.00,30.57,M,9.00,M,CLR,M,M,M,M,M,M,M,M,M,M,M,M,M,M,51.80,KMCJ 201655Z AUTO 36007KT 350V050 9SM CLR 11/M07 A3057 RMK A01,M
MCJ,2020-01-20 17:15,53.60,19.40,25.85,10.00,9.00,0.00,30.56,M,10.00,M,CLR,M,M,M,M,M,M,M,M,M,M,M,M,M,M,53.60,KMCJ 201715Z AUTO 01009KT 10SM CLR 12/M07 A3056 RMK A01,M
MCJ,2020-01-20 17:35,55.40,21.20,26.13,350.00,10.00,0.00,30.55,M,10.00,M,CLR,M,M,M,M,M,M,M,M,M,M,M,M,M,M,55.40,KMCJ 201735Z AUTO 35010KT 330V040 10SM CLR 13/M06 A3055 RMK A01,M
MCJ,2020-01-20 17:55,55.40,19.40,24.21,10.00,10.00,0.00,30.54,M,10.00,16.00,CLR,M,M,M,M,M,M,M,M,M,M,M,M,M,M,55.40,KMCJ 201755Z AUTO 01010G16KT 350V050 10SM CLR 13/M07 A3054 RMK A01,M
MCJ,2020-01-20 18:15,57.20,19.40,22.68,20.00,6.00,0.00,30.53,M,10.00,12.00,CLR,M,M,M,M,M,M,M,M,M,M,M,M,M,M,57.20,KMCJ 201815Z AUTO 02006G12KT 10SM CLR 14/M07 A3053 RMK A01,M
MCJ,2020-01-20 18:35,57.20,19.40,22.68,360.00,13.00,0.00,30.52,M,10.00,18.00,CLR,M,M,M,M,M,M,M,M,M,M,M,M,M,M,57.20,KMCJ 201835Z AUTO 36013G18KT 10SM CLR 14/M07 A3052 RMK A01,M
MCJ,2020-01-20 18:55,59.00,19.40,21.26,360.00,10.00,0.00,30.51,M,10.00,M,CLR,M,M,M,M,M,M,M,M,M,M,M,M,M,M,59.00,KMCJ 201855Z AUTO 36010KT 340V040 10SM CLR 15/M07 A3051 RMK A01,M
MCJ,2020-01-20 19:15,59.00,21.20,22.95,350.00,7.00,0.00,30.50,M,10.00,14.00,CLR,M,M,M,M,M,M,M,M,M,M,M,M,M,M,59.00,KMCJ 201915Z AUTO 35007G14KT 310V040 10SM CLR 15/M06 A3050 RMK A01,M
MCJ,2020-01-20 19:35,59.00,21.20,22.95,350.00,11.00,0.00,30.49,M,10.00,M,CLR,M,M,M,M,M,M,M,M,M,M,M,M,M,M,59.00,KMCJ 201935Z AUTO 35011KT 340V040 10SM CLR 15/M06 A3049 RMK A01,M
MCJ,2020-01-20 19:55,59.00,21.20,22.95,340.00,9.00,0.00,30.48,M,10.00,15.00,CLR,M,M,M,M,M,M,M,M,M,M,M,M,M,M,59.00,KMCJ 201955Z AUTO 34009G15KT 10SM CLR 15/M06 A3048 RMK A01,M
MCJ,2020-01-20 20:15,60.80,21.20,21.53,350.00,9.00,0.00,30.48,M,10.00,15.00,CLR,M,M,M,M,M,M,M,M,M,M,M,M,M,M,60.80,KMCJ 202015Z AUTO 35009G15KT 10SM CLR 16/M06 A3048 RMK A01,M
MCJ,2020-01-20 20:35,60.80,21.20,21.53,340.00,9.00,0.00,30.47,M,10.00,16.00,CLR,M,M,M,M,M,M,M,M,M,M,M,M,M,M,60.80,KMCJ 202035Z AUTO 34009G16KT 10SM CLR 16/M06 A3047 RMK A01,M
MCJ,2020-01-20 20:55,60.80,21.20,21.53,30.00,5.00,0.00,30.47,M,10.00,M,CLR,M,M,M,M,M,M,M,M,M,M,M,M,M,M,60.80,KMCJ 202055Z AUTO 03005KT 10SM CLR 16/M06 A3047 RMK A01,M
MCJ,2020-01-20 21:15,60.80,23.00,23.23,360.00,8.00,0.00,30.46,M,10.00,M,CLR,M,M,M,M,M,M,M,M,M,M,M,M,M,M,60.80,KMCJ 202115Z AUTO 36008KT 10SM CLR 16/M05 A3046 RMK A01,M
MCJ,2020-01-20 21:35,60.80,21.20,21.53,350.00,7.00,0.00,30.46,M,10.00,13.00,CLR,M,M,M,M,M,M,M,M,M,M,M,M,M,M,60.80,KMCJ 202135Z AUTO 35007G13KT 10SM CLR 16/M06 A3046 RMK A01,M
MCJ,2020-01-20 21:55,60.80,23.00,23.23,350.00,7.00,0.00,30.46,M,10.00,M,CLR,M,M,M,M,M,M,M,M,M,M,M,M,M,M,60.80,KMCJ 202155Z AUTO 35007KT 320V020 10SM CLR 16/M05 A3046 RMK A01,M
MCJ,2020-01-20 22:15,60.80,21.20,21.53,360.00,9.00,0.00,30.46,M,10.00,M,CLR,M,M,M,M,M,M,M,M,M,M,M,M,M,M,60.80,KMCJ 202215Z AUTO 36009KT 10SM CLR 16/M06 A3046 RMK A01,M
MCJ,2020-01-20 22:35,60.80,23.00,23.23,340.00,8.00,0.00,30.46,M,10.00,M,CLR,M,M,M,M,M,M,M,M,M,M,M,M,M,M,60.80,KMCJ 202235Z AUTO 34008KT 10SM CLR 16/M05 A3046 RMK A01,M
MCJ,2020-01-20 22:55,60.80,21.20,21.53,20.00,8.00,0.00,30.46,M,10.00,M,CLR,M,M,M,M,M,M,M,M,M,M,M,M,M,M,60.80,KMCJ 202255Z AUTO 02008KT 10SM CLR 16/M06 A3046 RMK A01,M
MCJ,2020-01-20 23:15,59.00,21.20,22.95,0.00,0.00,0.00,30.46,M,10.00,M,CLR,M,M,M,M,M,M,M,M,M,M,M,M,M,M,59.00,KMCJ 202315Z AUTO 00000KT 10SM CLR 15/M06 A3046 RMK A01,M
MCJ,2020-01-20 23:35,57.20,23.00,26.42,0.00,0.00,0.00,30.47,M,10.00,11.00,CLR,M,M,M,M,M,M,M,M,M,M,M,M,M,M,57.20,KMCJ 202335Z AUTO 00000G11KT 10SM CLR 14/M05 A3047 RMK A01,M
MCJ,2020-01-20 23:55,57.20,21.20,24.49,10.00,5.00,0.00,30.46,M,10.00,12.00,CLR,M,M,M,M,M,M,M,M,M,M,M,M,M,M,57.20,KMCJ 202355Z AUTO 01005G12KT 10SM CLR 14/M06 A3046 RMK A01,M
MCJ,2020-01-21 00:15,55.40,21.20,26.13,350.00,6.00,0.00,30.46,M,10.00,M,CLR,M,M,M,M,M,M,M,M,M,M,M,M,M,M,55.40,KMCJ 210015Z AUTO 35006KT 10SM CLR 13/M06 A3046 RMK A01,M
MCJ,2020-01-21 00:35,55.40,21.20,26.13,360.00,7.00,0.00,30.46,M,10.00,M,CLR,M,M,M,M,M,M,M,M,M,M,M,M,M,M,55.40,KMCJ 210035Z AUTO 36007KT 10SM CLR 13/M06 A3046 RMK A01,M
MCJ,2020-01-21 00:55,55.40,21.20,26.13,360.00,5.00,0.00,30.47,M,10.00,11.00,CLR,M,M,M,M,M,M,M,M,M,M,M,M,M,M,55.40,KMCJ 210055Z AUTO 36005G11KT 10SM CLR 13/M06 A3047 RMK A01,M
MCJ,2020-01-21 01:15,55.40,23.00,28.20,20.00,4.00,0.00,30.47,M,10.00,M,CLR,M,M,M,M,M,M,M,M,M,M,M,M,M,M,55.40,KMCJ 210115Z AUTO 02004KT 10SM CLR 13/M05 A3047 RMK A01,M
MCJ,2020-01-21 01:35,55.40,23.00,28.20,30.00,6.00,0.00,30.47,M,10.00,M,CLR,M,M,M,M,M,M,M,M,M,M,M,M,M,M,55.40,KMCJ 210135Z AUTO 03006KT 10SM CLR 13/M05 A3047 RMK A01,M
MCJ,2020-01-21 01:55,53.60,23.00,30.11,20.00,6.00,0.00,30.47,M,10.00,M,CLR,M,M,M,M,M,M,M,M,M,M,M,M,M,M,53.60,KMCJ 210155Z AUTO 02006KT 10SM CLR 12/M05 A3047 RMK A01,M
MCJ,2020-01-21 02:15,53.60,23.00,30.11,20.00,7.00,0.00,30.47,M,10.00,M,CLR,M,M,M,M,M,M,M,M,M,M,M,M,M,M,53.60,KMCJ 210215Z AUTO 02007KT 10SM CLR 12/M05 A3047 RMK A01,M
MCJ,2020-01-21 02:35,53.60,23.00,30.11,20.00,8.00,0.00,30.47,M,10.00,M,CLR,M,M,M,M,M,M,M,M,M,M,M,M,M,M,53.60,KMCJ 210235Z AUTO 02008KT 10SM CLR 12/M05 A3047 RMK A01,M
MCJ,2020-01-21 02:55,53.60,24.80,32.46,30.00,7.00,0.00,30.48,M,10.00,M,CLR,M,M,M,M,M,M,M,M,M,M,M,M,M,M,53.60,KMCJ 210255Z AUTO 03007KT 10SM CLR 12/M04 A3048 RMK A01,M
MCJ,2020-01-21 03:15,51.80,24.80,34.69,30.00,7.00,0.00,30.48,M,10.00,M,CLR,M,M,M,M,M,M,M,M,M,M,M,M,M,M,51.80,KMCJ 210315Z AUTO 03007KT 10SM CLR 11/M04 A3048 RMK A01,M
MCJ,2020-01-21 03:35,51.80,24.80,34.69,30.00,7.00,0.00,30.47,M,10.00,M,CLR,M,M,M,M,M,M,M,M,M,M,M,M,M,M,51.80,KMCJ 210335Z AUTO 03007KT 10SM CLR 11/M04 A3047 RMK A01,M
MCJ,2020-01-21 03:55,51.80,26.60,37.38,40.00,6.00,0.00,30.47,M,10.00,M,CLR,M,M,M,M,M,M,M,M,M,M,M,M,M,M,51.80,KMCJ 210355Z AUTO 04006KT 10SM CLR 11/M03 A3047 RMK A01,M
MCJ,2020-01-21 04:15,51.80,26.60,37.38,50.00,5.00,0.00,30.48,M,10.00,M,CLR,M,M,M,M,M,M,M,M,M,M,M,M,M,M,51.80,KMCJ 210415Z AUTO 05005KT 10SM CLR 11/M03 A3048 RMK A01,M
MCJ,2020-01-21 04:35,51.80,24.80,34.69,40.00,6.00,0.00,30.48,M,10.00,M,CLR,M,M,M,M,M,M,M,M,M,M,M,M,M,M,51.80,KMCJ 210435Z AUTO 04006KT 10SM CLR 11/M04 A3048 RMK A01,M
MCJ,2020-01-21 04:55,50.00,26.60,39.95,50.00,5.00,0.00,30.48,M,10.00,M,CLR,M,M,M,M,M,M,M,M,M,M,M,M,M,M,47.77,KMCJ 210455Z AUTO 05005KT 10SM CLR 10/M03 A3048 RMK A01,M
MCJ,2020-01-21 05:15,50.00,24.80,37.08,50.00,5.00,0.00,30.49,M,10.00,M,CLR,M,M,M,M,M,M,M,M,M,M,M,M,M,M,47.77,KMCJ 210515Z AUTO 05005KT 10SM CLR 10/M04 A3049 RMK A01,M
MCJ,2020-01-21 05:35,50.00,26.60,39.95,50.00,5.00,0.00,30.49,M,10.00,M,CLR,M,M,M,M,M,M,M,M,M,M,M,M,M,M,47.77,KMCJ 210535Z AUTO 05005KT 10SM CLR 10/M03 A3049 RMK A01,M
MCJ,2020-01-21 05:55,50.00,26.60,39.95,60.00,5.00,0.00,30.49,M,10.00,M,CLR,M,M,M,M,M,M,M,M,M,M,M,M,M,M,47.77,KMCJ 210555Z AUTO 06005KT 10SM CLR 10/M03 A3049 RMK A01,M
MCJ,2020-01-21 06:15,50.00,26.60,39.95,50.00,6.00,0.00,30.50,M,10.00,M,CLR,M,M,M,M,M,M,M,M,M,M,M,M,M,M,47.21,KMCJ 210615Z AUTO 05006KT 10SM CLR 10/M03 A3050 RMK A01,M
MCJ,2020-01-21 06:35,50.00,26.60,39.95,50.00,4.00,0.00,30.50,M,10.00,M,CLR,M,M,M,M,M,M,M,M,M,M,M,M,M,M,48.44,KMCJ 210635Z AUTO 05004KT 10SM CLR 10/M03 A3050 RMK A01,M
MCJ,2020-01-21 06:55,48.20,26.60,42.73,50.00,5.00,0.00,30.50,M,10.00,M,CLR,M,M,M,M,M,M,M,M,M,M,M,M,M,M,45.63,KMCJ 210655Z AUTO 05005KT 10SM CLR 09/M03 A3050 RMK A01,M
MCJ,2020-01-21 07:15,48.20,28.40,46.02,0.00,0.00,0.00,30.49,M,10.00,M,CLR,M,M,M,M,M,M,M,M,M,M,M,M,M,M,48.20,KMCJ 210715Z AUTO 00000KT 10SM CLR 09/M02 A3049 RMK A01,M
MCJ,2020-01-21 07:35,48.20,28.40,46.02,0.00,0.00,0.00,30.48,M,10.00,M,CLR,M,M,M,M,M,M,M,M,M,M,M,M,M,M,48.20,KMCJ 210735Z AUTO 00000KT 10SM CLR 09/M02 A3048 RMK A01,M
MCJ,2020-01-21 07:55,48.20,28.40,46.02,M,3.00,0.00,30.47,M,10.00,M,CLR,M,M,M,M,M,M,M,M,M,M,M,M,M,M,47.21,KMCJ 210755Z AUTO VRB03KT 10SM CLR 09/M02 A3047 RMK A01,M
MCJ,2020-01-21 08:15,48.20,30.20,49.53,M,4.00,0.00,30.47,M,10.00,M,CLR,M,M,M,M,M,M,M,M,M,M,M,M,M,M,46.34,KMCJ 210815Z AUTO VRB04KT 10SM CLR 09/M01 A3047 RMK A01,M
MCJ,2020-01-21 08:35,48.20,30.20,49.53,M,4.00,0.00,30.47,M,10.00,11.00,CLR,M,M,M,M,M,M,M,M,M,M,M,M,M,M,46.34,KMCJ 210835Z AUTO VRB04G11KT 10SM CLR 09/M01 A3047 RMK A01,M
MCJ,2020-01-21 08:55,46.40,30.20,53.00,0.00,0.00,0.00,30.47,M,10.00,M,CLR,M,M,M,M,M,M,M,M,M,M,M,M,M,M,46.40,KMCJ 210855Z AUTO 00000KT 10SM CLR 08/M01 A3047 RMK A01,M
MCJ,2020-01-21 09:15,48.20,28.40,46.02,0.00,0.00,0.00,30.47,M,10.00,M,CLR,M,M,M,M,M,M,M,M,M,M,M,M,M,M,48.20,KMCJ 210915Z AUTO 00000KT 10SM CLR 09/M02 A3047 RMK A01,M
MCJ,2020-01-21 09:35,48.20,28.40,46.02,0.00,0.00,0.00,30.47,M,10.00,M,CLR,M,M,M,M,M,M,M,M,M,M,M,M,M,M,48.20,KMCJ 210935Z AUTO 00000KT 10SM CLR 09/M02 A3047 RMK A01,M
MCJ,2020-01-21 09:55,48.20,30.20,49.53,0.00,0.00,0.00,30.47,M,10.00,M,CLR,M,M,M,M,M,M,M,M,M,M,M,M,M,M,48.20,KMCJ 210955Z AUTO 00000KT 10SM CLR 09/M01 A3047 RMK A01,M
MCJ,2020-01-21 10:15,46.40,30.20,53.00,0.00,0.00,0.00,30.47,M,10.00,M,CLR,M,M,M,M,M,M,M,M,M,M,M,M,M,M,46.40,KMCJ 211015Z AUTO 00000KT 10SM CLR 08/M01 A3047 RMK A01,M
MCJ,2020-01-21 10:35,46.40,30.20,53.00,0.00,0.00,0.00,30.47,M,10.00,M,CLR,M,M,M,M,M,M,M,M,M,M,M,M,M,M,46.40,KMCJ 211035Z AUTO 00000KT 10SM CLR 08/M01 A3047 RMK A01,M
MCJ,2020-01-21 10:55,46.40,30.20,53.00,0.00,0.00,0.00,30.47,M,10.00,M,CLR,M,M,M,M,M,M,M,M,M,M,M,M,M,M,46.40,KMCJ 211055Z AUTO 00000KT 10SM CLR 08/M01 A3047 RMK A01,M
MCJ,2020-01-21 11:15,46.40,30.20,53.00,0.00,0.00,0.00,30.47,M,10.00,M,CLR,M,M,M,M,M,M,M,M,M,M,M,M,M,M,46.40,KMCJ 211115Z AUTO 00000KT 10SM CLR 08/M01 A3047 RMK A01,M
MCJ,2020-01-21 11:35,46.40,32.00,57.00,0.00,0.00,0.00,30.48,M,10.00,M,CLR,M,M,M,M,M,M,M,M,M,M,M,M,M,M,46.40,KMCJ 211135Z AUTO 00000KT 10SM CLR 08/M00 A3048 RMK A01,M
MCJ,2020-01-21 11:55,46.40,32.00,57.00,0.00,0.00,0.00,30.48,M,10.00,M,CLR,M,M,M,M,M,M,M,M,M,M,M,M,M,M,46.40,KMCJ 211155Z AUTO 00000KT 10SM CLR 08/M00 A3048 RMK A01,M
MCJ,2020-01-21 12:15,46.40,32.00,57.00,0.00,0.00,0.00,30.48,M,10.00,M,CLR,M,M,M,M,M,M,M,M,M,M,M,M,M,M,46.40,KMCJ 211215Z AUTO 00000KT 10SM CLR 08/M00 A3048 RMK A01,M
MCJ,2020-01-21 12:35,46.40,32.00,57.00,0.00,0.00,0.00,30.48,M,10.00,M,CLR,M,M,M,M,M,M,M,M,M,M,M,M,M,M,46.40,KMCJ 211235Z AUTO 00000KT 10SM CLR 08/00 A3048 RMK A01,M
MCJ,2020-01-21 12:55,46.40,32.00,57.00,0.00,0.00,0.00,30.48,M,10.00,M,CLR,M,M,M,M,M,M,M,M,M,M,M,M,M,M,46.40,KMCJ 211255Z AUTO 00000KT 10SM CLR 08/00 A3048 RMK A01,M
MCJ,2020-01-21 13:15,46.40,33.80,61.28,0.00,0.00,0.00,30.49,M,10.00,M,CLR,M,M,M,M,M,M,M,M,M,M,M,M,M,M,46.40,KMCJ 211315Z AUTO 00000KT 10SM CLR 08/01 A3049 RMK A01,M
MCJ,2020-01-21 13:35,46.40,32.00,57.00,0.00,0.00,0.00,30.50,M,10.00,M,CLR,M,M,M,M,M,M,M,M,M,M,M,M,M,M,46.40,KMCJ 211335Z AUTO 00000KT 10SM CLR 08/00 A3050 RMK A01,M
MCJ,2020-01-21 13:55,46.40,33.80,61.28,0.00,0.00,0.00,30.48,M,10.00,M,CLR,M,M,M,M,M,M,M,M,M,M,M,M,M,M,46.40,KMCJ 211355Z AUTO 00000KT 10SM CLR 08/01 A3048 RMK A01,M
MCJ,2020-01-21 14:15,46.40,35.60,65.83,M,4.00,0.00,30.48,M,10.00,M,CLR,M,M,M,M,M,M,M,M,M,M,M,M,M,M,44.24,KMCJ 211415Z AUTO VRB04KT 10SM CLR 08/02 A3048 RMK A01,M
MCJ,2020-01-21 14:35,48.20,35.60,61.52,60.00,7.00,0.00,30.48,M,10.00,M,CLR,M,M,M,M,M,M,M,M,M,M,M,M,M,M,44.53,KMCJ 211435Z AUTO 06007KT 10SM CLR 09/02 A3048 RMK A01,M
MCJ,2020-01-21 14:55,48.20,35.60,61.52,M,4.00,0.00,30.48,M,10.00,10.00,CLR,M,M,M,M,M,M,M,M,M,M,M,M,M,M,46.34,KMCJ 211455Z AUTO VRB04G10KT 10SM CLR 09/02 A3048 RMK A01,M
MCJ,2020-01-21 15:15,50.00,33.80,53.54,50.00,7.00,0.00,30.48,M,10.00,12.00,CLR,M,M,M,M,M,M,M,M,M,M,M,M,M,M,46.72,KMCJ 211515Z AUTO 05007G12KT 360V080 10SM CLR 10/01 A3048 RMK A01,M
MCJ,2020-01-21 15:35,51.80,32.00,46.59,M,5.00,0.00,30.49,M,10.00,M,CLR,M,M,M,M,M,M,M,M,M,M,M,M,M,M,51.80,KMCJ 211535Z AUTO VRB05KT 10SM CLR 11/M00 A3049 RMK A01,M
MCJ,2020-01-21 15:55,53.60,28.40,37.67,0.00,0.00,0.00,30.50,M,10.00,M,CLR,M,M,M,M,M,M,M,M,M,M,M,M,M,M,53.60,KMCJ 211555Z AUTO 00000KT 10SM CLR 12/M02 A3050 RMK A01,M
MCJ,2020-01-21 16:15,55.40,23.00,28.20,50.00,7.00,0.00,30.51,M,10.00,M,CLR,M,M,M,M,M,M,M,M,M,M,M,M,M,M,55.40,KMCJ 211615Z AUTO 05007KT 010V080 10SM CLR 13/M05 A3051 RMK A01,M
MCJ,2020-01-21 16:35,55.40,24.80,30.40,M,5.00,0.00,30.51,M,10.00,M,CLR,M,M,M,M,M,M,M,M,M,M,M,M,M,M,55.40,KMCJ 211635Z AUTO VRB05KT 10SM CLR 13/M04 A3051 RMK A01,M
MCJ,2020-01-21 16:55,55.40,24.80,30.40,60.00,8.00,0.00,30.50,M,10.00,M,CLR,M,M,M,M,M,M,M,M,M,M,M,M,M,M,55.40,KMCJ 211655Z AUTO 06008KT 020V080 10SM CLR 13/M04 A3050 RMK A01,M
MCJ,2020-01-21 17:15,57.20,24.80,28.48,M,6.00,0.00,30.50,M,10.00,M,CLR,M,M,M,M,M,M,M,M,M,M,M,M,M,M,57.20,KMCJ 211715Z AUTO VRB06KT 10SM CLR 14/M04 A3050 RMK A01,M
MCJ,2020-01-21 17:35,57.20,26.60,30.69,0.00,0.00,0.00,30.50,M,10.00,11.00,CLR,M,M,M,M,M,M,M,M,M,M,M,M,M,M,57.20,KMCJ 211735Z AUTO 00000G11KT 10SM CLR 14/M03 A3050 RMK A01,M
MCJ,2020-01-21 17:55,57.20,26.60,30.69,M,5.00,0.00,30.49,M,10.00,13.00,CLR,M,M,M,M,M,M,M,M,M,M,M,M,M,M,57.20,KMCJ 211755Z AUTO VRB05G13KT 10SM CLR 14/M03 A3049 RMK A01,M
MCJ,2020-01-21 18:15,57.20,26.60,30.69,M,5.00,0.00,30.48,M,10.00,13.00,CLR,M,M,M,M,M,M,M,M,M,M,M,M,M,M,57.20,KMCJ 211815Z AUTO VRB05G13KT 10SM CLR 14/M03 A3048 RMK A01,M
MCJ,2020-01-21 18:35,59.00,26.60,28.77,0.00,0.00,0.00,30.47,M,10.00,12.00,CLR,M,M,M,M,M,M,M,M,M,M,M,M,M,M,59.00,KMCJ 211835Z AUTO 00000G12KT 10SM CLR 15/M03 A3047 RMK A01,M
MCJ,2020-01-21 18:55,60.80,28.40,29.06,0.00,0.00,0.00,30.45,M,10.00,M,CLR,M,M,M,M,M,M,M,M,M,M,M,M,M,M,60.80,KMCJ 211855Z AUTO 00000KT 10SM CLR 16/M02 A3045 RMK A01,M
MCJ,2020-01-21 19:15,60.80,26.60,26.98,0.00,0.00,0.00,30.44,M,10.00,M,CLR,M,M,M,M,M,M,M,M,M,M,M,M,M,M,60.80,KMCJ 211915Z AUTO 00000KT 10SM CLR 16/M03 A3044 RMK A01,M
MCJ,2020-01-21 19:35,59.00,26.60,28.77,M,6.00,0.00,30.43,M,10.00,M,CLR,M,M,M,M,M,M,M,M,M,M,M,M,M,M,59.00,KMCJ 211935Z AUTO VRB06KT 10SM CLR 15/M03 A3043 RMK A01,M
MCJ,2020-01-21 19:55,59.00,26.60,28.77,50.00,7.00,0.00,30.43,M,10.00,M,CLR,M,M,M,M,M,M,M,M,M,M,M,M,M,M,59.00,KMCJ 211955Z AUTO 05007KT 350V100 10SM CLR 15/M03 A3043 RMK A01,M
MCJ,2020-01-21 20:15,60.80,26.60,26.98,M,5.00,0.00,30.42,M,10.00,10.00,CLR,M,M,M,M,M,M,M,M,M,M,M,M,M,M,60.80,KMCJ 212015Z AUTO VRB05G10KT 10SM CLR 16/M03 A3042 RMK A01,M
MCJ,2020-01-21 20:35,59.00,24.80,26.70,50.00,8.00,0.00,30.42,M,10.00,M,CLR,M,M,M,M,M,M,M,M,M,M,M,M,M,M,59.00,KMCJ 212035Z AUTO 05008KT 10SM CLR 15/M04 A3042 RMK A01,M
MCJ,2020-01-21 20:55,60.80,24.80,25.04,M,4.00,0.00,30.41,M,10.00,M,CLR,M,M,M,M,M,M,M,M,M,M,M,M,M,M,60.80,KMCJ 212055Z AUTO VRB04KT 10SM CLR 16/M04 A3041 RMK A01,M
MCJ,2020-01-21 21:15,60.80,24.80,25.04,0.00,0.00,0.00,30.40,M,10.00,M,CLR,M,M,M,M,M,M,M,M,M,M,M,M,M,M,60.80,KMCJ 212115Z AUTO 00000KT 10SM CLR 16/M04 A3040 RMK A01,M
MCJ,2020-01-21 21:35,60.80,24.80,25.04,M,5.00,0.00,30.40,M,10.00,M,CLR,M,M,M,M,M,M,M,M,M,M,M,M,M,M,60.80,KMCJ 212135Z AUTO VRB05KT 10SM CLR 16/M04 A3040 RMK A01,M
MCJ,2020-01-21 21:55,60.80,24.80,25.04,M,5.00,0.00,30.39,M,10.00,M,CLR,M,M,M,M,M,M,M,M,M,M,M,M,M,M,60.80,KMCJ 212155Z AUTO VRB05KT 10SM CLR 16/M04 A3039 RMK A01,M
MCJ,2020-01-21 22:15,57.20,24.80,28.48,M,5.00,0.00,30.40,M,10.00,M,CLR,M,M,M,M,M,M,M,M,M,M,M,M,M,M,57.20,KMCJ 212215Z AUTO VRB05KT 10SM CLR 14/M04 A3040 RMK A01,M
MCJ,2020-01-21 22:35,55.40,26.60,32.76,M,4.00,0.00,30.38,M,10.00,M,FEW,M,M,M,10000.00,M,M,M,M,M,M,M,M,M,M,55.40,KMCJ 212235Z AUTO VRB04KT 10SM FEW100 13/M03 A3038 RMK A01,M
MCJ,2020-01-21 22:55,55.40,32.00,40.84,0.00,0.00,0.00,30.37,M,10.00,10.00,SCT,M,M,M,10000.00,M,M,M,M,M,M,M,M,M,M,55.40,KMCJ 212255Z AUTO 00000G10KT 10SM SCT100 13/M00 A3037 RMK A01,M
MCJ,2020-01-21 23:15,55.40,33.80,43.90,0.00,0.00,0.00,30.36,M,10.00,M,FEW,M,M,M,10000.00,M,M,M,M,M,M,M,M,M,M,55.40,KMCJ 212315Z AUTO 00000KT 10SM FEW100 13/01 A3036 RMK A01,M
MCJ,2020-01-21 23:35,53.60,33.80,46.88,M,3.00,0.00,30.35,M,10.00,M,CLR,M,M,M,M,M,M,M,M,M,M,M,M,M,M,53.60,KMCJ 212335Z AUTO VRB03KT 10SM CLR 12/01 A3035 RMK A01,M
MCJ,2020-01-21 23:55,53.60,33.80,46.88,M,3.00,0.00,30.34,M,10.00,M,CLR,M,M,M,M,M,M,M,M,M,M,M,M,M,M,53.60,KMCJ 212355Z AUTO VRB03KT 10SM CLR 12/01 A3034 RMK A01,M
MCJ,2020-01-22 00:15,51.80,33.80,50.08,0.00,0.00,0.00,30.36,M,10.00,M,CLR,M,M,M,M,M,M,M,M,M,M,M,M,M,M,51.80,KMCJ 220015Z AUTO 00000KT 10SM CLR 11/01 A3036 RMK A01,M
MCJ,2020-01-22 00:35,51.80,33.80,50.08,0.00,0.00,0.00,30.37,M,10.00,M,CLR,M,M,M,M,M,M,M,M,M,M,M,M,M,M,51.80,KMCJ 220035Z AUTO 00000KT 10SM CLR 11/01 A3037 RMK A01,M
MCJ,2020-01-22 00:55,51.80,33.80,50.08,M,4.00,0.00,30.36,M,10.00,M,CLR,M,M,M,M,M,M,M,M,M,M,M,M,M,M,51.80,KMCJ 220055Z AUTO VRB04KT 10SM CLR 11/01 A3036 RMK A01,M
MCJ,2020-01-22 01:15,51.80,33.80,50.08,0.00,0.00,0.00,30.36,M,10.00,M,CLR,M,M,M,M,M,M,M,M,M,M,M,M,M,M,51.80,KMCJ 220115Z AUTO 00000KT 10SM CLR 11/01 A3036 RMK A01,M
MCJ,2020-01-22 01:35,51.80,33.80,50.08,0.00,0.00,0.00,30.36,M,10.00,M,CLR,M,M,M,M,M,M,M,M,M,M,M,M,M,M,51.80,KMCJ 220135Z AUTO 00000KT 10SM CLR 11/01 A3036 RMK A01,M
MCJ,2020-01-22 01:55,51.80,33.80,50.08,0.00,0.00,0.00,30.37,M,10.00,M,CLR,M,M,M,M,M,M,M,M,M,M,M,M,M,M,51.80,KMCJ 220155Z AUTO 00000KT 10SM CLR 11/01 A3037 RMK A01,M
MCJ,2020-01-22 02:15,51.80,35.60,53.81,0.00,0.00,0.00,30.37,M,10.00,M,CLR,M,M,M,M,M,M,M,M,M,M,M,M,M,M,51.80,KMCJ 220215Z AUTO 00000KT 10SM CLR 11/02 A3037 RMK A01,M
MCJ,2020-01-22 02:35,50.00,35.60,57.52,0.00,0.00,0.00,30.36,M,10.00,M,CLR,M,M,M,M,M,M,M,M,M,M,M,M,M,M,50.00,KMCJ 220235Z AUTO 00000KT 10SM CLR 10/02 A3036 RMK A01,M
MCJ,2020-01-22 02:55,50.00,35.60,57.52,0.00,0.00,0.00,30.34,M,10.00,M,CLR,M,M,M,M,M,M,M,M,M,M,M,M,M,M,50.00,KMCJ 220255Z AUTO 00000KT 10SM CLR 10/02 A3034 RMK A01,M
MCJ,2020-01-22 03:15,50.00,35.60,57.52,0.00,0.00,0.00,30.33,M,10.00,M,CLR,M,M,M,M,M,M,M,M,M,M,M,M,M,M,50.00,KMCJ 220315Z AUTO 00000KT 10SM CLR 10/02 A3033 RMK A01,M
MCJ,2020-01-22 03:35,50.00,35.60,57.52,0.00,0.00,0.00,30.32,M,9.00,M,CLR,M,M,M,M,M,M,M,M,M,M,M,M,M,M,50.00,KMCJ 220335Z AUTO 00000KT 9SM CLR 10/02 A3032 RMK A01,M
MCJ,2020-01-22 03:55,50.00,35.60,57.52,0.00,0.00,0.00,30.30,M,10.00,M,CLR,M,M,M,M,M,M,M,M,M,M,M,M,M,M,50.00,KMCJ 220355Z AUTO 00000KT 10SM CLR 10/02 A3030 RMK A01,M
MCJ,2020-01-22 04:15,50.00,35.60,57.52,M,3.00,0.00,30.30,M,10.00,M,CLR,M,M,M,M,M,M,M,M,M,M,M,M,M,M,49.27,KMCJ 220415Z AUTO VRB03KT 10SM CLR 10/02 A3030 RMK A01,M
MCJ,2020-01-22 04:35,50.00,35.60,57.52,0.00,0.00,0.00,30.31,M,10.00,M,CLR,M,M,M,M,M,M,M,M,M,M,M,M,M,M,50.00,KMCJ 220435Z AUTO 00000KT 10SM CLR 10/02 A3031 RMK A01,M
MCJ,2020-01-22 04:55,50.00,35.60,57.52,0.00,0.00,0.00,30.31,M,10.00,M,CLR,M,M,M,M,M,M,M,M,M,M,M,M,M,M,50.00,KMCJ 220455Z AUTO 00000KT 10SM CLR 10/02 A3031 RMK A01,M
MCJ,2020-01-22 05:15,50.00,35.60,57.52,0.00,0.00,0.00,30.31,M,10.00,M,CLR,M,M,M,M,M,M,M,M,M,M,M,M,M,M,50.00,KMCJ 220515Z AUTO 00000KT 10SM CLR 10/02 A3031 RMK A01,M
MCJ,2020-01-22 05:35,50.00,37.40,61.76,0.00,0.00,0.00,30.31,M,10.00,M,CLR,M,M,M,M,M,M,M,M,M,M,M,M,M,M,50.00,KMCJ 220535Z AUTO 00000KT 10SM CLR 10/03 A3031 RMK A01,M
MCJ,2020-01-22 05:55,50.00,37.40,61.76,0.00,0.00,0.00,30.28,M,10.00,M,CLR,M,M,M,M,M,M,M,M,M,M,M,M,M,M,50.00,KMCJ 220555Z AUTO 00000KT 10SM CLR 10/03 A3028 RMK A01,M
MCJ,2020-01-22 06:15,50.00,37.40,61.76,0.00,0.00,0.00,30.29,M,10.00,M,CLR,M,M,M,M,M,M,M,M,M,M,M,M,M,M,50.00,KMCJ 220615Z AUTO 00000KT 10SM CLR 10/03 A3029 RMK A01,M
MCJ,2020-01-22 06:35,50.00,37.40,61.76,M,5.00,0.00,30.29,M,10.00,M,CLR,M,M,M,M,M,M,M,M,M,M,M,M,M,M,47.77,KMCJ 220635Z AUTO VRB05KT 10SM CLR 10/03 A3029 RMK A01,M
MCJ,2020-01-22 06:55,51.80,37.40,57.77,M,4.00,0.00,30.27,M,10.00,M,CLR,M,M,M,M,M,M,M,M,M,M,M,M,M,M,51.80,KMCJ 220655Z AUTO VRB04KT 10SM CLR 11/03 A3027 RMK A01,M
MCJ,2020-01-22 07:15,51.80,39.20,61.99,M,4.00,0.00,30.27,M,10.00,M,CLR,M,M,M,M,M,M,M,M,M,M,M,M,M,M,51.80,KMCJ 220715Z AUTO VRB04KT 10SM CLR 11/04 A3027 RMK A01,M
MCJ,2020-01-22 07:35,51.80,37.40,57.77,M,6.00,0.00,30.27,M,10.00,M,CLR,M,M,M,M,M,M,M,M,M,M,M,M,M,M,51.80,KMCJ 220735Z AUTO VRB06KT 10SM CLR 11/03 A3027 RMK A01,M
MCJ,2020-01-22 07:55,51.80,37.40,57.77,M,5.00,0.00,30.26,M,10.00,M,CLR,M,M,M,M,M,M,M,M,M,M,M,M,M,M,51.80,KMCJ 220755Z AUTO VRB05KT 10SM CLR 11/03 A3026 RMK A01,M
MCJ,2020-01-22 08:15,51.80,37.40,57.77,60.00,7.00,0.00,30.26,M,10.00,M,BKN,M,M,M,6000.00,M,M,M,M,M,M,M,M,M,M,51.80,KMCJ 220815Z AUTO 06007KT 10SM BKN060 11/03 A3026 RMK A01,M
MCJ,2020-01-22 08:35,51.80,37.40,57.77,40.00,10.00,0.00,30.25,M,10.00,15.00,BKN,M,M,M,6000.00,M,M,M,M,M,M,M,M,M,M,51.80,KMCJ 220835Z AUTO 04010G15KT 10SM BKN060 11/03 A3025 RMK A01,M
MCJ,2020-01-22 08:55,50.00,39.20,66.27,40.00,10.00,0.00,30.24,M,10.00,M,FEW,OVC,M,M,3300.00,6000.00,M,M,M,M,M,M,M,M,M,45.54,KMCJ 220855Z AUTO 04010KT 10SM FEW033 OVC060 10/04 A3024 RMK A01,M
MCJ,2020-01-22 09:15,50.00,37.40,61.76,M,M,0.00,30.24,M,10.00,M,OVC,M,M,M,6000.00,M,M,M,M,M,M,M,M,M,M,50.00,KMCJ 220915Z AUTO 7.75000008G15KT 10SM OVC060 10/03 A3024 RMK A01,M
MCJ,2020-01-22 09:35,48.20,35.60,61.52,50.00,8.00,0.00,30.23,M,10.00,M,OVC,M,M,M,6000.00,M,M,M,M,M,M,M,M,M,M,44.07,KMCJ 220935Z AUTO 05008KT 10SM OVC060 09/02 A3023 RMK A01,M
MCJ,2020-01-22 09:55,50.00,35.60,57.52,40.00,9.00,0.00,30.21,M,10.00,M,BKN,OVC,M,M,5500.00,6500.00,M,M,M,M,M,M,M,M,M,45.90,KMCJ 220955Z AUTO 04009KT 10SM BKN055 OVC065 10/02 A3021 RMK A01,M
MCJ,2020-01-22 10:15,48.20,33.80,57.26,60.00,12.00,0.00,30.20,M,10.00,M,OVC,M,M,M,5500.00,M,M,M,M,M,M,M,M,M,M,42.62,KMCJ 221015Z AUTO 06012KT 10SM OVC055 09/01 A3020 RMK A01,M
MCJ,2020-01-22 10:35,48.20,35.60,61.52,60.00,10.00,0.00,30.19,M,10.00,15.00,OVC,M,M,M,5000.00,M,M,M,M,M,M,M,M,M,M,43.28,KMCJ 221035Z AUTO 06010G15KT 10SM OVC050 09/02 A3019 RMK A01,M
MCJ,2020-01-22 10:55,48.20,35.60,61.52,60.00,10.00,0.00,30.18,M,10.00,M,BKN,OVC,M,M,5000.00,8500.00,M,M,M,M,M,M,M,M,M,43.28,KMCJ 221055Z AUTO 06010KT 10SM BKN050 OVC085 09/02 A3018 RMK A01,M
MCJ,2020-01-22 11:15,48.20,37.40,66.05,60.00,10.00,0.00,30.17,M,10.00,M,FEW,OVC,M,M,5000.00,8500.00,M,M,M,M,M,M,M,M,M,43.28,KMCJ 221115Z AUTO 06010KT 020V080 10SM FEW050 OVC085 09/03 A3017 RMK A01,M
MCJ,2020-01-22 11:35,48.20,39.20,70.88,70.00,10.00,0.00,30.16,M,10.00,16.00,FEW,OVC,M,M,4700.00,8500.00,M,M,M,M,M,M,M,M,M,43.28,KMCJ 221135Z AUTO 07010G16KT 050V110 10SM FEW047 OVC085 09/04 A3016 RMK A01,M
MCJ,2020-01-22 11:55,48.20,37.40,66.05,M,6.00,0.00,30.17,M,10.00,16.00,FEW,OVC,M,M,4700.00,8500.00,M,M,M,M,M,M,M,M,M,45.04,KMCJ 221155Z AUTO VRB06G16KT 10SM FEW047 OVC085 09/03 A3017 RMK A01,M
MCJ,2020-01-22 12:15,46.40,39.20,75.84,M,6.00,0.00,30.17,M,9.00,12.00,BKN,M,M,M,8500.00,M,M,M,M,M,M,M,M,M,M,42.87,KMCJ 221215Z AUTO VRB06G12KT 9SM BKN085 08/04 A3017 RMK A01,M
MCJ,2020-01-22 12:35,46.40,41.00,81.34,M,5.00,0.00,30.16,M,8.00,12.00,FEW,M,M,M,8500.00,M,M,M,M,M,M,M,M,M,M,43.50,KMCJ 221235Z AUTO VRB05G12KT 8SM FEW085 08/05 A3016 RMK A01,M
MCJ,2020-01-22 12:55,46.40,41.00,81.34,M,6.00,0.00,30.16,M,8.00,11.00,CLR,M,M,M,M,M,M,M,M,M,M,M,M,M,M,42.87,KMCJ 221255Z AUTO VRB06G11KT 8SM CLR 08/05 A3016 RMK A01,M
MCJ,2020-01-22 13:15,46.40,41.00,81.34,M,6.00,0.00,30.16,M,7.00,M,CLR,M,M,M,M,M,M,M,M,M,M,M,M,M,M,42.87,KMCJ 221315Z AUTO VRB06KT 7SM CLR 08/05 A3016 RMK A01,M
MCJ,2020-01-22 13:35,46.40,42.80,87.19,60.00,9.00,0.00,30.15,M,6.00,M,CLR,M,M,M,M,M,M,M,BR,M,M,M,M,M,M,41.42,KMCJ 221335Z AUTO 06009KT 020V090 6SM BR CLR 08/06 A3015 RMK A01,M
MCJ,2020-01-22 13:55,46.40,42.80,87.19,50.00,8.00,0.00,30.15,M,5.00,13.00,CLR,M,M,M,M,M,M,M,BR,M,M,M,M,M,M,41.85,KMCJ 221355Z AUTO 05008G13KT 360V090 5SM BR CLR 08/06 A3015 RMK A01,M
MCJ,2020-01-22 14:15,46.40,44.60,93.40,M,6.00,0.00,30.15,M,3.00,13.00,FEW,FEW,FEW,M,3300.00,4200.00,4700.00,M,BR,M,M,M,M,M,M,42.87,KMCJ 221415Z AUTO VRB06G13KT 3SM BR FEW033 FEW042 FEW047 08/07 A3015 RMK A01,M
MCJ,2020-01-22 14:35,48.20,44.60,87.28,M,5.00,0.00,30.14,M,2.00,12.00,FEW,SCT,BKN,M,2200.00,3500.00,4500.00,M,BR,M,M,M,M,M,M,45.63,KMCJ 221435Z AUTO VRB05G12KT 2SM BR FEW022 SCT035 BKN045 09/07 A3014 RMK A01,M
MCJ,2020-01-22 14:55,48.20,46.40,93.45,M,6.00,0.00,30.14,M,2.00,12.00,FEW,SCT,BKN,M,500.00,2200.00,2900.00,M,BR,M,M,M,M,M,M,45.04,KMCJ 221455Z AUTO VRB06G12KT 2SM BR FEW005 SCT022 BKN029 09/08 A3014 RMK A01,M
MCJ,2020-01-22 15:15,48.20,46.40,93.45,M,5.00,0.00,30.13,M,3.00,13.00,FEW,SCT,BKN,M,600.00,2100.00,3200.00,M,BR,M,M,M,M,M,M,45.63,KMCJ 221515Z AUTO VRB05G13KT 3SM BR FEW006 SCT021 BKN032 09/08 A3013 RMK A01,M
MCJ,2020-01-22 15:35,48.20,48.20,100.00,M,5.00,0.00,30.14,M,2.50,11.00,FEW,SCT,BKN,M,400.00,1900.00,3400.00,M,BR,M,M,M,M,M,M,45.63,KMCJ 221535Z AUTO VRB05G11KT 2 1/2SM BR FEW004 SCT019 BKN034 09/09 A3014 RMK A01,M
MCJ,2020-01-22 15:55,50.00,48.20,93.50,M,5.00,0.00,30.14,M,2.50,M,FEW,SCT,BKN,M,400.00,1900.00,3300.00,M,BR,M,M,M,M,M,M,47.77,KMCJ 221555Z AUTO VRB05KT 2 1/2SM BR FEW004 SCT019 BKN033 10/09 A3014 RMK A01,M
MCJ,2020-01-22 16:15,50.00,50.00,100.00,M,5.00,0.00,30.13,M,2.50,M,FEW,SCT,BKN,M,300.00,2000.00,3400.00,M,BR,M,M,M,M,M,M,47.77,KMCJ 221615Z AUTO VRB05KT 2 1/2SM BR FEW003 SCT020 BKN034 10/10 A3013 RMK A01,M
MCJ,2020-01-22 16:35,51.80,50.00,93.55,M,4.00,0.00,30.14,M,1.75,M,SCT,BKN,OVC,M,400.00,2700.00,4200.00,M,BR,M,M,M,M,M,M,51.80,KMCJ 221635Z AUTO VRB04KT 1 3/4SM BR SCT004 BKN027 OVC042 11/10 A3014 RMK A01,M
MCJ,2020-01-22 16:55,51.80,51.80,100.00,0.00,0.00,0.00,30.13,M,1.50,M,FEW,BKN,OVC,M,200.00,2200.00,3200.00,M,BR,M,M,M,M,M,M,51.80,KMCJ 221655Z AUTO 00000KT 1 1/2SM BR FEW002 BKN022 OVC032 11/11 A3013 RMK A01,M
MCJ,2020-01-22 17:15,53.60,53.60,100.00,M,3.00,0.00,30.11,M,1.50,M,SCT,BKN,OVC,M,1200.00,2000.00,2900.00,M,BR,M,M,M,M,M,M,53.60,KMCJ 221715Z AUTO VRB03KT 1 1/2SM BR SCT012 BKN020 OVC029 12/12 A3011 RMK A01,M
MCJ,2020-01-22 17:35,53.60,53.60,100.00,M,3.00,0.00,30.11,M,2.50,M,SCT,BKN,BKN,M,1600.00,3300.00,4600.00,M,BR,M,M,M,M,M,M,53.60,KMCJ 221735Z AUTO VRB03KT 2 1/2SM BR SCT016 BKN033 BKN046 12/12 A3011 RMK A01,M
MCJ,2020-01-22 17:55,53.60,53.60,100.00,M,3.00,0.00,30.10,M,3.00,M,SCT,BKN,BKN,M,2400.00,3800.00,4800.00,M,BR,M,M,M,M,M,M,53.60,KMCJ 221755Z AUTO VRB03KT 3SM BR SCT024 BKN038 BKN048 12/12 A3010 RMK A01,M
MCJ,2020-01-22 18:15,55.40,53.60,93.65,M,3.00,0.00,30.08,M,2.00,M,BKN,BKN,BKN,M,2400.00,3100.00,3800.00,M,BR,M,M,M,M,M,M,55.40,KMCJ 221815Z AUTO VRB03KT 2SM BR BKN024 BKN031 BKN038 13/12 A3008 RMK A01,M
MCJ,2020-01-22 18:35,55.40,53.60,93.65,M,3.00,0.00,30.06,M,2.00,M,FEW,BKN,BKN,M,700.00,2300.00,3100.00,M,BR,M,M,M,M,M,M,55.40,KMCJ 221835Z AUTO VRB03KT 2SM BR FEW007 BKN023 BKN031 13/12 A3006 RMK A01,M
MCJ,2020-01-22 18:55,55.40,55.40,100.00,M,4.00,0.00,30.04,M,3.00,M,SCT,BKN,M,M,800.00,2400.00,M,M,BR,M,M,M,M,M,M,55.40,KMCJ 221855Z AUTO VRB04KT 3SM BR SCT008 BKN024 13/13 A3004 RMK A01,M
MCJ,2020-01-22 19:15,55.40,55.40,100.00,M,4.00,0.00,30.03,M,3.00,M,SCT,SCT,BKN,M,700.00,1100.00,2300.00,M,BR,M,M,M,M,M,M,55.40,KMCJ 221915Z AUTO VRB04KT 3SM BR SCT007 SCT011 BKN023 13/13 A3003 RMK A01,M
MCJ,2020-01-22 19:35,55.40,55.40,100.00,M,4.00,0.00,30.02,M,2.50,M,SCT,BKN,BKN,M,700.00,1000.00,2400.00,M,BR,M,M,M,M,M,M,55.40,KMCJ 221935Z AUTO VRB04KT 2 1/2SM BR SCT007 BKN010 BKN024 13/13 A3002 RMK A01,M
MCJ,2020-01-22 19:55,55.40,55.40,100.00,M,3.00,0.00,30.01,M,2.50,11.00,BKN,BKN,OVC,M,700.00,1000.00,2500.00,M,BR,M,M,M,M,M,M,55.40,KMCJ 221955Z AUTO VRB03G11KT 2 1/2SM BR BKN007 BKN010 OVC025 13/13 A3001 RMK A01,M
MCJ,2020-01-22 20:15,55.40,55.40,100.00,M,4.00,0.00,29.99,M,3.00,M,BKN,OVC,M,M,500.00,900.00,M,M,BR,M,M,M,M,M,M,55.40,KMCJ 222015Z AUTO VRB04KT 3SM BR BKN005 OVC009 13/13 A2999 RMK A01,M
MCJ,2020-01-22 20:35,57.20,55.40,93.69,M,6.00,0.00,29.99,M,3.00,M,OVC,M,M,M,400.00,M,M,M,BR,M,M,M,M,M,M,57.20,KMCJ 222035Z AUTO VRB06KT 3SM BR OVC004 14/13 A2999 RMK A01,M
MCJ,2020-01-22 20:55,57.20,57.20,100.00,M,5.00,0.00,29.97,M,4.00,10.00,BKN,OVC,M,M,400.00,800.00,M,M,BR,M,M,M,M,M,M,57.20,KMCJ 222055Z AUTO VRB05G10KT 4SM BR BKN004 OVC008 14/14 A2997 RMK A01,M
MCJ,2020-01-22 21:15,57.20,57.20,100.00,M,5.00,0.00,29.96,M,3.00,14.00,BKN,BKN,M,M,400.00,800.00,M,M,BR,M,M,M,M,M,M,57.20,KMCJ 222115Z AUTO VRB05G14KT 3SM BR BKN004 BKN008 14/14 A2996 RMK A01,M
MCJ,2020-01-22 21:35,57.20,57.20,100.00,M,4.00,0.00,29.95,M,2.50,10.00,BKN,OVC,M,M,500.00,900.00,M,M,BR,M,M,M,M,M,M,57.20,KMCJ 222135Z AUTO VRB04G10KT 2 1/2SM BR BKN005 OVC009 14/14 A2995 RMK A01,M
MCJ,2020-01-22 21:55,57.20,57.20,100.00,M,7.00,0.00,29.92,M,1.75,M,BKN,OVC,M,M,500.00,900.00,M,M,BR,M,M,M,M,M,M,57.20,KMCJ 222155Z AUTO VRB07KT 1 3/4SM BR BKN005 OVC009 14/14 A2992 RMK A01,M
MCJ,2020-01-23 00:35,57.20,55.40,93.69,M,5.00,0.00,29.95,M,10.00,M,BKN,BKN,OVC,M,1000.00,1400.00,4100.00,M,M,M,M,M,M,M,M,57.20,KMCJ 230035Z AUTO VRB05KT 10SM BKN010 BKN014 OVC041 14/13 A2995 RMK A01,M
MCJ,2020-01-23 00:55,57.20,55.40,93.69,M,5.00,0.00,29.94,M,10.00,M,SCT,BKN,BKN,M,1100.00,3100.00,4100.00,M,M,M,M,M,M,M,M,57.20,KMCJ 230055Z AUTO VRB05KT 10SM SCT011 BKN031 BKN041 14/13 A2994 RMK A01,M
MCJ,2020-01-23 01:15,57.20,55.40,93.69,M,5.00,0.00,29.94,M,10.00,M,BKN,BKN,OVC,M,1000.00,4000.00,8500.00,M,M,M,M,M,M,M,M,57.20,KMCJ 230115Z AUTO VRB05KT 10SM BKN010 BKN040 OVC085 14/13 A2994 RMK A01,M
MCJ,2020-01-23 01:35,59.00,57.20,93.74,M,5.00,0.00,29.94,M,9.00,M,BKN,OVC,M,M,900.00,1200.00,M,M,M,M,M,M,M,M,M,59.00,KMCJ 230135Z AUTO VRB05KT 9SM BKN009 OVC012 15/14 A2994 RMK A01,M
MCJ,2020-01-23 01:55,59.00,57.20,93.74,M,5.00,0.00,29.93,M,9.00,M,BKN,OVC,M,M,900.00,3100.00,M,M,M,M,M,M,M,M,M,59.00,KMCJ 230155Z AUTO VRB05KT 9SM BKN009 OVC031 15/14 A2993 RMK A01,M
MCJ,2020-01-23 02:15,59.00,57.20,93.74,M,4.00,0.00,29.94,M,3.00,M,OVC,M,M,M,900.00,M,M,M,BR,M,M,M,M,M,M,59.00,KMCJ 230215Z AUTO VRB04KT 3SM BR OVC009 15/14 A2994 RMK A01,M
MCJ,2020-01-23 02:35,59.00,57.20,93.74,M,3.00,0.00,29.94,M,2.00,M,BKN,OVC,M,M,600.00,1000.00,M,M,BR,M,M,M,M,M,M,59.00,KMCJ 230235Z AUTO VRB03KT 2SM BR BKN006 OVC010 15/14 A2994 RMK A01,M
MCJ,2020-01-23 02:55,59.00,59.00,100.00,M,5.00,0.00,29.93,M,3.00,M,SCT,BKN,OVC,M,400.00,800.00,1900.00,M,BR,M,M,M,M,M,M,59.00,KMCJ 230255Z AUTO VRB05KT 3SM BR SCT004 BKN008 OVC019 15/15 A2993 RMK A01,M
MCJ,2020-01-23 03:15,59.00,59.00,100.00,0.00,0.00,0.00,29.94,M,5.00,M,FEW,BKN,OVC,M,200.00,600.00,1200.00,M,BR,M,M,M,M,M,M,59.00,KMCJ 230315Z AUTO 00000KT 5SM BR FEW002 BKN006 OVC012 15/15 A2994 RMK A01,M
MCJ,2020-01-23 03:35,59.00,59.00,100.00,0.00,0.00,0.00,29.95,M,4.00,M,BKN,BKN,M,M,700.00,1100.00,M,M,BR,M,M,M,M,M,M,59.00,KMCJ 230335Z AUTO 00000KT 4SM BR BKN007 BKN011 15/15 A2995 RMK A01,M
MCJ,2020-01-23 03:55,59.00,59.00,100.00,0.00,0.00,0.00,29.92,M,2.00,M,BKN,OVC,M,M,800.00,1200.00,M,M,BR,M,M,M,M,M,M,59.00,KMCJ 230355Z AUTO 00000KT 2SM BR BKN008 OVC012 15/15 A2992 RMK A01,M
MCJ,2020-01-23 04:15,59.00,59.00,100.00,0.00,0.00,0.00,29.92,M,3.00,M,BKN,OVC,M,M,600.00,1100.00,M,M,BR,M,M,M,M,M,M,59.00,KMCJ 230415Z AUTO 00000KT 3SM BR BKN006 OVC011 15/15 A2992 RMK A01,M
MCJ,2020-01-23 04:35,59.00,59.00,100.00,M,5.00,0.00,29.90,M,3.00,M,BKN,BKN,BKN,M,400.00,1900.00,2700.00,M,BR,M,M,M,M,M,M,59.00,KMCJ 230435Z AUTO VRB05KT 3SM BR BKN004 BKN019 BKN027 15/15 A2990 RMK A01,M
MCJ,2020-01-23 04:55,59.00,59.00,100.00,M,4.00,0.00,29.91,M,3.00,10.00,BKN,OVC,M,M,500.00,900.00,M,M,BR,M,M,M,M,M,M,59.00,KMCJ 230455Z AUTO VRB04G10KT 3SM BR BKN005 OVC009 15/15 A2991 RMK A01,M
MCJ,2020-01-23 05:15,59.00,59.00,100.00,M,3.00,0.00,29.89,M,2.00,M,BKN,OVC,M,M,400.00,700.00,M,M,BR,M,M,M,M,M,M,59.00,KMCJ 230515Z AUTO VRB03KT 2SM BR BKN004 OVC007 15/15 A2989 RMK A01,M
MCJ,2020-01-23 05:35,59.00,59.00,100.00,M,3.00,0.00,29.89,M,1.00,M,OVC,M,M,M,300.00,M,M,M,BR,M,M,M,M,M,M,59.00,KMCJ 230535Z AUTO VRB03KT 1SM BR OVC003 15/15 A2989 RMK A01,M
MCJ,2020-01-23 05:55,59.00,59.00,100.00,M,3.00,0.00,29.88,M,2.00,10.00,BKN,BKN,OVC,M,300.00,1100.00,1700.00,M,BR,M,M,M,M,M,M,59.00,KMCJ 230555Z AUTO VRB03G10KT 2SM BR BKN003 BKN011 OVC017 15/15 A2988 RMK A01,M
MCJ,2020-01-23 06:15,60.80,60.80,100.00,0.00,0.00,0.00,29.89,M,0.50,11.00,OVC,M,M,M,300.00,M,M,M,BR,M,M,M,M,M,M,60.80,KMCJ 230615Z AUTO 00000G11KT 1/2SM BR OVC003 16/16 A2989 RMK A01,M
MCJ,2020-01-23 06:35,60.80,60.80,100.00,0.00,0.00,0.00,29.89,M,1.00,M,BKN,OVC,M,M,200.00,1000.00,M,M,BR,M,M,M,M,M,M,60.80,KMCJ 230635Z AUTO 00000KT 1SM BR BKN002 OVC010 16/16 A2989 RMK A01,M
MCJ,2020-01-23 06:55,60.80,60.80,100.00,0.00,0.00,0.00,29.88,M,2.50,M,FEW,BKN,OVC,M,100.00,900.00,3100.00,M,BR,M,M,M,M,M,M,60.80,KMCJ 230655Z AUTO 00000KT 2 1/2SM BR FEW001 BKN009 OVC031 16/16 A2988 RMK A01 VIS 1 3/4V3,M
MCJ,2020-01-23 07:15,60.80,60.80,100.00,0.00,0.00,0.00,29.87,M,7.00,M,FEW,BKN,BKN,M,700.00,2300.00,2800.00,M,M,M,M,M,M,M,M,60.80,KMCJ 230715Z AUTO 00000KT 7SM FEW007 BKN023 BKN028 16/16 A2987 RMK A01,M
MCJ,2020-01-23 07:35,60.80,60.80,100.00,0.00,0.00,0.00,29.88,M,5.00,M,FEW,SCT,BKN,M,200.00,1100.00,1700.00,M,BR,M,M,M,M,M,M,60.80,KMCJ 230735Z AUTO 00000KT 5SM BR FEW002 SCT011 BKN017 16/16 A2988 RMK A01,M
MCJ,2020-01-23 07:55,60.80,60.80,100.00,0.00,0.00,0.00,29.86,M,10.00,M,FEW,FEW,BKN,M,200.00,700.00,1700.00,M,M,M,M,M,M,M,M,60.80,KMCJ 230755Z AUTO 00000KT 10SM FEW002 FEW007 BKN017 16/16 A2986 RMK A01,M
MCJ,2020-01-23 08:15,60.80,60.80,100.00,0.00,0.00,0.00,29.85,M,10.00,M,BKN,BKN,BKN,M,1500.00,2000.00,4800.00,M,M,M,M,M,M,M,M,60.80,KMCJ 230815Z AUTO 00000KT 10SM BKN015 BKN020 BKN048 16/16 A2985 RMK A01,M
MCJ,2020-01-23 08:35,60.80,60.80,100.00,0.00,0.00,0.00,29.86,M,10.00,M,OVC,M,M,M,1200.00,M,M,M,M,M,M,M,M,M,M,60.80,KMCJ 230835Z AUTO 00000KT 10SM OVC012 16/16 A2986 RMK A01,M
MCJ,2020-01-23 08:55,60.80,60.80,100.00,0.00,0.00,0.00,29.86,M,10.00,M,OVC,M,M,M,1100.00,M,M,M,M,M,M,M,M,M,M,60.80,KMCJ 230855Z AUTO 00000KT 10SM OVC011 16/16 A2986 RMK A01,M
MCJ,2020-01-23 09:15,60.80,60.80,100.00,0.00,0.00,0.00,29.86,M,10.00,M,OVC,M,M,M,1000.00,M,M,M,M,M,M,M,M,M,M,60.80,KMCJ 230915Z AUTO 00000KT 10SM OVC010 16/16 A2986 RMK A01,M
MCJ,2020-01-23 09:35,60.80,62.60,M,250.00,7.00,0.00,29.87,M,10.00,M,BKN,OVC,M,M,700.00,1100.00,M,M,M,M,M,M,M,M,M,M,KMCJ 230935Z AUTO 25007KT 10SM BKN007 OVC011 16/17 A2987 RMK A01,M
MCJ,2020-01-23 09:55,60.80,60.80,100.00,M,6.00,0.00,29.87,M,10.00,M,BKN,BKN,OVC,M,600.00,1000.00,1700.00,M,M,M,M,M,M,M,M,60.80,KMCJ 230955Z AUTO VRB06KT 10SM BKN006 BKN010 OVC017 16/16 A2987 RMK A01,M
MCJ,2020-01-23 10:15,60.80,60.80,100.00,M,5.00,0.00,29.87,M,6.00,11.00,BKN,BKN,OVC,M,100.00,500.00,1500.00,M,BR,M,M,M,M,M,M,60.80,KMCJ 231015Z AUTO VRB05G11KT 6SM BR BKN001 BKN005 OVC015 16/16 A2987 RMK A01,M
MCJ,2020-01-23 10:35,60.80,60.80,100.00,M,5.00,0.00,29.88,M,9.00,10.00,SCT,SCT,OVC,M,300.00,800.00,1400.00,M,M,M,M,M,M,M,M,60.80,KMCJ 231035Z AUTO VRB05G10KT 9SM SCT003 SCT008 OVC014 16/16 A2988 RMK A01,M
MCJ,2020-01-23 10:55,60.80,60.80,100.00,0.00,0.00,0.00,29.87,M,10.00,M,FEW,OVC,M,M,700.00,1300.00,M,M,M,M,M,M,M,M,M,60.80,KMCJ 231055Z AUTO 00000KT 10SM FEW007 OVC013 16/16 A2987 RMK A01,M
MCJ,2020-01-23 11:15,60.80,60.80,100.00,M,4.00,0.00,29.87,M,10.00,10.00,FEW,OVC,M,M,700.00,1300.00,M,M,M,M,M,M,M,M,M,60.80,KMCJ 231115Z AUTO VRB04G10KT 10SM FEW007 OVC013 16/16 A2987 RMK A01,M
MCJ,2020-01-23 11:35,59.00,59.00,100.00,0.00,0.00,0.00,29.87,M,10.00,M,FEW,OVC,M,M,600.00,1300.00,M,M,M,M,M,M,M,M,M,59.00,KMCJ 231135Z AUTO 00000KT 10SM FEW006 OVC013 15/15 A2987 RMK A01,M
MCJ,2020-01-23 11:55,59.00,59.00,100.00,0.00,0.00,0.00,29.88,M,10.00,M,OVC,M,M,M,1200.00,M,M,M,M,M,M,M,M,M,M,59.00,KMCJ 231155Z AUTO 00000KT 10SM OVC012 15/15 A2988 RMK A01,M
MCJ,2020-01-23 12:15,59.00,59.00,100.00,M,6.00,0.00,29.88,M,9.00,M,OVC,M,M,M,1100.00,M,M,M,M,M,M,M,M,M,M,59.00,KMCJ 231215Z AUTO VRB06KT 9SM OVC011 15/15 A2988 RMK A01,M
MCJ,2020-01-23 12:35,59.00,59.00,100.00,M,4.00,0.00,29.89,M,10.00,M,OVC,M,M,M,1100.00,M,M,M,M,M,M,M,M,M,M,59.00,KMCJ 231235Z AUTO VRB04KT 10SM OVC011 15/15 A2989 RMK A01,M
MCJ,2020-01-23 12:55,59.00,59.00,100.00,260.00,4.00,0.00,29.90,M,10.00,M,OVC,M,M,M,1000.00,M,M,M,M,M,M,M,M,M,M,59.00,KMCJ 231255Z AUTO 26004KT 10SM OVC010 15/15 A2990 RMK A01,M
MCJ,2020-01-23 13:15,59.00,59.00,100.00,M,3.00,0.00,29.91,M,10.00,M,OVC,M,M,M,800.00,M,M,M,M,M,M,M,M,M,M,59.00,KMCJ 231315Z AUTO VRB03KT 10SM OVC008 15/15 A2991 RMK A01,M
MCJ,2020-01-23 13:35,59.00,59.00,100.00,300.00,4.00,0.00,29.91,M,9.00,M,OVC,M,M,M,700.00,M,M,M,M,M,M,M,M,M,M,59.00,KMCJ 231335Z AUTO 30004KT 9SM OVC007 15/15 A2991 RMK A01,M
MCJ,2020-01-23 13:55,59.00,57.20,93.74,M,6.00,0.00,29.92,M,9.00,12.00,OVC,M,M,M,800.00,M,M,M,M,M,M,M,M,M,M,59.00,KMCJ 231355Z AUTO VRB06G12KT 9SM OVC008 15/14 A2992 RMK A01,M
MCJ,2020-01-23 14:15,59.00,57.20,93.74,M,6.00,0.00,29.93,M,8.00,12.00,OVC,M,M,M,900.00,M,M,M,M,M,M,M,M,M,M,59.00,KMCJ 231415Z AUTO VRB06G12KT 8SM OVC009 15/14 A2993 RMK A01,M
MCJ,2020-01-23 14:35,59.00,57.20,93.74,M,5.00,0.00,29.93,M,7.00,12.00,OVC,M,M,M,800.00,M,M,M,M,M,M,M,M,M,M,59.00,KMCJ 231435Z AUTO VRB05G12KT 7SM OVC008 15/14 A2993 RMK A01,M
MCJ,2020-01-23 14:55,59.00,57.20,93.74,M,5.00,0.00,29.93,M,8.00,15.00,OVC,M,M,M,800.00,M,M,M,M,M,M,M,M,M,M,59.00,KMCJ 231455Z AUTO VRB05G15KT 8SM OVC008 15/14 A2993 RMK A01,M
MCJ,2020-01-23 15:15,60.80,57.20,87.92,270.00,8.00,0.00,29.94,M,7.00,M,OVC,M,M,M,900.00,M,M,M,M,M,M,M,M,M,M,60.80,KMCJ 231515Z AUTO 27008KT 230V320 7SM OVC009 16/14 A2994 RMK A01,M
MCJ,2020-01-23 15:35,60.80,57.20,87.92,M,6.00,0.00,29.95,M,7.00,M,OVC,M,M,M,1000.00,M,M,M,M,M,M,M,M,M,M,60.80,KMCJ 231535Z AUTO VRB06KT 7SM OVC010 16/14 A2995 RMK A01,M
MCJ,2020-01-23 15:55,60.80,55.40,82.37,M,5.00,0.00,29.95,M,9.00,12.00,OVC,M,M,M,1100.00,M,M,M,M,M,M,M,M,M,M,60.80,KMCJ 231555Z AUTO VRB05G12KT 9SM OVC011 16/13 A2995 RMK A01,M
MCJ,2020-01-23 16:35,60.80,55.40,82.37,300.00,7.00,0.00,29.96,M,10.00,15.00,OVC,M,M,M,1200.00,M,M,M,M,M,M,M,M,M,M,60.80,KMCJ 231635Z AUTO 30007G15KT 240V340 10SM OVC012 16/13 A2996 RMK A01,M
MCJ,2020-01-23 16:55,60.80,55.40,82.37,290.00,9.00,0.00,29.96,M,10.00,M,OVC,M,M,M,1300.00,M,M,M,M,M,M,M,M,M,M,60.80,KMCJ 231655Z AUTO 29009KT 10SM OVC013 16/13 A2996 RMK A01,M
MCJ,2020-01-23 17:15,60.80,53.60,77.14,M,6.00,0.00,29.96,M,10.00,13.00,OVC,M,M,M,1400.00,M,M,M,M,M,M,M,M,M,M,60.80,KMCJ 231715Z AUTO VRB06G13KT 10SM OVC014 16/12 A2996 RMK A01,M
MCJ,2020-01-23 17:35,62.60,53.60,72.38,0.00,0.00,0.00,29.96,M,10.00,12.00,OVC,M,M,M,1500.00,M,M,M,M,M,M,M,M,M,M,62.60,KMCJ 231735Z AUTO 00000G12KT 10SM OVC015 17/12 A2996 RMK A01,M
MCJ,2020-01-23 17:55,60.80,53.60,77.14,310.00,7.00,0.00,29.97,M,10.00,14.00,OVC,M,M,M,1500.00,M,M,M,M,M,M,M,M,M,M,60.80,KMCJ 231755Z AUTO 31007G14KT 10SM OVC015 16/12 A2997 RMK A01,M
MCJ,2020-01-23 18:15,60.80,53.60,77.14,320.00,8.00,0.00,29.96,M,9.00,14.00,OVC,M,M,M,1500.00,M,M,M,M,M,M,M,M,M,M,60.80,KMCJ 231815Z AUTO 32008G14KT 9SM OVC015 16/12 A2996 RMK A01,M
MCJ,2020-01-23 18:35,60.80,53.60,77.14,M,6.00,0.00,29.95,M,10.00,16.00,OVC,M,M,M,1700.00,M,M,M,M,M,M,M,M,M,M,60.80,KMCJ 231835Z AUTO VRB06G16KT 10SM OVC017 16/12 A2995 RMK A01,M
MCJ,2020-01-23 18:55,60.80,51.80,72.20,320.00,7.00,0.00,29.95,M,10.00,13.00,OVC,M,M,M,1800.00,M,M,M,M,M,M,M,M,M,M,60.80,KMCJ 231855Z AUTO 32007G13KT 280V360 10SM OVC018 16/11 A2995 RMK A01,M
MCJ,2020-01-23 19:15,60.80,51.80,72.20,330.00,12.00,0.00,29.95,M,10.00,M,OVC,M,M,M,1700.00,M,M,M,M,M,M,M,M,M,M,60.80,KMCJ 231915Z AUTO 33012KT 10SM OVC017 16/11 A2995 RMK A01,M
MCJ,2020-01-23 19:35,60.80,51.80,72.20,330.00,15.00,0.00,29.95,M,10.00,20.00,OVC,M,M,M,1800.00,M,M,M,M,M,M,M,M,M,M,60.80,KMCJ 231935Z AUTO 33015G20KT 10SM OVC018 16/11 A2995 RMK A01,M
MCJ,2020-01-23 19:55,60.80,51.80,72.20,320.00,8.00,0.00,29.95,M,10.00,15.00,OVC,M,M,M,1800.00,M,M,M,M,M,M,M,M,M,M,60.80,KMCJ 231955Z AUTO 32008G15KT 10SM OVC018 16/11 A2995 RMK A01,M
MCJ,2020-01-23 20:15,60.80,51.80,72.20,320.00,8.00,0.00,29.95,M,10.00,15.00,OVC,M,M,M,1800.00,M,M,M,M,M,M,M,M,M,M,60.80,KMCJ 232015Z AUTO 32008G15KT 290V360 10SM OVC018 16/11 A2995 RMK A01,M
MCJ,2020-01-23 20:35,60.80,50.00,67.54,320.00,10.00,0.00,29.95,M,10.00,19.00,OVC,M,M,M,2000.00,M,M,M,M,M,M,M,M,M,M,60.80,KMCJ 232035Z AUTO 32010G19KT 10SM OVC020 16/10 A2995 RMK A01,M
MCJ,2020-01-23 20:55,62.60,50.00,63.38,330.00,13.00,0.00,29.93,M,10.00,18.00,OVC,M,M,M,2200.00,M,M,M,M,M,M,M,M,M,M,62.60,KMCJ 232055Z AUTO 33013G18KT 10SM OVC022 17/10 A2993 RMK A01,M
MCJ,2020-01-23 21:15,62.60,50.00,63.38,330.00,15.00,0.00,29.94,M,10.00,M,BKN,M,M,M,2100.00,M,M,M,M,M,M,M,M,M,M,62.60,KMCJ 232115Z AUTO 33015KT 10SM BKN021 17/10 A2994 RMK A01,M
MCJ,2020-01-23 21:35,62.60,50.00,63.38,350.00,14.00,0.00,29.94,M,10.00,M,BKN,M,M,M,2200.00,M,M,M,M,M,M,M,M,M,M,62.60,KMCJ 232135Z AUTO 35014KT 10SM BKN022 17/10 A2994 RMK A01,M
MCJ,2020-01-23 21:55,60.80,50.00,67.54,360.00,11.00,0.00,29.95,M,10.00,17.00,BKN,M,M,M,2200.00,M,M,M,M,M,M,M,M,M,M,60.80,KMCJ 232155Z AUTO 36011G17KT 10SM BKN022 16/10 A2995 RMK A01,M
MCJ,2020-01-23 22:15,60.80,50.00,67.54,330.00,10.00,0.00,29.95,M,10.00,M,BKN,M,M,M,2100.00,M,M,M,M,M,M,M,M,M,M,60.80,KMCJ 232215Z AUTO 33010KT 10SM BKN021 16/10 A2995 RMK A01,M
MCJ,2020-01-23 22:35,60.80,48.20,63.15,350.00,11.00,0.00,29.95,M,10.00,16.00,SCT,M,M,M,2200.00,M,M,M,M,M,M,M,M,M,M,60.80,KMCJ 232235Z AUTO 35011G16KT 10SM SCT022 16/09 A2995 RMK A01,M
MCJ,2020-01-23 22:55,60.80,48.20,63.15,320.00,11.00,0.00,29.97,M,10.00,19.00,CLR,M,M,M,M,M,M,M,M,M,M,M,M,M,M,60.80,KMCJ 232255Z AUTO 32011G19KT 10SM CLR 16/09 A2997 RMK A01,M
MCJ,2020-01-23 23:15,59.00,48.20,67.33,350.00,11.00,0.00,29.97,M,10.00,M,FEW,M,M,M,2300.00,M,M,M,M,M,M,M,M,M,M,59.00,KMCJ 232315Z AUTO 35011KT 320V050 10SM FEW023 15/09 A2997 RMK A01,M
MCJ,2020-01-23 23:35,57.20,48.20,71.83,350.00,12.00,0.00,29.97,M,10.00,M,FEW,M,M,M,2300.00,M,M,M,M,M,M,M,M,M,M,57.20,KMCJ 232335Z AUTO 35012KT 10SM FEW023 14/09 A2997 RMK A01,M
MCJ,2020-01-23 23:55,55.40,48.20,76.66,340.00,9.00,0.00,29.99,M,10.00,M,CLR,M,M,M,M,M,M,M,M,M,M,M,M,M,M,55.40,KMCJ 232355Z AUTO 34009KT 10SM CLR 13/09 A2999 RMK A01,M
MCJ,2020-01-24 00:15,55.40,46.40,71.64,340.00,11.00,0.00,29.99,M,10.00,M,CLR,M,M,M,M,M,M,M,M,M,M,M,M,M,M,55.40,KMCJ 240015Z AUTO 34011KT 10SM CLR 13/08 A2999 RMK A01,M
MCJ,2020-01-24 00:35,55.40,46.40,71.64,330.00,11.00,0.00,30.00,M,10.00,17.00,CLR,M,M,M,M,M,M,M,M,M,M,M,M,M,M,55.40,KMCJ 240035Z AUTO 33011G17KT 10SM CLR 13/08 A3000 RMK A01,M
MCJ,2020-01-24 00:55,53.60,46.40,76.50,330.00,11.00,0.00,30.01,M,10.00,M,CLR,M,M,M,M,M,M,M,M,M,M,M,M,M,M,53.60,KMCJ 240055Z AUTO 33011KT 10SM CLR 12/08 A3001 RMK A01,M
MCJ,2020-01-24 01:15,53.60,46.40,76.50,340.00,9.00,0.00,30.01,M,10.00,M,CLR,M,M,M,M,M,M,M,M,M,M,M,M,M,M,53.60,KMCJ 240115Z AUTO 34009KT 10SM CLR 12/08 A3001 RMK A01,M
MCJ,2020-01-24 01:35,53.60,46.40,76.50,340.00,6.00,0.00,30.02,M,10.00,M,CLR,M,M,M,M,M,M,M,M,M,M,M,M,M,M,53.60,KMCJ 240135Z AUTO 34006KT 10SM CLR 12/08 A3002 RMK A01,M
MCJ,2020-01-24 01:55,51.80,46.40,81.74,330.00,8.00,0.00,30.04,M,10.00,M,CLR,M,M,M,M,M,M,M,M,M,M,M,M,M,M,51.80,KMCJ 240155Z AUTO 33008KT 10SM CLR 11/08 A3004 RMK A01,M
MCJ,2020-01-24 02:15,51.80,46.40,81.74,330.00,7.00,0.00,30.05,M,10.00,M,CLR,M,M,M,M,M,M,M,M,M,M,M,M,M,M,51.80,KMCJ 240215Z AUTO 33007KT 10SM CLR 11/08 A3005 RMK A01,M
MCJ,2020-01-24 02:35,51.80,46.40,81.74,330.00,6.00,0.00,30.06,M,10.00,M,CLR,M,M,M,M,M,M,M,M,M,M,M,M,M,M,51.80,KMCJ 240235Z AUTO 33006KT 10SM CLR 11/08 A3006 RMK A01,M
MCJ,2020-01-24 02:55,51.80,46.40,81.74,M,6.00,0.00,30.06,M,10.00,12.00,CLR,M,M,M,M,M,M,M,M,M,M,M,M,M,M,51.80,KMCJ 240255Z AUTO VRB06G12KT 290V350 10SM CLR 11/08 A3006 RMK A01,M
MCJ,2020-01-24 03:15,51.80,46.40,81.74,330.00,5.00,0.00,30.07,M,10.00,M,CLR,M,M,M,M,M,M,M,M,M,M,M,M,M,M,51.80,KMCJ 240315Z AUTO 33005KT 10SM CLR 11/08 A3007 RMK A01,M
MCJ,2020-01-24 03:35,51.80,46.40,81.74,330.00,7.00,0.00,30.07,M,10.00,M,CLR,M,M,M,M,M,M,M,M,M,M,M,M,M,M,51.80,KMCJ 240335Z AUTO 33007KT 10SM CLR 11/08 A3007 RMK A01,M
MCJ,2020-01-24 03:55,51.80,46.40,81.74,340.00,7.00,0.00,30.07,M,10.00,M,CLR,M,M,M,M,M,M,M,M,M,M,M,M,M,M,51.80,KMCJ 240355Z AUTO 34007KT 10SM CLR 11/08 A3007 RMK A01,M
MCJ,2020-01-24 04:15,51.80,46.40,81.74,340.00,8.00,0.00,30.08,M,10.00,M,CLR,M,M,M,M,M,M,M,M,M,M,M,M,M,M,51.80,KMCJ 240415Z AUTO 34008KT 10SM CLR 11/08 A3008 RMK A01,M
MCJ,2020-01-24 04:35,50.00,46.40,87.37,330.00,6.00,0.00,30.08,M,10.00,M,CLR,M,M,M,M,M,M,M,M,M,M,M,M,M,M,47.21,KMCJ 240435Z AUTO 33006KT 10SM CLR 10/08 A3008 RMK A01,M
MCJ,2020-01-24 04:55,50.00,46.40,87.37,330.00,8.00,0.00,30.09,M,10.00,M,CLR,M,M,M,M,M,M,M,M,M,M,M,M,M,M,46.29,KMCJ 240455Z AUTO 33008KT 10SM CLR 10/08 A3009 RMK A01,M
MCJ,2020-01-24 05:15,50.00,46.40,87.37,M,5.00,0.00,30.09,M,10.00,M,CLR,M,M,M,M,M,M,M,M,M,M,M,M,M,M,47.77,KMCJ 240515Z AUTO VRB05KT 10SM CLR 10/08 A3009 RMK A01,M
MCJ,2020-01-24 05:35,50.00,44.60,81.61,340.00,6.00,0.00,30.10,M,10.00,M,CLR,M,M,M,M,M,M,M,M,M,M,M,M,M,M,47.21,KMCJ 240535Z AUTO 34006KT 10SM CLR 10/07 A3010 RMK A01,M
MCJ,2020-01-24 05:55,50.00,44.60,81.61,330.00,10.00,0.00,30.10,M,10.00,M,CLR,M,M,M,M,M,M,M,M,M,M,M,M,M,M,45.54,KMCJ 240555Z AUTO 33010KT 10SM CLR 10/07 A3010 RMK A01,M
MCJ,2020-01-24 06:15,50.00,44.60,81.61,330.00,8.00,0.00,30.09,M,10.00,M,CLR,M,M,M,M,M,M,M,M,M,M,M,M,M,M,46.29,KMCJ 240615Z AUTO 33008KT 10SM CLR 10/07 A3009 RMK A01,M
MCJ,2020-01-24 06:35,48.20,44.60,87.28,340.00,6.00,0.00,30.09,M,10.00,M,CLR,M,M,M,M,M,M,M,M,M,M,M,M,M,M,45.04,KMCJ 240635Z AUTO 34006KT 10SM CLR 09/07 A3009 RMK A01,M
MCJ,2020-01-24 06:55,48.20,44.60,87.28,340.00,7.00,0.00,30.09,M,10.00,M,CLR,M,M,M,M,M,M,M,M,M,M,M,M,M,M,44.53,KMCJ 240655Z AUTO 34007KT 10SM CLR 09/07 A3009 RMK A01,M
MCJ,2020-01-24 07:15,48.20,44.60,87.28,340.00,6.00,0.00,30.09,M,10.00,M,CLR,M,M,M,M,M,M,M,M,M,M,M,M,M,M,45.04,KMCJ 240715Z AUTO 34006KT 10SM CLR 09/07 A3009 RMK A01,M
MCJ,2020-01-24 07:35,50.00,44.60,81.61,330.00,6.00,0.00,30.10,M,10.00,M,CLR,M,M,M,M,M,M,M,M,M,M,M,M,M,M,47.21,KMCJ 240735Z AUTO 33006KT 10SM CLR 10/07 A3010 RMK A01,M
MCJ,2020-01-24 07:55,50.00,42.80,76.18,330.00,5.00,0.00,30.10,M,10.00,M,CLR,M,M,M,M,M,M,M,M,M,M,M,M,M,M,47.77,KMCJ 240755Z AUTO 33005KT 10SM CLR 10/06 A3010 RMK A01,M
MCJ,2020-01-24 08:15,50.00,42.80,76.18,0.00,0.00,0.00,30.10,M,10.00,M,CLR,M,M,M,M,M,M,M,M,M,M,M,M,M,M,50.00,KMCJ 240815Z AUTO 00000KT 10SM CLR 10/06 A3010 RMK A01,M
MCJ,2020-01-24 08:35,50.00,42.80,76.18,0.00,0.00,0.00,30.10,M,10.00,M,CLR,M,M,M,M,M,M,M,M,M,M,M,M,M,M,50.00,KMCJ 240835Z AUTO 00000KT 10SM CLR 10/06 A3010 RMK A01,M
MCJ,2020-01-24 08:55,50.00,42.80,76.18,340.00,4.00,0.00,30.10,M,10.00,M,CLR,M,M,M,M,M,M,M,M,M,M,M,M,M,M,48.44,KMCJ 240855Z AUTO 34004KT 10SM CLR 10/06 A3010 RMK A01,M
MCJ,2020-01-24 09:15,50.00,42.80,76.18,340.00,4.00,0.00,30.09,M,10.00,M,CLR,M,M,M,M,M,M,M,M,M,M,M,M,M,M,48.44,KMCJ 240915Z AUTO 34004KT 10SM CLR 10/06 A3009 RMK A01,M
MCJ,2020-01-24 09:35,50.00,42.80,76.18,0.00,0.00,0.00,30.09,M,10.00,M,CLR,M,M,M,M,M,M,M,M,M,M,M,M,M,M,50.00,KMCJ 240935Z AUTO 00000KT 10SM CLR 10/06 A3009 RMK A01,M
MCJ,2020-01-24 09:55,48.20,42.80,81.47,330.00,5.00,0.00,30.09,M,10.00,M,CLR,M,M,M,M,M,M,M,M,M,M,M,M,M,M,45.63,KMCJ 240955Z AUTO 33005KT 10SM CLR 09/06 A3009 RMK A01,M
MCJ,2020-01-24 10:15,50.00,42.80,76.18,330.00,6.00,0.00,30.09,M,10.00,M,CLR,M,M,M,M,M,M,M,M,M,M,M,M,M,M,47.21,KMCJ 241015Z AUTO 33006KT 10SM CLR 10/06 A3009 RMK A01,M
MCJ,2020-01-24 10:35,50.00,42.80,76.18,330.00,7.00,0.00,30.09,M,10.00,M,CLR,M,M,M,M,M,M,M,M,M,M,M,M,M,M,46.72,KMCJ 241035Z AUTO 33007KT 10SM CLR 10/06 A3009 RMK A01,M
MCJ,2020-01-24 10:55,50.00,41.00,71.07,340.00,7.00,0.00,30.08,M,10.00,M,CLR,M,M,M,M,M,M,M,M,M,M,M,M,M,M,46.72,KMCJ 241055Z AUTO 34007KT 10SM CLR 10/05 A3008 RMK A01,M
MCJ,2020-01-24 11:15,48.20,42.80,81.47,340.00,6.00,0.00,30.09,M,10.00,M,CLR,M,M,M,M,M,M,M,M,M,M,M,M,M,M,45.04,KMCJ 241115Z AUTO 34006KT 10SM CLR 09/06 A3009 RMK A01,M
MCJ,2020-01-24 11:35,50.00,42.80,76.18,330.00,7.00,0.00,30.09,M,10.00,M,CLR,M,M,M,M,M,M,M,M,M,M,M,M,M,M,46.72,KMCJ 241135Z AUTO 33007KT 10SM CLR 10/06 A3009 RMK A01,M
MCJ,2020-01-24 11:55,50.00,42.80,76.18,330.00,7.00,0.00,30.10,M,10.00,M,CLR,M,M,M,M,M,M,M,M,M,M,M,M,M,M,46.72,KMCJ 241155Z AUTO 33007KT 10SM CLR 10/06 A3010 RMK A01,M
MCJ,2020-01-24 12:15,48.20,42.80,81.47,340.00,5.00,0.00,30.11,M,10.00,M,CLR,M,M,M,M,M,M,M,M,M,M,M,M,M,M,45.63,KMCJ 241215Z AUTO 34005KT 10SM CLR 09/06 A3011 RMK A01,M
MCJ,2020-01-24 12:35,48.20,42.80,81.47,0.00,0.00,0.00,30.12,M,10.00,M,CLR,M,M,M,M,M,M,M,M,M,M,M,M,M,M,48.20,KMCJ 241235Z AUTO 00000KT 10SM CLR 09/06 A3012 RMK A01,M
MCJ,2020-01-24 12:55,48.20,42.80,81.47,0.00,0.00,0.00,30.13,M,10.00,M,CLR,M,M,M,M,M,M,M,M,M,M,M,M,M,M,48.20,KMCJ 241255Z AUTO 00000KT 10SM CLR 09/06 A3013 RMK A01,M
MCJ,2020-01-24 13:15,48.20,42.80,81.47,290.00,4.00,0.00,30.14,M,10.00,M,CLR,M,M,M,M,M,M,M,M,M,M,M,M,M,M,46.34,KMCJ 241315Z AUTO 29004KT 10SM CLR 09/06 A3014 RMK A01,M
MCJ,2020-01-24 13:35,48.20,42.80,81.47,0.00,0.00,0.00,30.14,M,9.00,M,CLR,M,M,M,M,M,M,M,M,M,M,M,M,M,M,48.20,KMCJ 241335Z AUTO 00000KT 9SM CLR 09/06 A3014 RMK A01,M
MCJ,2020-01-24 13:55,48.20,42.80,81.47,250.00,4.00,0.00,30.15,M,10.00,M,CLR,M,M,M,M,M,M,M,M,M,M,M,M,M,M,46.34,KMCJ 241355Z AUTO 25004KT 10SM CLR 09/06 A3015 RMK A01,M
MCJ,2020-01-24 14:15,48.20,42.80,81.47,0.00,0.00,0.00,30.16,M,9.00,M,CLR,M,M,M,M,M,M,M,M,M,M,M,M,M,M,48.20,KMCJ 241415Z AUTO 00000KT 9SM CLR 09/06 A3016 RMK A01,M
MCJ,2020-01-24 14:35,48.20,42.80,81.47,290.00,5.00,0.00,30.17,M,9.00,M,CLR,M,M,M,M,M,M,M,M,M,M,M,M,M,M,45.63,KMCJ 241435Z AUTO 29005KT 9SM CLR 09/06 A3017 RMK A01,M
MCJ,2020-01-24 14:55,50.00,42.80,76.18,300.00,5.00,0.00,30.17,M,10.00,M,CLR,M,M,M,M,M,M,M,M,M,M,M,M,M,M,47.77,KMCJ 241455Z AUTO 30005KT 10SM CLR 10/06 A3017 RMK A01,M
MCJ,2020-01-24 15:15,51.80,44.60,76.34,M,4.00,0.00,30.18,M,9.00,M,CLR,M,M,M,M,M,M,M,M,M,M,M,M,M,M,51.80,KMCJ 241515Z AUTO VRB04KT 9SM CLR 11/07 A3018 RMK A01,M
MCJ,2020-01-24 15:35,55.40,42.80,62.46,0.00,0.00,0.00,30.19,M,10.00,M,CLR,M,M,M,M,M,M,M,M,M,M,M,M,M,M,55.40,KMCJ 241535Z AUTO 00000KT 10SM CLR 13/06 A3019 RMK A01,M
MCJ,2020-01-24 15:55,57.20,42.80,58.52,0.00,0.00,0.00,30.19,M,10.00,M,CLR,M,M,M,M,M,M,M,M,M,M,M,M,M,M,57.20,KMCJ 241555Z AUTO 00000KT 10SM CLR 14/06 A3019 RMK A01,M
MCJ,2020-01-24 16:15,59.00,39.20,47.72,340.00,5.00,0.00,30.20,M,10.00,M,CLR,M,M,M,M,M,M,M,M,M,M,M,M,M,M,59.00,KMCJ 241615Z AUTO 34005KT 10SM CLR 15/04 A3020 RMK A01,M
MCJ,2020-01-24 16:35,59.00,37.40,44.47,M,5.00,0.00,30.20,M,10.00,10.00,CLR,M,M,M,M,M,M,M,M,M,M,M,M,M,M,59.00,KMCJ 241635Z AUTO VRB05G10KT 10SM CLR 15/03 A3020 RMK A01,M
MCJ,2020-01-24 16:55,59.00,37.40,44.47,330.00,9.00,0.00,30.20,M,10.00,M,CLR,M,M,M,M,M,M,M,M,M,M,M,M,M,M,59.00,KMCJ 241655Z AUTO 33009KT 10SM CLR 15/03 A3020 RMK A01,M
MCJ,2020-01-24 17:15,59.00,39.20,47.72,350.00,7.00,0.00,30.20,M,10.00,M,CLR,M,M,M,M,M,M,M,M,M,M,M,M,M,M,59.00,KMCJ 241715Z AUTO 35007KT 320V050 10SM CLR 15/04 A3020 RMK A01,M
MCJ,2020-01-24 17:35,60.80,39.20,44.76,340.00,7.00,0.00,30.19,M,10.00,M,CLR,M,M,M,M,M,M,M,M,M,M,M,M,M,M,60.80,KMCJ 241735Z AUTO 34007KT 10SM CLR 16/04 A3019 RMK A01,M
MCJ,2020-01-24 17:55,62.60,35.60,36.45,340.00,5.00,0.00,30.18,M,10.00,M,CLR,M,M,M,M,M,M,M,M,M,M,M,M,M,M,62.60,KMCJ 241755Z AUTO 34005KT 10SM CLR 17/02 A3018 RMK A01,M
MCJ,2020-01-24 18:15,64.40,33.80,31.85,330.00,6.00,0.00,30.17,M,10.00,M,CLR,M,M,M,M,M,M,M,M,M,M,M,M,M,M,64.40,KMCJ 241815Z AUTO 33006KT 10SM CLR 18/01 A3017 RMK A01,M
MCJ,2020-01-24 18:35,64.40,33.80,31.85,M,4.00,0.00,30.16,M,10.00,M,CLR,M,M,M,M,M,M,M,M,M,M,M,M,M,M,64.40,KMCJ 241835Z AUTO VRB04KT 10SM CLR 18/01 A3016 RMK A01,M
MCJ,2020-01-24 18:55,64.40,33.80,31.85,M,5.00,0.00,30.16,M,10.00,M,CLR,M,M,M,M,M,M,M,M,M,M,M,M,M,M,64.40,KMCJ 241855Z AUTO VRB05KT 10SM CLR 18/01 A3016 RMK A01,M
MCJ,2020-01-24 19:15,66.20,30.20,25.88,M,5.00,0.00,30.15,M,10.00,M,CLR,M,M,M,M,M,M,M,M,M,M,M,M,M,M,66.20,KMCJ 241915Z AUTO VRB05KT 10SM CLR 19/M01 A3015 RMK A01,M
MCJ,2020-01-24 19:35,66.20,32.00,27.83,0.00,0.00,0.00,30.13,M,10.00,M,CLR,M,M,M,M,M,M,M,M,M,M,M,M,M,M,66.20,KMCJ 241935Z AUTO 00000KT 10SM CLR 19/00 A3013 RMK A01,M
MCJ,2020-01-24 19:55,68.00,32.00,26.15,0.00,0.00,0.00,30.12,M,10.00,M,CLR,M,M,M,M,M,M,M,M,M,M,M,M,M,M,68.00,KMCJ 241955Z AUTO 00000KT 10SM CLR 20/00 A3012 RMK A01,M
MCJ,2020-01-24 20:15,68.00,30.20,24.32,M,6.00,0.00,30.12,M,10.00,11.00,CLR,M,M,M,M,M,M,M,M,M,M,M,M,M,M,68.00,KMCJ 242015Z AUTO VRB06G11KT 10SM CLR 20/M01 A3012 RMK A01,M
MCJ,2020-01-24 20:35,68.00,30.20,24.32,0.00,0.00,0.00,30.11,M,10.00,M,CLR,M,M,M,M,M,M,M,M,M,M,M,M,M,M,68.00,KMCJ 242035Z AUTO 00000KT 10SM CLR 20/M01 A3011 RMK A01,M
MCJ,2020-01-24 20:55,68.00,30.20,24.32,M,5.00,0.00,30.11,M,10.00,M,CLR,M,M,M,M,M,M,M,M,M,M,M,M,M,M,68.00,KMCJ 242055Z AUTO VRB05KT 10SM CLR 20/M01 A3011 RMK A01,M
MCJ,2020-01-24 21:15,68.00,30.20,24.32,330.00,5.00,0.00,30.11,M,10.00,M,CLR,M,M,M,M,M,M,M,M,M,M,M,M,M,M,68.00,KMCJ 242115Z AUTO 33005KT 10SM CLR 20/M01 A3011 RMK A01,M
MCJ,2020-01-24 21:35,68.00,28.40,22.59,M,3.00,0.00,30.10,M,10.00,M,CLR,M,M,M,M,M,M,M,M,M,M,M,M,M,M,68.00,KMCJ 242135Z AUTO VRB03KT 10SM CLR 20/M02 A3010 RMK A01,M
MCJ,2020-01-24 21:55,66.20,28.40,24.04,0.00,0.00,0.00,30.10,M,10.00,M,CLR,M,M,M,M,M,M,M,M,M,M,M,M,M,M,66.20,KMCJ 242155Z AUTO 00000KT 10SM CLR 19/M02 A3010 RMK A01,M
MCJ,2020-01-24 22:15,68.00,28.40,22.59,M,4.00,0.00,30.10,M,10.00,M,CLR,M,M,M,M,M,M,M,M,M,M,M,M,M,M,68.00,KMCJ 242215Z AUTO VRB04KT 10SM CLR 20/M02 A3010 RMK A01,M
MCJ,2020-01-24 22:35,68.00,26.60,20.98,0.00,0.00,0.00,30.10,M,10.00,M,CLR,M,M,M,M,M,M,M,M,M,M,M,M,M,M,68.00,KMCJ 242235Z AUTO 00000KT 10SM CLR 20/M03 A3010 RMK A01,M
MCJ,2020-01-24 22:55,68.00,26.60,20.98,330.00,4.00,0.00,30.11,M,10.00,M,CLR,M,M,M,M,M,M,M,M,M,M,M,M,M,M,68.00,KMCJ 242255Z AUTO 33004KT 10SM CLR 20/M03 A3011 RMK A01,M
MCJ,2020-01-24 23:15,66.20,26.60,22.33,340.00,5.00,0.00,30.11,M,10.00,M,CLR,M,M,M,M,M,M,M,M,M,M,M,M,M,M,66.20,KMCJ 242315Z AUTO 34005KT 10SM CLR 19/M03 A3011 RMK A01,M
MCJ,2020-01-24 23:35,64.40,28.40,25.60,0.00,0.00,0.00,30.11,M,10.00,M,CLR,M,M,M,M,M,M,M,M,M,M,M,M,M,M,64.40,KMCJ 242335Z AUTO 00000KT 10SM CLR 18/M02 A3011 RMK A01,M
MCJ,2020-01-24 23:55,62.60,28.40,27.27,0.00,0.00,0.00,30.11,M,10.00,M,CLR,M,M,M,M,M,M,M,M,M,M,M,M,M,M,62.60,KMCJ 242355Z AUTO 00000KT 10SM CLR 17/M02 A3011 RMK A01,M
MCJ,2020-01-25 00:15,62.60,26.60,25.32,0.00,0.00,0.00,30.11,M,10.00,M,CLR,M,M,M,M,M,M,M,M,M,M,M,M,M,M,62.60,KMCJ 250015Z AUTO 00000KT 10SM CLR 17/M03 A3011 RMK A01,M
MCJ,2020-01-25 00:35,62.60,28.40,27.27,0.00,0.00,0.00,30.11,M,10.00,M,CLR,M,M,M,M,M,M,M,M,M,M,M,M,M,M,62.60,KMCJ 250035Z AUTO 00000KT 10SM CLR 17/M02 A3011 RMK A01,M
MCJ,2020-01-25 00:55,62.60,28.40,27.27,0.00,0.00,0.00,30.12,M,10.00,M,CLR,M,M,M,M,M,M,M,M,M,M,M,M,M,M,62.60,KMCJ 250055Z AUTO 00000KT 10SM CLR 17/M02 A3012 RMK A01,M
MCJ,2020-01-25 01:15,62.60,28.40,27.27,0.00,0.00,0.00,30.13,M,10.00,M,CLR,M,M,M,M,M,M,M,M,M,M,M,M,M,M,62.60,KMCJ 250115Z AUTO 00000KT 10SM CLR 17/M02 A3013 RMK A01,M
MCJ,2020-01-25 01:35,60.80,28.40,29.06,0.00,0.00,0.00,30.13,M,10.00,M,CLR,M,M,M,M,M,M,M,M,M,M,M,M,M,M,60.80,KMCJ 250135Z AUTO 00000KT 10SM CLR 16/M02 A3013 RMK A01,M
MCJ,2020-01-25 01:55,60.80,28.40,29.06,0.00,0.00,0.00,30.13,M,10.00,M,CLR,M,M,M,M,M,M,M,M,M,M,M,M,M,M,60.80,KMCJ 250155Z AUTO 00000KT 10SM CLR 16/M02 A3013 RMK A01,M
MCJ,2020-01-25 02:15,60.80,30.20,31.28,0.00,0.00,0.00,30.14,M,9.00,M,CLR,M,M,M,M,M,M,M,M,M,M,M,M,M,M,60.80,KMCJ 250215Z AUTO 00000KT 9SM CLR 16/M01 A3014 RMK A01,M
MCJ,2020-01-25 02:35,59.00,30.20,33.35,180.00,4.00,0.00,30.14,M,10.00,M,CLR,M,M,M,M,M,M,M,M,M,M,M,M,M,M,59.00,KMCJ 250235Z AUTO 18004KT 10SM CLR 15/M01 A3014 RMK A01,M
MCJ,2020-01-25 02:55,59.00,37.40,44.47,0.00,0.00,0.00,30.15,M,10.00,10.00,CLR,M,M,M,M,M,M,M,M,M,M,M,M,M,M,59.00,KMCJ 250255Z AUTO 00000G10KT 10SM CLR 15/03 A3015 RMK A01,M
MCJ,2020-01-25 03:15,57.20,42.80,58.52,M,4.00,0.00,30.15,M,10.00,M,CLR,M,M,M,M,M,M,M,M,M,M,M,M,M,M,57.20,KMCJ 250315Z AUTO VRB04KT 10SM CLR 14/06 A3015 RMK A01,M
MCJ,2020-01-25 03:35,57.20,42.80,58.52,0.00,0.00,0.00,30.14,M,10.00,M,CLR,M,M,M,M,M,M,M,M,M,M,M,M,M,M,57.20,KMCJ 250335Z AUTO 00000KT 10SM CLR 14/06 A3014 RMK A01,M
MCJ,2020-01-25 03:55,57.20,42.80,58.52,0.00,0.00,0.00,30.15,M,10.00,M,CLR,M,M,M,M,M,M,M,M,M,M,M,M,M,M,57.20,KMCJ 250355Z AUTO 00000KT 10SM CLR 14/06 A3015 RMK A01,M
MCJ,2020-01-25 04:15,57.20,42.80,58.52,0.00,0.00,0.00,30.15,M,10.00,M,CLR,M,M,M,M,M,M,M,M,M,M,M,M,M,M,57.20,KMCJ 250415Z AUTO 00000KT 10SM CLR 14/06 A3015 RMK A01,M
MCJ,2020-01-25 04:35,55.40,42.80,62.46,0.00,0.00,0.00,30.15,M,10.00,M,CLR,M,M,M,M,M,M,M,M,M,M,M,M,M,M,55.40,KMCJ 250435Z AUTO 00000KT 10SM CLR 13/06 A3015 RMK A01,M
MCJ,2020-01-25 04:55,55.40,42.80,62.46,0.00,0.00,0.00,30.15,M,10.00,M,CLR,M,M,M,M,M,M,M,M,M,M,M,M,M,M,55.40,KMCJ 250455Z AUTO 00000KT 10SM CLR 13/06 A3015 RMK A01,M
MCJ,2020-01-25 05:15,55.40,39.20,54.34,M,3.00,0.00,30.15,M,10.00,M,CLR,M,M,M,M,M,M,M,M,M,M,M,M,M,M,55.40,KMCJ 250515Z AUTO VRB03KT 10SM CLR 13/04 A3015 RMK A01,M
MCJ,2020-01-25 05:35,55.40,39.20,54.34,0.00,0.00,0.00,30.15,M,10.00,M,CLR,M,M,M,M,M,M,M,M,M,M,M,M,M,M,55.40,KMCJ 250535Z AUTO 00000KT 10SM CLR 13/04 A3015 RMK A01,M
MCJ,2020-01-25 05:55,57.20,37.40,47.44,0.00,0.00,0.00,30.15,M,10.00,M,CLR,M,M,M,M,M,M,M,M,M,M,M,M,M,M,57.20,KMCJ 250555Z AUTO 00000KT 10SM CLR 14/03 A3015 RMK A01,M
MCJ,2020-01-25 06:15,57.20,37.40,47.44,0.00,0.00,0.00,30.15,M,10.00,M,CLR,M,M,M,M,M,M,M,M,M,M,M,M,M,M,57.20,KMCJ 250615Z AUTO 00000KT 10SM CLR 14/03 A3015 RMK A01,M
MCJ,2020-01-25 06:35,55.40,37.40,50.64,0.00,0.00,0.00,30.15,M,10.00,M,CLR,M,M,M,M,M,M,M,M,M,M,M,M,M,M,55.40,KMCJ 250635Z AUTO 00000KT 10SM CLR 13/03 A3015 RMK A01,M
MCJ,2020-01-25 06:55,57.20,41.00,54.60,0.00,0.00,0.00,30.15,M,10.00,M,CLR,M,M,M,M,M,M,M,M,M,M,M,M,M,M,57.20,KMCJ 250655Z AUTO 00000KT 10SM CLR 14/05 A3015 RMK A01,M
MCJ,2020-01-25 07:15,55.40,42.80,62.46,0.00,0.00,0.00,30.14,M,10.00,M,CLR,M,M,M,M,M,M,M,M,M,M,M,M,M,M,55.40,KMCJ 250715Z AUTO 00000KT 10SM CLR 13/06 A3014 RMK A01,M
MCJ,2020-01-25 07:35,55.40,42.80,62.46,0.00,0.00,0.00,30.14,M,10.00,M,CLR,M,M,M,M,M,M,M,M,M,M,M,M,M,M,55.40,KMCJ 250735Z AUTO 00000KT 10SM CLR 13/06 A3014 RMK A01,M
MCJ,2020-01-25 07:55,55.40,42.80,62.46,0.00,0.00,0.00,30.13,M,10.00,M,CLR,M,M,M,M,M,M,M,M,M,M,M,M,M,M,55.40,KMCJ 250755Z AUTO 00000KT 10SM CLR 13/06 A3013 RMK A01,M
MCJ,2020-01-25 08:15,55.40,42.80,62.46,0.00,0.00,0.00,30.14,M,10.00,M,CLR,M,M,M,M,M,M,M,M,M,M,M,M,M,M,55.40,KMCJ 250815Z AUTO 00000KT 10SM CLR 13/06 A3014 RMK A01,M
MCJ,2020-01-25 08:35,57.20,42.80,58.52,0.00,0.00,0.00,30.13,M,10.00,M,BKN,M,M,M,8500.00,M,M,M,M,M,M,M,M,M,M,57.20,KMCJ 250835Z AUTO 00000KT 10SM BKN085 14/06 A3013 RMK A01,M
MCJ,2020-01-25 08:55,57.20,42.80,58.52,0.00,0.00,0.00,30.13,M,10.00,M,BKN,M,M,M,8500.00,M,M,M,M,M,M,M,M,M,M,57.20,KMCJ 250855Z AUTO 00000KT 10SM BKN085 14/06 A3013 RMK A01,M
MCJ,2020-01-25 09:15,57.20,42.80,58.52,0.00,0.00,0.00,30.13,M,10.00,M,BKN,M,M,M,9000.00,M,M,M,M,M,M,M,M,M,M,57.20,KMCJ 250915Z AUTO 00000KT 10SM BKN090 14/06 A3013 RMK A01,M
MCJ,2020-01-25 09:35,57.20,44.60,62.69,180.00,3.00,0.00,30.13,M,10.00,M,BKN,M,M,M,9000.00,M,M,M,M,M,M,M,M,M,M,57.20,KMCJ 250935Z AUTO 18003KT 10SM BKN090 14/07 A3013 RMK A01,M
MCJ,2020-01-25 09:55,57.20,42.80,58.52,0.00,0.00,0.00,30.13,M,10.00,M,BKN,M,M,M,9000.00,M,M,M,M,M,M,M,M,M,M,57.20,KMCJ 250955Z AUTO 00000KT 10SM BKN090 14/06 A3013 RMK A01,M
MCJ,2020-01-25 10:15,55.40,42.80,62.46,0.00,0.00,0.00,30.13,M,10.00,M,BKN,M,M,M,9000.00,M,M,M,M,M,M,M,M,M,M,55.40,KMCJ 251015Z AUTO 00000KT 10SM BKN090 13/06 A3013 RMK A01,M
MCJ,2020-01-25 10:35,53.60,42.80,66.70,0.00,0.00,0.00,30.13,M,10.00,M,OVC,M,M,M,9000.00,M,M,M,M,M,M,M,M,M,M,53.60,KMCJ 251035Z AUTO 00000KT 10SM OVC090 12/06 A3013 RMK A01,M
MCJ,2020-01-25 10:55,53.60,42.80,66.70,0.00,0.00,0.00,30.13,M,10.00,M,OVC,M,M,M,9000.00,M,M,M,M,M,M,M,M,M,M,53.60,KMCJ 251055Z AUTO 00000KT 10SM OVC090 12/06 A3013 RMK A01,M
MCJ,2020-01-25 11:15,53.60,42.80,66.70,0.00,0.00,0.00,30.13,M,10.00,M,OVC,M,M,M,9000.00,M,M,M,M,M,M,M,M,M,M,53.60,KMCJ 251115Z AUTO 00000KT 10SM OVC090 12/06 A3013 RMK A01,M
MCJ,2020-01-25 11:35,53.60,42.80,66.70,0.00,0.00,0.00,30.13,M,10.00,M,BKN,M,M,M,9000.00,M,M,M,M,M,M,M,M,M,M,53.60,KMCJ 251135Z AUTO 00000KT 10SM BKN090 12/06 A3013 RMK A01,M
MCJ,2020-01-25 11:55,53.60,44.60,71.45,0.00,0.00,0.00,30.14,M,10.00,M,FEW,M,M,M,9000.00,M,M,M,M,M,M,M,M,M,M,53.60,KMCJ 251155Z AUTO 00000KT 10SM FEW090 12/07 A3014 RMK A01,M
MCJ,2020-01-25 12:15,51.80,46.40,81.74,0.00,0.00,0.00,30.14,M,10.00,M,CLR,M,M,M,M,M,M,M,M,M,M,M,M,M,M,51.80,KMCJ 251215Z AUTO 00000KT 10SM CLR 11/08 A3014 RMK A01,M
MCJ,2020-01-25 12:35,51.80,46.40,81.74,0.00,0.00,0.00,30.15,M,10.00,M,CLR,M,M,M,M,M,M,M,M,M,M,M,M,M,M,51.80,KMCJ 251235Z AUTO 00000KT 10SM CLR 11/08 A3015 RMK A01,M
MCJ,2020-01-25 12:55,51.80,46.40,81.74,0.00,0.00,0.00,30.15,M,10.00,M,CLR,M,M,M,M,M,M,M,M,M,M,M,M,M,M,51.80,KMCJ 251255Z AUTO 00000KT 10SM CLR 11/08 A3015 RMK A01,M
MCJ,2020-01-25 13:15,53.60,48.20,81.87,0.00,0.00,0.00,30.16,M,9.00,M,CLR,M,M,M,M,M,M,M,M,M,M,M,M,M,M,53.60,KMCJ 251315Z AUTO 00000KT 9SM CLR 12/09 A3016 RMK A01,M
MCJ,2020-01-25 13:35,51.80,48.20,87.47,0.00,0.00,0.00,30.16,M,9.00,M,FEW,M,M,M,9000.00,M,M,M,M,M,M,M,M,M,M,51.80,KMCJ 251335Z AUTO 00000KT 9SM FEW090 11/09 A3016 RMK A01,M
MCJ,2020-01-25 13:55,51.80,48.20,87.47,M,3.00,0.00,30.16,M,8.00,M,CLR,M,M,M,M,M,M,M,M,M,M,M,M,M,M,51.80,KMCJ 251355Z AUTO VRB03KT 8SM CLR 11/09 A3016 RMK A01,M
MCJ,2020-01-25 14:15,51.80,44.60,76.34,M,4.00,0.00,30.16,M,9.00,12.00,CLR,M,M,M,M,M,M,M,M,M,M,M,M,M,M,51.80,KMCJ 251415Z AUTO VRB04G12KT 9SM CLR 11/07 A3016 RMK A01,M
MCJ,2020-01-25 14:35,53.60,42.80,66.70,0.00,0.00,0.00,30.17,M,10.00,M,CLR,M,M,M,M,M,M,M,M,M,M,M,M,M,M,53.60,KMCJ 251435Z AUTO 00000KT 10SM CLR 12/06 A3017 RMK A01,M
MCJ,2020-01-25 14:55,53.60,42.80,66.70,0.00,0.00,0.00,30.17,M,10.00,M,CLR,M,M,M,M,M,M,M,M,M,M,M,M,M,M,53.60,KMCJ 251455Z AUTO 00000KT 10SM CLR 12/06 A3017 RMK A01,M
MCJ,2020-01-25 15:15,55.40,44.60,66.91,0.00,0.00,0.00,30.17,M,10.00,M,CLR,M,M,M,M,M,M,M,M,M,M,M,M,M,M,55.40,KMCJ 251515Z AUTO 00000KT 10SM CLR 13/07 A3017 RMK A01,M
MCJ,2020-01-25 15:35,59.00,44.60,58.77,0.00,0.00,0.00,30.18,M,10.00,M,CLR,M,M,M,M,M,M,M,M,M,M,M,M,M,M,59.00,KMCJ 251535Z AUTO 00000KT 10SM CLR 15/07 A3018 RMK A01,M
MCJ,2020-01-25 15:55,60.80,44.60,55.12,M,3.00,0.00,30.18,M,10.00,M,CLR,M,M,M,M,M,M,M,M,M,M,M,M,M,M,60.80,KMCJ 251555Z AUTO VRB03KT 10SM CLR 16/07 A3018 RMK A01,M
MCJ,2020-01-25 16:15,62.60,44.60,51.72,M,4.00,0.00,30.18,M,10.00,M,CLR,M,M,M,M,M,M,M,M,M,M,M,M,M,M,62.60,KMCJ 251615Z AUTO VRB04KT 10SM CLR 17/07 A3018 RMK A01,M
MCJ,2020-01-25 16:35,62.60,44.60,51.72,M,4.00,0.00,30.18,M,10.00,M,CLR,M,M,M,M,M,M,M,M,M,M,M,M,M,M,62.60,KMCJ 251635Z AUTO VRB04KT 10SM CLR 17/07 A3018 RMK A01,M
MCJ,2020-01-25 16:55,62.60,44.60,51.72,M,4.00,0.00,30.17,M,10.00,M,CLR,M,M,M,M,M,M,M,M,M,M,M,M,M,M,62.60,KMCJ 251655Z AUTO VRB04KT 10SM CLR 17/07 A3017 RMK A01,M
MCJ,2020-01-25 17:15,64.40,44.60,48.55,0.00,0.00,0.00,30.17,M,10.00,M,CLR,M,M,M,M,M,M,M,M,M,M,M,M,M,M,64.40,KMCJ 251715Z AUTO 00000KT 10SM CLR 18/07 A3017 RMK A01,M
MCJ,2020-01-25 17:35,66.20,42.80,42.57,M,3.00,0.00,30.17,M,10.00,M,SCT,BKN,M,M,7500.00,8500.00,M,M,M,M,M,M,M,M,M,66.20,KMCJ 251735Z AUTO VRB03KT 10SM SCT075 BKN085 19/06 A3017 RMK A01,M
MCJ,2020-01-25 17:55,68.00,44.60,42.85,M,4.00,0.00,30.15,M,10.00,M,FEW,FEW,M,M,8500.00,10000.00,M,M,M,M,M,M,M,M,M,68.00,KMCJ 251755Z AUTO VRB04KT 10SM FEW085 FEW100 20/07 A3015 RMK A01,M
MCJ,2020-01-25 18:15,66.20,39.20,37.03,M,4.00,0.00,30.14,M,10.00,10.00,FEW,FEW,M,M,8000.00,10000.00,M,M,M,M,M,M,M,M,M,66.20,KMCJ 251815Z AUTO VRB04G10KT 10SM FEW080 FEW100 19/04 A3014 RMK A01,M
MCJ,2020-01-25 18:35,66.20,41.00,39.72,M,4.00,0.00,30.14,M,10.00,M,BKN,M,M,M,8000.00,M,M,M,M,M,M,M,M,M,M,66.20,KMCJ 251835Z AUTO VRB04KT 10SM BKN080 19/05 A3014 RMK A01,M
MCJ,2020-01-25 18:55,68.00,41.00,37.32,M,5.00,0.00,30.12,M,10.00,12.00,FEW,BKN,M,M,4300.00,8000.00,M,M,M,M,M,M,M,M,M,68.00,KMCJ 251855Z AUTO VRB05G12KT 10SM FEW043 BKN080 20/05 A3012 RMK A01,M
MCJ,2020-01-25 19:15,64.40,44.60,48.55,M,3.00,0.00,30.11,M,10.00,12.00,BKN,M,M,M,8000.00,M,M,M,M,M,M,M,M,M,M,64.40,KMCJ 251915Z AUTO VRB03G12KT 10SM BKN080 18/07 A3011 RMK A01,M
MCJ,2020-01-25 19:35,64.40,46.40,51.98,M,4.00,0.00,30.11,M,10.00,M,BKN,M,M,M,7500.00,M,M,M,M,M,M,M,M,M,M,64.40,KMCJ 251935Z AUTO VRB04KT 10SM BKN075 18/08 A3011 RMK A01,M
MCJ,2020-01-25 19:55,64.40,48.20,55.63,M,4.00,0.00,30.10,M,9.00,M,OVC,M,M,M,7000.00,M,M,M,M,M,M,M,M,M,M,64.40,KMCJ 251955Z AUTO VRB04KT 9SM OVC070 18/09 A3010 RMK A01,M
MCJ,2020-01-25 20:15,62.60,50.00,63.38,M,5.00,0.00,30.09,M,10.00,M,OVC,M,M,M,6500.00,M,M,M,M,M,M,M,M,M,M,62.60,KMCJ 252015Z AUTO VRB05KT 10SM OVC065 17/10 A3009 RMK A01,M
MCJ,2020-01-25 20:35,62.60,50.00,63.38,0.00,0.00,0.00,30.08,M,10.00,M,BKN,OVC,M,M,6500.00,8000.00,M,M,M,M,M,M,M,M,M,62.60,KMCJ 252035Z AUTO 00000KT 10SM BKN065 OVC080 17/10 A3008 RMK A01,M
MCJ,2020-01-25 20:55,62.60,50.00,63.38,M,3.00,0.00,30.07,M,10.00,M,SCT,OVC,M,M,6500.00,8000.00,M,M,M,M,M,M,M,M,M,62.60,KMCJ 252055Z AUTO VRB03KT 10SM SCT065 OVC080 17/10 A3007 RMK A01,M
MCJ,2020-01-25 21:15,62.60,51.80,67.75,0.00,0.00,0.00,30.07,M,10.00,M,BKN,BKN,M,M,6500.00,8000.00,M,M,M,M,M,M,M,M,M,62.60,KMCJ 252115Z AUTO 00000KT 10SM BKN065 BKN080 17/11 A3007 RMK A01,M
MCJ,2020-01-27 16:55,59.00,51.80,76.98,50.00,5.00,0.00,30.07,M,4.00,M,OVC,M,M,M,1000.00,M,M,M,HZ,M,M,M,M,M,M,59.00,KMCJ 271655Z AUTO 05005KT 4SM HZ OVC010 15/11 A3007 RMK A01,M
MCJ,2020-01-27 17:15,59.00,51.80,76.98,M,4.00,0.00,30.07,M,4.00,M,OVC,M,M,M,1000.00,M,M,M,HZ,M,M,M,M,M,M,59.00,KMCJ 271715Z AUTO VRB04KT 4SM HZ OVC010 15/11 A3007 RMK A01,M
MCJ,2020-01-27 17:35,59.00,51.80,76.98,0.00,0.00,0.00,30.06,M,4.00,M,OVC,M,M,M,1100.00,M,M,M,HZ,M,M,M,M,M,M,59.00,KMCJ 271735Z AUTO 00000KT 4SM HZ OVC011 15/11 A3006 RMK A01,M
MCJ,2020-01-27 17:55,60.80,51.80,72.20,0.00,0.00,0.00,30.05,M,5.00,M,OVC,M,M,M,1200.00,M,M,M,HZ,M,M,M,M,M,M,60.80,KMCJ 271755Z AUTO 00000KT 5SM HZ OVC012 16/11 A3005 RMK A01,M
MCJ,2020-01-27 18:15,64.40,53.60,67.95,M,5.00,0.00,30.04,M,5.00,M,OVC,M,M,M,1400.00,M,M,M,HZ,M,M,M,M,M,M,64.40,KMCJ 271815Z AUTO VRB05KT 5SM HZ OVC014 18/12 A3004 RMK A01,M
MCJ,2020-01-27 18:35,66.20,51.80,59.74,M,3.00,0.00,30.04,M,5.00,M,OVC,M,M,M,1500.00,M,M,M,HZ,M,M,M,M,M,M,66.20,KMCJ 271835Z AUTO VRB03KT 5SM HZ OVC015 19/11 A3004 RMK A01,M
MCJ,2020-01-27 18:55,66.20,53.60,63.82,M,3.00,0.00,30.02,M,5.00,M,OVC,M,M,M,1600.00,M,M,M,HZ,M,M,M,M,M,M,66.20,KMCJ 271855Z AUTO VRB03KT 5SM HZ OVC016 19/12 A3002 RMK A01,M
MCJ,2020-01-27 19:15,68.00,51.80,56.13,0.00,0.00,0.00,30.01,M,6.00,M,BKN,M,M,M,1800.00,M,M,M,HZ,M,M,M,M,M,M,68.00,KMCJ 271915Z AUTO 00000KT 6SM HZ BKN018 20/11 A3001 RMK A01,M
MCJ,2020-01-27 19:35,66.20,53.60,63.82,40.00,5.00,0.00,30.00,M,5.00,M,FEW,M,M,M,2000.00,M,M,M,HZ,M,M,M,M,M,M,66.20,KMCJ 271935Z AUTO 04005KT 5SM HZ FEW020 19/12 A3000 RMK A01,M
MCJ,2020-01-27 19:55,68.00,53.60,59.97,40.00,6.00,0.00,29.99,M,7.00,M,CLR,M,M,M,M,M,M,M,M,M,M,M,M,M,M,68.00,KMCJ 271955Z AUTO 04006KT 7SM CLR 20/12 A2999 RMK A01,M
MCJ,2020-01-27 20:15,69.80,51.80,52.77,0.00,0.00,0.00,29.99,M,7.00,M,FEW,M,M,M,2300.00,M,M,M,M,M,M,M,M,M,M,69.80,KMCJ 272015Z AUTO 00000KT 7SM FEW023 21/11 A2999 RMK A01,M
MCJ,2020-01-27 20:35,68.00,53.60,59.97,M,6.00,0.00,29.99,M,7.00,M,FEW,M,M,M,2500.00,M,M,M,M,M,M,M,M,M,M,68.00,KMCJ 272035Z AUTO VRB06KT 7SM FEW025 20/12 A2999 RMK A01,M
MCJ,2020-01-27 20:55,69.80,51.80,52.77,M,5.00,0.00,29.98,M,7.00,M,SCT,M,M,M,2600.00,M,M,M,M,M,M,M,M,M,M,69.80,KMCJ 272055Z AUTO VRB05KT 7SM SCT026 21/11 A2998 RMK A01,M
MCJ,2020-01-27 21:15,69.80,51.80,52.77,M,6.00,0.00,29.98,M,8.00,M,FEW,M,M,M,2600.00,M,M,M,M,M,M,M,M,M,M,69.80,KMCJ 272115Z AUTO VRB06KT 8SM FEW026 21/11 A2998 RMK A01,M
MCJ,2020-01-27 21:35,68.00,51.80,56.13,M,5.00,0.00,29.97,M,9.00,M,FEW,M,M,M,2500.00,M,M,M,M,M,M,M,M,M,M,68.00,KMCJ 272135Z AUTO VRB05KT 9SM FEW025 20/11 A2997 RMK A01,M
MCJ,2020-01-27 21:55,66.20,51.80,59.74,M,4.00,0.00,29.97,M,8.00,11.00,CLR,M,M,M,M,M,M,M,M,M,M,M,M,M,M,66.20,KMCJ 272155Z AUTO VRB04G11KT 8SM CLR 19/11 A2997 RMK A01,M
MCJ,2020-01-27 22:15,64.40,51.80,63.60,0.00,0.00,0.00,29.97,M,8.00,11.00,CLR,M,M,M,M,M,M,M,M,M,M,M,M,M,M,64.40,KMCJ 272215Z AUTO 00000G11KT 8SM CLR 18/11 A2997 RMK A01,M
MCJ,2020-01-27 22:35,62.60,51.80,67.75,M,3.00,0.00,29.96,M,9.00,M,CLR,M,M,M,M,M,M,M,M,M,M,M,M,M,M,62.60,KMCJ 272235Z AUTO VRB03KT 9SM CLR 17/11 A2996 RMK A01,M
MCJ,2020-01-27 22:55,62.60,51.80,67.75,M,6.00,0.00,29.97,M,8.00,11.00,CLR,M,M,M,M,M,M,M,M,M,M,M,M,M,M,62.60,KMCJ 272255Z AUTO VRB06G11KT 8SM CLR 17/11 A2997 RMK A01,M
MCJ,2020-01-27 23:15,60.80,51.80,72.20,M,5.00,0.00,29.97,M,9.00,M,CLR,M,M,M,M,M,M,M,M,M,M,M,M,M,M,60.80,KMCJ 272315Z AUTO VRB05KT 9SM CLR 16/11 A2997 RMK A01,M
MCJ,2020-01-27 23:35,59.00,51.80,76.98,M,5.00,0.00,29.96,M,9.00,M,CLR,M,M,M,M,M,M,M,M,M,M,M,M,M,M,59.00,KMCJ 272335Z AUTO VRB05KT 9SM CLR 15/11 A2996 RMK A01,M
MCJ,2020-01-27 23:55,57.20,51.80,82.12,M,4.00,0.00,29.96,M,9.00,M,CLR,M,M,M,M,M,M,M,M,M,M,M,M,M,M,57.20,KMCJ 272355Z AUTO VRB04KT 9SM CLR 14/11 A2996 RMK A01,M
MCJ,2020-01-28 00:15,55.40,51.80,87.65,M,6.00,0.00,29.96,M,8.00,M,BKN,M,M,M,1100.00,M,M,M,M,M,M,M,M,M,M,55.40,KMCJ 280015Z AUTO VRB06KT 8SM BKN011 13/11 A2996 RMK A01,M
MCJ,2020-01-28 00:35,55.40,51.80,87.65,M,4.00,0.00,29.96,M,9.00,11.00,BKN,M,M,M,900.00,M,M,M,M,M,M,M,M,M,M,55.40,KMCJ 280035Z AUTO VRB04G11KT 9SM BKN009 13/11 A2996 RMK A01,M
MCJ,2020-01-28 00:55,55.40,51.80,87.65,M,4.00,0.00,29.97,M,9.00,M,OVC,M,M,M,800.00,M,M,M,M,M,M,M,M,M,M,55.40,KMCJ 280055Z AUTO VRB04KT 9SM OVC008 13/11 A2997 RMK A01,M
MCJ,2020-01-28 01:15,55.40,51.80,87.65,0.00,0.00,0.00,29.97,M,9.00,M,OVC,M,M,M,900.00,M,M,M,M,M,M,M,M,M,M,55.40,KMCJ 280115Z AUTO 00000KT 9SM OVC009 13/11 A2997 RMK A01,M
MCJ,2020-01-28 01:35,55.40,51.80,87.65,M,4.00,0.00,29.97,M,9.00,M,OVC,M,M,M,900.00,M,M,M,M,M,M,M,M,M,M,55.40,KMCJ 280135Z AUTO VRB04KT 9SM OVC009 13/11 A2997 RMK A01,M
MCJ,2020-01-28 01:55,57.20,51.80,82.12,M,3.00,0.00,29.98,M,9.00,M,OVC,M,M,M,1000.00,M,M,M,M,M,M,M,M,M,M,57.20,KMCJ 280155Z AUTO VRB03KT 9SM OVC010 14/11 A2998 RMK A01,M
MCJ,2020-01-28 02:15,57.20,51.80,82.12,M,3.00,0.00,29.98,M,9.00,M,OVC,M,M,M,1000.00,M,M,M,M,M,M,M,M,M,M,57.20,KMCJ 280215Z AUTO VRB03KT 9SM OVC010 14/11 A2998 RMK A01,M
MCJ,2020-01-28 02:35,57.20,51.80,82.12,0.00,0.00,0.00,29.99,M,9.00,M,OVC,M,M,M,1000.00,M,M,M,M,M,M,M,M,M,M,57.20,KMCJ 280235Z AUTO 00000KT 9SM OVC010 14/11 A2999 RMK A01,M
MCJ,2020-01-28 02:55,57.20,51.80,82.12,M,5.00,0.00,29.99,M,10.00,M,OVC,M,M,M,1000.00,M,M,M,M,M,M,M,M,M,M,57.20,KMCJ 280255Z AUTO VRB05KT 10SM OVC010 14/11 A2999 RMK A01,M
MCJ,2020-01-28 03:15,57.20,51.80,82.12,M,4.00,0.00,29.99,M,10.00,M,OVC,M,M,M,1100.00,M,M,M,M,M,M,M,M,M,M,57.20,KMCJ 280315Z AUTO VRB04KT 10SM OVC011 14/11 A2999 RMK A01,M
MCJ,2020-01-28 03:35,57.20,51.80,82.12,0.00,0.00,0.00,29.99,M,9.00,M,OVC,M,M,M,1100.00,M,M,M,M,M,M,M,M,M,M,57.20,KMCJ 280335Z AUTO 00000KT 9SM OVC011 14/11 A2999 RMK A01,M
MCJ,2020-01-28 03:55,57.20,51.80,82.12,M,4.00,0.00,29.99,M,9.00,M,OVC,M,M,M,1100.00,M,M,M,M,M,M,M,M,M,M,57.20,KMCJ 280355Z AUTO VRB04KT 9SM OVC011 14/11 A2999 RMK A01,M
MCJ,2020-01-28 04:15,57.20,50.00,76.82,M,4.00,0.00,29.99,M,9.00,10.00,OVC,M,M,M,1200.00,M,M,M,M,M,M,M,M,M,M,57.20,KMCJ 280415Z AUTO VRB04G10KT 9SM OVC012 14/10 A2999 RMK A01,M
MCJ,2020-01-28 04:35,57.20,50.00,76.82,0.00,0.00,0.00,29.98,M,10.00,M,OVC,M,M,M,1200.00,M,M,M,M,M,M,M,M,M,M,57.20,KMCJ 280435Z AUTO 00000KT 10SM OVC012 14/10 A2998 RMK A01,M
MCJ,2020-01-28 04:55,57.20,50.00,76.82,M,3.00,0.00,29.98,M,10.00,M,OVC,M,M,M,1200.00,M,M,M,M,M,M,M,M,M,M,57.20,KMCJ 280455Z AUTO VRB03KT 10SM OVC012 14/10 A2998 RMK A01,M
MCJ,2020-01-28 05:15,57.20,50.00,76.82,M,3.00,0.00,29.98,M,10.00,M,OVC,M,M,M,1200.00,M,M,M,M,M,M,M,M,M,M,57.20,KMCJ 280515Z AUTO VRB03KT 10SM OVC012 14/10 A2998 RMK A01,M
MCJ,2020-01-28 05:35,57.20,50.00,76.82,0.00,0.00,0.00,29.96,M,10.00,M,OVC,M,M,M,1300.00,M,M,M,M,M,M,M,M,M,M,57.20,KMCJ 280535Z AUTO 00000KT 10SM OVC013 14/10 A2996 RMK A01,M
MCJ,2020-01-28 05:55,57.20,51.80,82.12,0.00,0.00,0.00,29.95,M,10.00,M,OVC,M,M,M,1300.00,M,M,M,M,M,M,M,M,M,M,57.20,KMCJ 280555Z AUTO 00000KT 10SM OVC013 14/11 A2995 RMK A01,M
MCJ,2020-01-28 06:15,57.20,51.80,82.12,0.00,0.00,0.00,29.95,M,10.00,M,OVC,M,M,M,1300.00,M,M,M,M,M,M,M,M,M,M,57.20,KMCJ 280615Z AUTO 00000KT 10SM OVC013 14/11 A2995 RMK A01,M
MCJ,2020-01-28 06:35,57.20,51.80,82.12,M,3.00,0.00,29.94,M,10.00,M,OVC,M,M,M,1400.00,M,M,M,M,M,M,M,M,M,M,57.20,KMCJ 280635Z AUTO VRB03KT 10SM OVC014 14/11 A2994 RMK A01,M
MCJ,2020-01-28 06:55,57.20,51.80,82.12,M,4.00,0.00,29.92,M,10.00,M,OVC,M,M,M,1400.00,M,M,M,M,M,M,M,M,M,M,57.20,KMCJ 280655Z AUTO VRB04KT 10SM OVC014 14/11 A2992 RMK A01,M
MCJ,2020-01-28 07:15,57.20,51.80,82.12,M,4.00,0.00,29.92,M,10.00,M,OVC,M,M,M,1400.00,M,M,M,M,M,M,M,M,M,M,57.20,KMCJ 280715Z AUTO VRB04KT 10SM OVC014 14/11 A2992 RMK A01,M
MCJ,2020-01-28 07:35,57.20,51.80,82.12,M,4.00,0.00,29.90,M,10.00,M,OVC,M,M,M,1400.00,M,M,M,M,M,M,M,M,M,M,57.20,KMCJ 280735Z AUTO VRB04KT 10SM OVC014 14/11 A2990 RMK A01,M
MCJ,2020-01-28 07:55,57.20,51.80,82.12,M,4.00,0.00,29.90,M,10.00,M,OVC,M,M,M,1400.00,M,M,M,M,M,M,M,M,M,M,57.20,KMCJ 280755Z AUTO VRB04KT 10SM OVC014 14/11 A2990 RMK A01,M
MCJ,2020-01-28 08:15,57.20,51.80,82.12,M,3.00,0.00,29.90,M,10.00,M,OVC,M,M,M,1400.00,M,M,M,M,M,M,M,M,M,M,57.20,KMCJ 280815Z AUTO VRB03KT 10SM OVC014 14/11 A2990 RMK A01,M
MCJ,2020-01-28 08:35,57.20,51.80,82.12,0.00,0.00,0.00,29.92,M,10.00,M,M,M,M,M,M,M,M,M,M,M,M,M,M,M,M,57.20,KMCJ 280835Z AUTO 00000KT 10SM 14/11 A2992 RMK A01,M
MCJ,2020-01-28 08:55,57.20,51.80,82.12,M,4.00,0.00,29.92,M,10.00,M,OVC,M,M,M,1600.00,M,M,M,M,M,M,M,M,M,M,57.20,KMCJ 280855Z AUTO VRB04KT 10SM OVC016 14/11 A2992 RMK A01,M
MCJ,2020-01-28 09:15,57.20,51.80,82.12,M,6.00,0.00,29.91,M,10.00,M,OVC,M,M,M,1700.00,M,M,M,M,M,M,M,M,M,M,57.20,KMCJ 280915Z AUTO VRB06KT 10SM OVC017 14/11 A2991 RMK A01,M
MCJ,2020-01-28 09:35,57.20,51.80,82.12,M,3.00,0.00,29.91,M,10.00,M,OVC,M,M,M,1800.00,M,M,M,M,M,M,M,M,M,M,57.20,KMCJ 280935Z AUTO VRB03KT 10SM OVC018 14/11 A2991 RMK A01,M
MCJ,2020-01-28 09:55,59.00,53.60,82.25,0.00,0.00,0.00,29.90,M,10.00,M,OVC,M,M,M,2000.00,M,M,M,M,M,M,M,M,M,M,59.00,KMCJ 280955Z AUTO 00000KT 10SM OVC020 15/12 A2990 RMK A01,M
MCJ,2020-01-28 10:15,59.00,53.60,82.25,0.00,0.00,0.00,29.91,M,10.00,M,OVC,M,M,M,2100.00,M,M,M,M,M,M,M,M,M,M,59.00,KMCJ 281015Z AUTO 00000KT 10SM OVC021 15/12 A2991 RMK A01,M
MCJ,2020-01-28 10:35,59.00,53.60,82.25,20.00,4.00,0.00,29.91,M,10.00,M,OVC,M,M,M,2300.00,M,M,M,M,M,M,M,M,M,M,59.00,KMCJ 281035Z AUTO 02004KT 10SM OVC023 15/12 A2991 RMK A01,M
MCJ,2020-01-28 10:55,59.00,53.60,82.25,60.00,9.00,0.00,29.90,M,10.00,M,SCT,OVC,M,M,2000.00,2700.00,M,M,M,M,M,M,M,M,M,59.00,KMCJ 281055Z AUTO 06009KT 10SM SCT020 OVC027 15/12 A2990 RMK A01,M
MCJ,2020-01-28 11:15,59.00,53.60,82.25,60.00,9.00,0.00,29.89,M,10.00,M,BKN,OVC,M,M,2800.00,6000.00,M,M,M,M,M,M,M,M,M,59.00,KMCJ 281115Z AUTO 06009KT 020V080 10SM BKN028 OVC060 15/12 A2989 RMK A01,M
MCJ,2020-01-28 11:35,59.00,55.40,87.83,M,5.00,0.00,29.91,M,10.00,11.00,BKN,M,M,M,3000.00,M,M,M,M,M,M,M,M,M,M,59.00,KMCJ 281135Z AUTO VRB05G11KT 10SM BKN030 15/13 A2991 RMK A01,M
MCJ,2020-01-28 11:55,59.00,55.40,87.83,M,5.00,0.00,29.93,M,10.00,M,FEW,OVC,M,M,2600.00,3200.00,M,M,M,M,M,M,M,M,M,59.00,KMCJ 281155Z AUTO VRB05KT 10SM FEW026 OVC032 15/13 A2993 RMK A01,M
MCJ,2020-01-28 12:15,57.20,53.60,87.74,350.00,9.00,0.00,29.96,M,10.00,M,SCT,BKN,OVC,M,1300.00,2100.00,3200.00,M,M,M,M,M,M,M,M,57.20,KMCJ 281215Z AUTO 35009KT 10SM SCT013 BKN021 OVC032 14/12 A2996 RMK A01,M
MCJ,2020-01-28 12:35,57.20,53.60,87.74,10.00,10.00,0.00,29.95,M,8.00,M,BKN,OVC,M,M,1300.00,2000.00,M,M,M,M,M,M,M,M,M,57.20,KMCJ 281235Z AUTO 01010KT 8SM BKN013 OVC020 14/12 A2995 RMK A01,M
MCJ,2020-01-28 12:55,55.40,53.60,93.65,10.00,4.00,0.00,29.96,M,7.00,M,SCT,BKN,BKN,M,1200.00,2000.00,3300.00,M,M,M,M,M,M,M,M,55.40,KMCJ 281255Z AUTO 01004KT 7SM SCT012 BKN020 BKN033 13/12 A2996 RMK A01,M
MCJ,2020-01-28 13:15,55.40,53.60,93.65,340.00,9.00,0.00,30.01,M,8.00,14.00,BKN,BKN,BKN,M,1100.00,1900.00,10000.00,M,M,M,M,M,M,M,M,55.40,KMCJ 281315Z AUTO 34009G14KT 8SM BKN011 BKN019 BKN100 13/12 A3001 RMK A01,M
MCJ,2020-01-28 13:35,55.40,51.80,87.65,360.00,8.00,0.00,30.00,M,5.00,M,BKN,BKN,OVC,M,1100.00,2200.00,4900.00,M,BR,M,M,M,M,M,M,55.40,KMCJ 281335Z AUTO 36008KT 330V030 5SM BR BKN011 BKN022 OVC049 13/11 A3000 RMK A01,M
MCJ,2020-01-28 13:55,55.40,53.60,93.65,30.00,8.00,0.00,29.99,M,7.00,M,FEW,FEW,SCT,M,2900.00,4000.00,4900.00,M,M,M,M,M,M,M,M,55.40,KMCJ 281355Z AUTO 03008KT 7SM FEW029 FEW040 SCT049 13/12 A2999 RMK A01,M
MCJ,2020-01-28 14:15,55.40,53.60,93.65,30.00,10.00,0.00,29.98,M,8.00,M,CLR,M,M,M,M,M,M,M,M,M,M,M,M,M,M,55.40,KMCJ 281415Z AUTO 03010KT 8SM CLR 13/12 A2998 RMK A01,M
MCJ,2020-01-28 14:35,55.40,53.60,93.65,30.00,8.00,0.00,30.00,M,7.00,M,SCT,BKN,M,M,7500.00,10000.00,M,M,M,M,M,M,M,M,M,55.40,KMCJ 281435Z AUTO 03008KT 7SM SCT075 BKN100 13/12 A3000 RMK A01,M
MCJ,2020-01-28 14:55,55.40,53.60,93.65,M,8.00,0.00,29.99,M,6.00,M,FEW,FEW,SCT,M,6500.00,7500.00,8500.00,M,BR,M,M,M,M,M,M,55.40,KMCJ 281455Z AUTO VRB08KT 040V210 6SM BR FEW065 FEW075 SCT085 13/12 A2999 RMK A01,M
MCJ,2020-01-28 15:15,55.40,53.60,93.65,M,5.00,0.00,29.96,M,3.00,12.00,FEW,SCT,BKN,M,1900.00,3100.00,4000.00,M,BR,M,M,M,M,M,M,55.40,KMCJ 281515Z AUTO VRB05G12KT 3SM BR FEW019 SCT031 BKN040 13/12 A2996 RMK A01,M
MCJ,2020-01-28 15:35,57.20,55.40,93.69,M,4.00,0.00,29.95,M,4.00,13.00,FEW,FEW,SCT,M,1800.00,3300.00,6000.00,M,BR,M,M,M,M,M,M,57.20,KMCJ 281535Z AUTO VRB04G13KT 4SM BR FEW018 FEW033 SCT060 14/13 A2995 RMK A01,M
MCJ,2020-01-28 15:55,57.20,55.40,93.69,M,6.00,0.00,29.94,M,5.00,12.00,CLR,M,M,M,M,M,M,M,BR,M,M,M,M,M,M,57.20,KMCJ 281555Z AUTO VRB06G12KT 5SM BR CLR 14/13 A2994 RMK A01,M
MCJ,2020-01-28 16:15,59.00,57.20,93.74,M,5.00,0.00,29.94,M,6.00,13.00,CLR,M,M,M,M,M,M,M,BR,M,M,M,M,M,M,59.00,KMCJ 281615Z AUTO VRB05G13KT 6SM BR CLR 15/14 A2994 RMK A01,M
MCJ,2020-01-28 16:35,60.80,57.20,87.92,M,3.00,0.00,29.93,M,7.00,13.00,SCT,SCT,SCT,M,800.00,4800.00,9500.00,M,M,M,M,M,M,M,M,60.80,KMCJ 281635Z AUTO VRB03G13KT 7SM SCT008 SCT048 SCT095 16/14 A2993 RMK A01,M
MCJ,2020-01-28 16:55,60.80,57.20,87.92,M,5.00,0.00,29.92,M,8.00,M,BKN,BKN,M,M,800.00,8000.00,M,M,M,M,M,M,M,M,M,60.80,KMCJ 281655Z AUTO VRB05KT 8SM BKN008 BKN080 16/14 A2992 RMK A01,M
MCJ,2020-01-28 17:15,62.60,57.20,82.50,M,6.00,0.00,29.91,M,9.00,M,BKN,BKN,M,M,900.00,8000.00,M,M,M,M,M,M,M,M,M,62.60,KMCJ 281715Z AUTO VRB06KT 9SM BKN009 BKN080 17/14 A2991 RMK A01,M
MCJ,2020-01-28 17:35,62.60,57.20,82.50,M,4.00,0.00,29.89,M,9.00,M,BKN,BKN,BKN,M,1000.00,7500.00,8500.00,M,M,M,M,M,M,M,M,62.60,KMCJ 281735Z AUTO VRB04KT 9SM BKN010 BKN075 BKN085 17/14 A2989 RMK A01,M
MCJ,2020-01-28 17:55,62.60,57.20,82.50,M,4.00,0.00,29.88,M,9.00,10.00,BKN,BKN,OVC,M,1100.00,5500.00,10000.00,M,M,M,M,M,M,M,M,62.60,KMCJ 281755Z AUTO VRB04G10KT 9SM BKN011 BKN055 OVC100 17/14 A2988 RMK A01,M
MCJ,2020-01-28 18:15,60.80,57.20,87.92,M,4.00,0.00,29.87,M,3.00,M,BKN,BKN,OVC,M,1100.00,2800.00,7000.00,M,BR,M,M,M,M,M,M,60.80,KMCJ 281815Z AUTO VRB04KT 3SM BR BKN011 BKN028 OVC070 16/14 A2987 RMK A01,M
MCJ,2020-01-28 18:35,60.80,57.20,87.92,340.00,6.00,0.00,29.89,M,5.00,M,BKN,OVC,M,M,800.00,1200.00,M,M,BR,M,M,M,M,M,M,60.80,KMCJ 281835Z AUTO 34006KT 5SM BR BKN008 OVC012 16/14 A2989 RMK A01,M
MCJ,2020-01-28 18:55,60.80,59.00,93.79,60.00,7.00,0.00,29.86,M,2.00,12.00,FEW,BKN,OVC,M,100.00,900.00,1400.00,M,BR,M,M,M,M,M,M,60.80,KMCJ 281855Z AUTO 06007G12KT 030V090 2SM BR FEW001 BKN009 OVC014 16/15 A2986 RMK A01 VIS 1 1/4V5,M
MCJ,2020-01-28 19:15,60.80,59.00,93.79,40.00,7.00,0.00,29.84,M,2.50,M,SCT,BKN,M,M,1000.00,1400.00,M,M,BR,M,M,M,M,M,M,60.80,KMCJ 281915Z AUTO 04007KT 010V090 2 1/2SM BR SCT010 BKN014 16/15 A2984 RMK A01,M
MCJ,2020-01-28 19:35,60.80,59.00,93.79,0.00,0.00,0.00,29.82,M,6.00,10.00,SCT,BKN,BKN,M,1200.00,1800.00,3400.00,M,BR,M,M,M,M,M,M,60.80,KMCJ 281935Z AUTO 00000G10KT 6SM BR SCT012 BKN018 BKN034 16/15 A2982 RMK A01,M
MCJ,2020-01-28 19:55,59.00,59.00,100.00,60.00,10.00,0.00,29.79,M,3.00,15.00,BKN,OVC,M,M,1200.00,1600.00,M,M,BR,M,M,M,M,M,M,59.00,KMCJ 281955Z AUTO 06010G15KT 3SM BR BKN012 OVC016 15/15 A2979 RMK A01,M
MCJ,2020-01-28 20:15,60.80,59.00,93.79,310.00,4.00,0.00,29.84,M,0.25,M,OVC,M,M,M,300.00,M,M,M,FG,M,M,M,M,M,M,60.80,KMCJ 282015Z AUTO 31004KT M1/4SM FG OVC003 16/15 A2984 RMK A01,M
MCJ,2020-01-28 20:35,59.00,59.00,100.00,330.00,3.00,0.00,29.84,M,1.50,M,SCT,BKN,OVC,M,200.00,1000.00,2900.00,M,BR,M,M,M,M,M,M,59.00,KMCJ 282035Z AUTO 33003KT 1 1/2SM BR SCT002 BKN010 OVC029 15/15 A2984 RMK A01,M
MCJ,2020-01-28 20:55,59.00,59.00,100.00,0.00,0.00,0.00,29.84,M,2.50,M,SCT,BKN,OVC,M,2000.00,3100.00,3900.00,M,BR,M,M,M,M,M,M,59.00,KMCJ 282055Z AUTO 00000KT 2 1/2SM BR SCT020 BKN031 OVC039 15/15 A2984 RMK A01,M
MCJ,2020-01-28 21:15,59.00,59.00,100.00,340.00,4.00,0.00,29.83,M,6.00,M,FEW,BKN,OVC,M,1200.00,3500.00,4000.00,M,BR,M,M,M,M,M,M,59.00,KMCJ 282115Z AUTO 34004KT 6SM BR FEW012 BKN035 OVC040 15/15 A2983 RMK A01,M
MCJ,2020-01-28 21:35,59.00,59.00,100.00,0.00,0.00,0.00,29.83,M,5.00,M,BKN,BKN,OVC,M,1300.00,3100.00,3700.00,M,BR,M,M,M,M,M,M,59.00,KMCJ 282135Z AUTO 00000KT 5SM BR BKN013 BKN031 OVC037 15/15 A2983 RMK A01,M
MCJ,2020-01-28 21:55,60.80,60.80,100.00,0.00,0.00,0.00,29.82,M,2.50,M,FEW,BKN,BKN,M,200.00,1200.00,2900.00,M,BR,M,M,M,M,M,M,60.80,KMCJ 282155Z AUTO 00000KT 2 1/2SM BR FEW002 BKN012 BKN029 16/16 A2982 RMK A01,M
MCJ,2020-01-28 22:15,60.80,60.80,100.00,50.00,3.00,0.00,29.82,M,3.00,M,SCT,SCT,BKN,M,200.00,1200.00,4800.00,M,BR,M,M,M,M,M,M,60.80,KMCJ 282215Z AUTO 05003KT 3SM BR SCT002 SCT012 BKN048 16/16 A2982 RMK A01,M
MCJ,2020-01-28 22:35,62.60,60.80,93.83,0.00,0.00,0.00,29.82,M,5.00,M,FEW,FEW,M,M,200.00,4700.00,M,M,BR,M,M,M,M,M,M,62.60,KMCJ 282235Z AUTO 00000KT 5SM BR FEW002 FEW047 17/16 A2982 RMK A01,M
MCJ,2020-01-28 22:55,64.40,60.80,88.09,0.00,0.00,0.00,29.83,M,7.00,M,CLR,M,M,M,M,M,M,M,M,M,M,M,M,M,M,64.40,KMCJ 282255Z AUTO 00000KT 7SM CLR 18/16 A2983 RMK A01,M
MCJ,2020-01-28 23:15,62.60,60.80,93.83,0.00,0.00,0.00,29.83,M,8.00,M,BKN,BKN,BKN,M,2200.00,2700.00,3600.00,M,M,M,M,M,M,M,M,62.60,KMCJ 282315Z AUTO 00000KT 8SM BKN022 BKN027 BKN036 17/16 A2983 RMK A01,M
MCJ,2020-01-28 23:35,62.60,60.80,93.83,0.00,0.00,0.00,29.83,M,7.00,M,SCT,SCT,M,M,2200.00,3600.00,M,M,M,M,M,M,M,M,M,62.60,KMCJ 282335Z AUTO 00000KT 7SM SCT022 SCT036 17/16 A2983 RMK A01,M
MCJ,2020-01-28 23:55,62.60,60.80,93.83,0.00,0.00,0.00,29.84,M,9.00,M,CLR,M,M,M,M,M,M,M,M,M,M,M,M,M,M,62.60,KMCJ 282355Z AUTO 00000KT 9SM CLR 17/16 A2984 RMK A01,M
MCJ,2020-01-29 00:15,60.80,60.80,100.00,0.00,0.00,0.00,29.84,M,9.00,M,CLR,M,M,M,M,M,M,M,M,M,M,M,M,M,M,60.80,KMCJ 290015Z AUTO 00000KT 9SM CLR 16/16 A2984 RMK A01,M
MCJ,2020-01-29 00:35,60.80,60.80,100.00,0.00,0.00,0.00,29.84,M,10.00,M,CLR,M,M,M,M,M,M,M,M,M,M,M,M,M,M,60.80,KMCJ 290035Z AUTO 00000KT 10SM CLR 16/16 A2984 RMK A01,M
MCJ,2020-01-29 00:55,60.80,60.80,100.00,0.00,0.00,0.00,29.84,M,10.00,M,CLR,M,M,M,M,M,M,M,M,M,M,M,M,M,M,60.80,KMCJ 290055Z AUTO 00000KT 10SM CLR 16/16 A2984 RMK A01,M
MCJ,2020-01-29 01:15,60.80,60.80,100.00,0.00,0.00,0.00,29.84,M,9.00,M,FEW,FEW,SCT,M,4300.00,5500.00,6500.00,M,M,M,M,M,M,M,M,60.80,KMCJ 290115Z AUTO 00000KT 9SM FEW043 FEW055 SCT065 16/16 A2984 RMK A01,M
MCJ,2020-01-29 01:35,60.80,60.80,100.00,0.00,0.00,0.00,29.84,M,7.00,M,SCT,SCT,SCT,M,6000.00,7000.00,8000.00,M,M,M,M,M,M,M,M,60.80,KMCJ 290135Z AUTO 00000KT 7SM SCT060 SCT070 SCT080 16/16 A2984 RMK A01,M
MCJ,2020-01-29 01:55,60.80,60.80,100.00,0.00,0.00,0.00,29.84,M,9.00,M,FEW,FEW,M,M,6000.00,7500.00,M,M,M,M,M,M,M,M,M,60.80,KMCJ 290155Z AUTO 00000KT 9SM FEW060 FEW075 16/16 A2984 RMK A01,M
MCJ,2020-01-29 02:15,60.80,59.00,93.79,320.00,18.00,0.00,29.88,M,5.00,26.00,FEW,FEW,SCT,M,600.00,3000.00,4000.00,M,BR,M,M,M,M,M,M,60.80,KMCJ 290215Z AUTO 32018G26KT 280V350 5SM BR FEW006 FEW030 SCT040 16/15 A2988 RMK A01,M
MCJ,2020-01-29 02:35,55.40,51.80,87.65,270.00,14.00,0.00,29.89,M,10.00,24.00,FEW,FEW,SCT,M,400.00,2500.00,5500.00,M,M,M,M,M,M,M,M,55.40,KMCJ 290235Z AUTO 27014G24KT 10SM FEW004 FEW025 SCT055 13/11 A2989 RMK A01,M
MCJ,2020-01-29 02:55,57.20,44.60,62.69,280.00,10.00,0.00,29.90,M,10.00,18.00,CLR,M,M,M,M,M,M,M,M,M,M,M,M,M,M,57.20,KMCJ 290255Z AUTO 28010G18KT 240V310 10SM CLR 14/07 A2990 RMK A01,M
MCJ,2020-01-29 03:15,55.40,44.60,66.91,300.00,8.00,0.00,29.91,M,10.00,15.00,CLR,M,M,M,M,M,M,M,M,M,M,M,M,M,M,55.40,KMCJ 290315Z AUTO 30008G15KT 10SM CLR 13/07 A2991 RMK A01,M
MCJ,2020-01-29 03:35,55.40,44.60,66.91,300.00,8.00,0.00,29.92,M,10.00,17.00,CLR,M,M,M,M,M,M,M,M,M,M,M,M,M,M,55.40,KMCJ 290335Z AUTO 30008G17KT 240V010 10SM CLR 13/07 A2992 RMK A01,M
MCJ,2020-01-29 03:55,55.40,44.60,66.91,300.00,9.00,0.00,29.93,M,10.00,18.00,CLR,M,M,M,M,M,M,M,M,M,M,M,M,M,M,55.40,KMCJ 290355Z AUTO 30009G18KT 240V340 10SM CLR 13/07 A2993 RMK A01,M
MCJ,2020-01-29 04:15,53.60,42.80,66.70,310.00,11.00,0.00,29.93,M,10.00,22.00,CLR,M,M,M,M,M,M,M,M,M,M,M,M,M,M,53.60,KMCJ 290415Z AUTO 31011G22KT 10SM CLR 12/06 A2993 RMK A01,M
MCJ,2020-01-29 04:35,53.60,42.80,66.70,310.00,10.00,0.00,29.94,M,10.00,16.00,CLR,M,M,M,M,M,M,M,M,M,M,M,M,M,M,53.60,KMCJ 290435Z AUTO 31010G16KT 10SM CLR 12/06 A2994 RMK A01,M
MCJ,2020-01-29 04:55,51.80,41.00,66.48,300.00,9.00,0.00,29.94,M,10.00,15.00,CLR,M,M,M,M,M,M,M,M,M,M,M,M,M,M,51.80,KMCJ 290455Z AUTO 30009G15KT 260V340 10SM CLR 11/05 A2994 RMK A01,M
MCJ,2020-01-29 05:15,51.80,41.00,66.48,310.00,7.00,0.00,29.94,M,10.00,14.00,CLR,M,M,M,M,M,M,M,M,M,M,M,M,M,M,51.80,KMCJ 290515Z AUTO 31007G14KT 10SM CLR 11/05 A2994 RMK A01,M
MCJ,2020-01-29 05:35,51.80,41.00,66.48,M,6.00,0.00,29.95,M,10.00,16.00,CLR,M,M,M,M,M,M,M,M,M,M,M,M,M,M,51.80,KMCJ 290535Z AUTO VRB06G16KT 10SM CLR 11/05 A2995 RMK A01,M
MCJ,2020-01-29 05:55,51.80,41.00,66.48,290.00,7.00,0.00,29.95,M,10.00,13.00,CLR,M,M,M,M,M,M,M,M,M,M,M,M,M,M,51.80,KMCJ 290555Z AUTO 29007G13KT 10SM CLR 11/05 A2995 RMK A01,M
MCJ,2020-01-29 06:15,50.00,41.00,71.07,M,6.00,0.00,29.94,M,10.00,14.00,CLR,M,M,M,M,M,M,M,M,M,M,M,M,M,M,47.21,KMCJ 290615Z AUTO VRB06G14KT 10SM CLR 10/05 A2994 RMK A01,M
MCJ,2020-01-29 06:35,50.00,41.00,71.07,290.00,10.00,0.00,29.94,M,10.00,15.00,CLR,M,M,M,M,M,M,M,M,M,M,M,M,M,M,45.54,KMCJ 290635Z AUTO 29010G15KT 250V320 10SM CLR 10/05 A2994 RMK A01,M
MCJ,2020-01-29 06:55,50.00,39.20,66.27,290.00,7.00,0.00,29.94,M,10.00,14.00,CLR,M,M,M,M,M,M,M,M,M,M,M,M,M,M,46.72,KMCJ 290655Z AUTO 29007G14KT 250V310 10SM CLR 10/04 A2994 RMK A01,M
MCJ,2020-01-29 07:15,50.00,41.00,71.07,280.00,7.00,0.00,29.93,M,10.00,M,CLR,M,M,M,M,M,M,M,M,M,M,M,M,M,M,46.72,KMCJ 290715Z AUTO 28007KT 240V300 10SM CLR 10/05 A2993 RMK A01,M
MCJ,2020-01-29 07:35,50.00,39.20,66.27,300.00,10.00,0.00,29.93,M,10.00,16.00,CLR,M,M,M,M,M,M,M,M,M,M,M,M,M,M,45.54,KMCJ 290735Z AUTO 30010G16KT 270V340 10SM CLR 10/04 A2993 RMK A01,M
MCJ,2020-01-29 07:55,48.20,37.40,66.05,290.00,9.00,0.00,29.93,M,10.00,17.00,CLR,M,M,M,M,M,M,M,M,M,M,M,M,M,M,43.66,KMCJ 290755Z AUTO 29009G17KT 250V310 10SM CLR 09/03 A2993 RMK A01,M
MCJ,2020-01-29 08:15,48.20,37.40,66.05,290.00,12.00,0.00,29.92,M,10.00,23.00,CLR,M,M,M,M,M,M,M,M,M,M,M,M,M,M,42.62,KMCJ 290815Z AUTO 29012G23KT 260V320 10SM CLR 09/03 A2992 RMK A01,M
MCJ,2020-01-29 08:35,46.40,35.60,65.83,M,10.00,0.00,29.92,M,10.00,21.00,CLR,M,M,M,M,M,M,M,M,M,M,M,M,M,M,41.03,KMCJ 290835Z AUTO VRB10G21KT 10SM CLR 08/02 A2992 RMK A01,M
MCJ,2020-01-29 08:55,46.40,35.60,65.83,290.00,12.00,0.00,29.92,M,10.00,18.00,CLR,M,M,M,M,M,M,M,M,M,M,M,M,M,M,40.33,KMCJ 290855Z AUTO 29012G18KT 250V310 10SM CLR 08/02 A2992 RMK A01,M
MCJ,2020-01-29 09:15,46.40,35.60,65.83,300.00,10.00,0.00,29.93,M,10.00,18.00,SCT,M,M,M,2700.00,M,M,M,M,M,M,M,M,M,M,41.03,KMCJ 290915Z AUTO 30010G18KT 260V360 10SM SCT027 08/02 A2993 RMK A01,M
MCJ,2020-01-29 09:35,48.20,35.60,61.52,300.00,7.00,0.00,29.93,M,10.00,17.00,OVC,M,M,M,2700.00,M,M,M,M,M,M,M,M,M,M,44.53,KMCJ 290935Z AUTO 30007G17KT 250V330 10SM OVC027 09/02 A2993 RMK A01,M
MCJ,2020-01-29 09:55,48.20,37.40,66.05,280.00,7.00,0.00,29.94,M,10.00,15.00,OVC,M,M,M,2700.00,M,M,M,M,M,M,M,M,M,M,44.53,KMCJ 290955Z AUTO 28007G15KT 230V310 10SM OVC027 09/03 A2994 RMK A01,M
MCJ,2020-01-29 10:15,48.20,37.40,66.05,310.00,10.00,0.00,29.93,M,10.00,17.00,OVC,M,M,M,2700.00,M,M,M,M,M,M,M,M,M,M,43.28,KMCJ 291015Z AUTO 31010G17KT 10SM OVC027 09/03 A2993 RMK A01,M
MCJ,2020-01-29 10:35,48.20,37.40,66.05,300.00,9.00,0.00,29.93,M,10.00,14.00,OVC,M,M,M,2800.00,M,M,M,M,M,M,M,M,M,M,43.66,KMCJ 291035Z AUTO 30009G14KT 10SM OVC028 09/03 A2993 RMK A01,M
MCJ,2020-01-29 10:55,48.20,37.40,66.05,310.00,8.00,0.00,29.93,M,10.00,15.00,OVC,M,M,M,2800.00,M,M,M,M,M,M,M,M,M,M,44.07,KMCJ 291055Z AUTO 31008G15KT 10SM OVC028 09/03 A2993 RMK A01,M
MCJ,2020-01-29 11:15,48.20,37.40,66.05,310.00,8.00,0.00,29.93,M,10.00,15.00,OVC,M,M,M,2600.00,M,M,M,M,M,M,M,M,M,M,44.07,KMCJ 291115Z AUTO 31008G15KT 260V340 10SM OVC026 09/03 A2993 RMK A01,M
MCJ,2020-01-29 11:35,48.20,37.40,66.05,300.00,9.00,0.00,29.94,M,10.00,14.00,OVC,M,M,M,2500.00,M,M,M,M,M,M,M,M,M,M,43.66,KMCJ 291135Z AUTO 30009G14KT 10SM OVC025 09/03 A2994 RMK A01,M
MCJ,2020-01-29 11:55,48.20,37.40,66.05,280.00,8.00,0.00,29.94,M,10.00,14.00,OVC,M,M,M,2500.00,M,M,M,M,M,M,M,M,M,M,44.07,KMCJ 291155Z AUTO 28008G14KT 240V300 10SM OVC025 09/03 A2994 RMK A01,M
MCJ,2020-01-29 12:15,48.20,37.40,66.05,290.00,10.00,0.00,29.95,M,10.00,15.00,OVC,M,M,M,2400.00,M,M,M,M,M,M,M,M,M,M,43.28,KMCJ 291215Z AUTO 29010G15KT 10SM OVC024 09/03 A2995 RMK A01,M
MCJ,2020-01-29 12:35,48.20,39.20,70.88,310.00,9.00,0.00,29.96,M,10.00,15.00,OVC,M,M,M,2300.00,M,M,M,M,M,M,M,M,M,M,43.66,KMCJ 291235Z AUTO 31009G15KT 230V010 10SM OVC023 09/04 A2996 RMK A01,M
MCJ,2020-01-29 12:55,48.20,39.20,70.88,300.00,13.00,0.00,29.97,M,10.00,18.00,OVC,M,M,M,2200.00,M,M,M,M,M,M,M,M,M,M,42.32,KMCJ 291255Z AUTO 30013G18KT 10SM OVC022 09/04 A2997 RMK A01,M
MCJ,2020-01-29 13:15,48.20,39.20,70.88,310.00,8.00,0.00,29.97,M,10.00,16.00,OVC,M,M,M,2100.00,M,M,M,M,M,M,M,M,M,M,44.07,KMCJ 291315Z AUTO 31008G16KT 10SM OVC021 09/04 A2997 RMK A01,M
MCJ,2020-01-29 13:35,48.20,39.20,70.88,300.00,7.00,0.00,29.99,M,10.00,13.00,OVC,M,M,M,2100.00,M,M,M,M,M,M,M,M,M,M,44.53,KMCJ 291335Z AUTO 30007G13KT 260V360 10SM OVC021 09/04 A2999 RMK A01,M
MCJ,2020-01-29 13:55,48.20,39.20,70.88,310.00,9.00,0.00,30.00,M,10.00,14.00,OVC,M,M,M,2100.00,M,M,M,M,M,M,M,M,M,M,43.66,KMCJ 291355Z AUTO 31009G14KT 10SM OVC021 09/04 A3000 RMK A01,M
MCJ,2020-01-29 14:15,48.20,39.20,70.88,300.00,9.00,0.00,30.01,M,10.00,18.00,OVC,M,M,M,2100.00,M,M,M,M,M,M,M,M,M,M,43.66,KMCJ 291415Z AUTO 30009G18KT 290V350 10SM OVC021 09/04 A3001 RMK A01,M
MCJ,2020-01-29 14:35,48.20,39.20,70.88,320.00,7.00,0.00,30.02,M,10.00,15.00,OVC,M,M,M,2000.00,M,M,M,M,M,M,M,M,M,M,44.53,KMCJ 291435Z AUTO 32007G15KT 290V040 10SM OVC020 09/04 A3002 RMK A01,M
MCJ,2020-01-29 14:55,48.20,39.20,70.88,320.00,11.00,0.00,30.02,M,10.00,18.00,OVC,M,M,M,2100.00,M,M,M,M,M,M,M,M,M,M,42.94,KMCJ 291455Z AUTO 32011G18KT 280V360 10SM OVC021 09/04 A3002 RMK A01,M
MCJ,2020-01-29 15:15,48.20,39.20,70.88,310.00,8.00,0.00,30.03,M,10.00,18.00,OVC,M,M,M,2000.00,M,M,M,M,M,M,M,M,M,M,44.07,KMCJ 291515Z AUTO 31008G18KT 10SM OVC020 09/04 A3003 RMK A01,M
MCJ,2020-01-29 15:35,48.20,39.20,70.88,M,6.00,0.00,30.03,M,10.00,14.00,OVC,M,M,M,1800.00,M,M,M,M,M,M,M,M,M,M,45.04,KMCJ 291535Z AUTO VRB06G14KT 10SM OVC018 09/04 A3003 RMK A01,M
MCJ,2020-01-29 15:55,48.20,39.20,70.88,M,6.00,0.00,30.03,M,10.00,17.00,OVC,M,M,M,1900.00,M,M,M,M,M,M,M,M,M,M,45.04,KMCJ 291555Z AUTO VRB06G17KT 10SM OVC019 09/04 A3003 RMK A01,M
MCJ,2020-01-29 16:15,50.00,39.20,66.27,330.00,11.00,0.00,30.03,M,10.00,M,OVC,M,M,M,2100.00,M,M,M,M,M,M,M,M,M,M,45.21,KMCJ 291615Z AUTO 33011KT 10SM OVC021 10/04 A3003 RMK A01,M
MCJ,2020-01-29 16:35,50.00,39.20,66.27,300.00,11.00,0.00,30.03,M,10.00,M,OVC,M,M,M,2000.00,M,M,M,M,M,M,M,M,M,M,45.21,KMCJ 291635Z AUTO 30011KT 10SM OVC020 10/04 A3003 RMK A01,M
MCJ,2020-01-29 16:55,51.80,39.20,61.99,330.00,10.00,0.00,30.04,M,10.00,19.00,OVC,M,M,M,1800.00,M,M,M,M,M,M,M,M,M,M,51.80,KMCJ 291655Z AUTO 33010G19KT 10SM OVC018 11/04 A3004 RMK A01,M
MCJ,2020-01-29 17:15,51.80,39.20,61.99,300.00,10.00,0.00,30.05,M,10.00,17.00,OVC,M,M,M,1800.00,M,M,M,M,M,M,M,M,M,M,51.80,KMCJ 291715Z AUTO 30010G17KT 10SM OVC018 11/04 A3005 RMK A01,M
MCJ,2020-01-29 17:35,51.80,41.00,66.48,330.00,11.00,0.00,30.04,M,10.00,17.00,OVC,M,M,M,1800.00,M,M,M,M,M,M,M,M,M,M,51.80,KMCJ 291735Z AUTO 33011G17KT 300V360 10SM OVC018 11/05 A3004 RMK A01,M
MCJ,2020-01-29 17:55,51.80,41.00,66.48,310.00,8.00,0.00,30.04,M,10.00,13.00,OVC,M,M,M,1800.00,M,M,M,M,M,M,M,M,M,M,51.80,KMCJ 291755Z AUTO 31008G13KT 280V010 10SM OVC018 11/05 A3004 RMK A01,M
MCJ,2020-01-29 18:15,53.60,41.00,62.23,330.00,8.00,0.00,30.04,M,10.00,14.00,OVC,M,M,M,2000.00,M,M,M,M,M,M,M,M,M,M,53.60,KMCJ 291815Z AUTO 33008G14KT 280V360 10SM OVC020 12/05 A3004 RMK A01,M
MCJ,2020-01-29 18:35,53.60,41.00,62.23,330.00,12.00,0.00,30.03,M,10.00,M,OVC,M,M,M,2000.00,M,M,M,M,M,M,M,M,M,M,53.60,KMCJ 291835Z AUTO 33012KT 10SM OVC020 12/05 A3003 RMK A01,M
MCJ,2020-01-29 18:55,53.60,41.00,62.23,320.00,9.00,0.00,30.02,M,10.00,16.00,OVC,M,M,M,2100.00,M,M,M,M,M,M,M,M,M,M,53.60,KMCJ 291855Z AUTO 32009G16KT 10SM OVC021 12/05 A3002 RMK A01,M
MCJ,2020-01-29 19:15,53.60,41.00,62.23,310.00,10.00,0.00,30.02,M,10.00,17.00,OVC,M,M,M,2100.00,M,M,M,M,M,M,M,M,M,M,53.60,KMCJ 291915Z AUTO 31010G17KT 270V360 10SM OVC021 12/05 A3002 RMK A01,M
MCJ,2020-01-29 19:35,53.60,41.00,62.23,330.00,13.00,0.00,30.02,M,10.00,18.00,OVC,M,M,M,2200.00,M,M,M,M,M,M,M,M,M,M,53.60,KMCJ 291935Z AUTO 33013G18KT 10SM OVC022 12/05 A3002 RMK A01,M
MCJ,2020-01-29 19:55,53.60,41.00,62.23,330.00,11.00,0.00,30.02,M,10.00,20.00,OVC,M,M,M,2200.00,M,M,M,M,M,M,M,M,M,M,53.60,KMCJ 291955Z AUTO 33011G20KT 10SM OVC022 12/05 A3002 RMK A01,M
MCJ,2020-01-29 20:15,53.60,41.00,62.23,330.00,7.00,0.00,30.01,M,10.00,12.00,OVC,M,M,M,2200.00,M,M,M,M,M,M,M,M,M,M,53.60,KMCJ 292015Z AUTO 33007G12KT 10SM OVC022 12/05 A3001 RMK A01,M
MCJ,2020-01-29 20:35,55.40,41.00,58.27,340.00,7.00,0.00,30.01,M,10.00,14.00,BKN,OVC,M,M,2300.00,2900.00,M,M,M,M,M,M,M,M,M,55.40,KMCJ 292035Z AUTO 34007G14KT 310V010 10SM BKN023 OVC029 13/05 A3001 RMK A01,M
MCJ,2020-01-29 20:55,57.20,42.80,58.52,330.00,8.00,0.00,30.01,M,10.00,M,BKN,M,M,M,2800.00,M,M,M,M,M,M,M,M,M,M,57.20,KMCJ 292055Z AUTO 33008KT 10SM BKN028 14/06 A3001 RMK A01,M
MCJ,2020-01-29 21:15,55.40,42.80,62.46,350.00,8.00,0.00,30.00,M,10.00,15.00,BKN,BKN,M,M,2400.00,3000.00,M,M,M,M,M,M,M,M,M,55.40,KMCJ 292115Z AUTO 35008G15KT 300V020 10SM BKN024 BKN030 13/06 A3000 RMK A01,M
MCJ,2020-01-29 21:35,55.40,42.80,62.46,330.00,9.00,0.00,30.01,M,10.00,15.00,OVC,M,M,M,2400.00,M,M,M,M,M,M,M,M,M,M,55.40,KMCJ 292135Z AUTO 33009G15KT 10SM OVC024 13/06 A3001 RMK A01,M
MCJ,2020-01-29 21:55,53.60,42.80,66.70,340.00,10.00,0.00,30.00,M,10.00,M,OVC,M,M,M,2300.00,M,M,M,M,M,M,M,M,M,M,53.60,KMCJ 292155Z AUTO 34010KT 10SM OVC023 12/06 A3000 RMK A01,M
MCJ,2020-01-29 22:15,53.60,42.80,66.70,330.00,12.00,0.00,30.01,M,10.00,20.00,OVC,M,M,M,2300.00,M,M,M,M,M,M,M,M,M,M,53.60,KMCJ 292215Z AUTO 33012G20KT 10SM OVC023 12/06 A3001 RMK A01,M
MCJ,2020-01-29 22:35,53.60,42.80,66.70,330.00,11.00,0.00,30.02,M,10.00,M,OVC,M,M,M,2300.00,M,M,M,M,M,M,M,M,M,M,53.60,KMCJ 292235Z AUTO 33011KT 10SM OVC023 12/06 A3002 RMK A01,M
MCJ,2020-01-29 22:55,53.60,42.80,66.70,330.00,10.00,0.00,30.02,M,10.00,M,OVC,M,M,M,2200.00,M,M,M,M,M,M,M,M,M,M,53.60,KMCJ 292255Z AUTO 33010KT 10SM OVC022 12/06 A3002 RMK A01,M
MCJ,2020-01-29 23:15,53.60,42.80,66.70,350.00,10.00,0.00,30.02,M,10.00,M,OVC,M,M,M,2200.00,M,M,M,M,M,M,M,M,M,M,53.60,KMCJ 292315Z AUTO 35010KT 10SM OVC022 12/06 A3002 RMK A01,M
MCJ,2020-01-29 23:35,51.80,42.80,71.26,350.00,9.00,0.00,30.02,M,10.00,M,OVC,M,M,M,2100.00,M,M,M,M,M,M,M,M,M,M,51.80,KMCJ 292335Z AUTO 35009KT 10SM OVC021 11/06 A3002 RMK A01,M
MCJ,2020-01-29 23:55,51.80,42.80,71.26,350.00,10.00,0.00,30.02,M,10.00,M,OVC,M,M,M,2000.00,M,M,M,M,M,M,M,M,M,M,51.80,KMCJ 292355Z AUTO 35010KT 10SM OVC020 11/06 A3002 RMK A01,M
MCJ,2020-01-30 00:15,51.80,42.80,71.26,360.00,10.00,0.00,30.01,M,10.00,M,OVC,M,M,M,2000.00,M,M,M,M,M,M,M,M,M,M,51.80,KMCJ 300015Z AUTO 36010KT 10SM OVC020 11/06 A3001 RMK A01,M
MCJ,2020-01-30 00:35,50.00,42.80,76.18,360.00,13.00,0.00,30.02,M,10.00,M,OVC,M,M,M,1900.00,M,M,M,M,M,M,M,M,M,M,44.63,KMCJ 300035Z AUTO 36013KT 10SM OVC019 10/06 A3002 RMK A01,M
MCJ,2020-01-30 00:55,50.00,42.80,76.18,360.00,12.00,0.00,30.02,M,10.00,M,OVC,M,M,M,1800.00,M,M,M,M,M,M,M,M,M,M,44.91,KMCJ 300055Z AUTO 36012KT 10SM OVC018 10/06 A3002 RMK A01,M
MCJ,2020-01-30 01:15,50.00,42.80,76.18,340.00,8.00,0.00,30.03,M,10.00,13.00,OVC,M,M,M,1700.00,M,M,M,M,M,M,M,M,M,M,46.29,KMCJ 300115Z AUTO 34008G13KT 10SM OVC017 10/06 A3003 RMK A01,M
MCJ,2020-01-30 01:35,50.00,42.80,76.18,340.00,9.00,0.00,30.04,M,10.00,M,OVC,M,M,M,1700.00,M,M,M,M,M,M,M,M,M,M,45.90,KMCJ 300135Z AUTO 34009KT 10SM OVC017 10/06 A3004 RMK A01,M
MCJ,2020-01-30 01:55,50.00,42.80,76.18,350.00,9.00,0.00,30.05,M,10.00,M,OVC,M,M,M,1700.00,M,M,M,M,M,M,M,M,M,M,45.90,KMCJ 300155Z AUTO 35009KT 320V020 10SM OVC017 10/06 A3005 RMK A01,M
MCJ,2020-01-30 02:15,50.00,42.80,76.18,360.00,10.00,0.00,30.06,M,10.00,M,OVC,M,M,M,1600.00,M,M,M,M,M,M,M,M,M,M,45.54,KMCJ 300215Z AUTO 36010KT 10SM OVC016 10/06 A3006 RMK A01,M
MCJ,2020-01-30 02:35,50.00,42.80,76.18,360.00,12.00,0.00,30.06,M,10.00,M,OVC,M,M,M,1600.00,M,M,M,M,M,M,M,M,M,M,44.91,KMCJ 300235Z AUTO 36012KT 10SM OVC016 10/06 A3006 RMK A01,M
MCJ,2020-01-30 02:55,50.00,42.80,76.18,360.00,11.00,0.00,30.07,M,10.00,17.00,OVC,M,M,M,1600.00,M,M,M,M,M,M,M,M,M,M,45.21,KMCJ 300255Z AUTO 36011G17KT 10SM OVC016 10/06 A3007 RMK A01,M
MCJ,2020-01-30 03:15,50.00,42.80,76.18,360.00,10.00,0.00,30.08,M,10.00,M,M,M,M,M,M,M,M,M,M,M,M,M,M,M,M,45.54,KMCJ 300315Z AUTO 36010KT 10SM 10/06 A3008 RMK A01,M
MCJ,2020-01-30 03:35,50.00,42.80,76.18,M,5.00,0.00,30.08,M,10.00,12.00,OVC,M,M,M,1600.00,M,M,M,M,M,M,M,M,M,M,47.77,KMCJ 300335Z AUTO VRB05G12KT 10SM OVC016 10/06 A3008 RMK A01,M
MCJ,2020-01-30 03:55,50.00,42.80,76.18,360.00,5.00,0.00,30.08,M,10.00,11.00,OVC,M,M,M,1500.00,M,M,M,M,M,M,M,M,M,M,47.77,KMCJ 300355Z AUTO 36005G11KT 10SM OVC015 10/06 A3008 RMK A01,M
MCJ,2020-01-30 04:15,50.00,42.80,76.18,360.00,8.00,0.00,30.10,M,10.00,15.00,OVC,M,M,M,1500.00,M,M,M,M,M,M,M,M,M,M,46.29,KMCJ 300415Z AUTO 36008G15KT 10SM OVC015 10/06 A3010 RMK A01,M
MCJ,2020-01-30 04:35,50.00,42.80,76.18,10.00,10.00,0.00,30.10,M,10.00,M,OVC,M,M,M,1500.00,M,M,M,M,M,M,M,M,M,M,45.54,KMCJ 300435Z AUTO 01010KT 10SM OVC015 10/06 A3010 RMK A01,M
MCJ,2020-01-30 04:55,50.00,42.80,76.18,340.00,5.00,0.00,30.10,M,10.00,M,OVC,M,M,M,1500.00,M,M,M,M,M,M,M,M,M,M,47.77,KMCJ 300455Z AUTO 34005KT 10SM OVC015 10/06 A3010 RMK A01,M
MCJ,2020-01-30 05:15,50.00,42.80,76.18,350.00,8.00,0.00,30.10,M,10.00,M,OVC,M,M,M,1700.00,M,M,M,M,M,M,M,M,M,M,46.29,KMCJ 300515Z AUTO 35008KT 10SM OVC017 10/06 A3010 RMK A01,M
MCJ,2020-01-30 05:35,50.00,42.80,76.18,350.00,6.00,0.00,30.09,M,10.00,M,OVC,M,M,M,2000.00,M,M,M,M,M,M,M,M,M,M,47.21,KMCJ 300535Z AUTO 35006KT 10SM OVC020 10/06 A3009 RMK A01,M
MCJ,2020-01-30 05:55,50.00,42.80,76.18,M,5.00,0.00,30.08,M,10.00,M,OVC,M,M,M,2300.00,M,M,M,M,M,M,M,M,M,M,47.77,KMCJ 300555Z AUTO VRB05KT 10SM OVC023 10/06 A3008 RMK A01,M
MCJ,2020-01-30 06:15,50.00,42.80,76.18,340.00,6.00,0.00,30.08,M,10.00,M,OVC,M,M,M,2400.00,M,M,M,M,M,M,M,M,M,M,47.21,KMCJ 300615Z AUTO 34006KT 10SM OVC024 10/06 A3008 RMK A01,M
MCJ,2020-01-30 06:35,50.00,42.80,76.18,340.00,8.00,0.00,30.07,M,10.00,M,OVC,M,M,M,2600.00,M,M,M,M,M,M,M,M,M,M,46.29,KMCJ 300635Z AUTO 34008KT 10SM OVC026 10/06 A3007 RMK A01,M
MCJ,2020-01-30 06:55,50.00,42.80,76.18,360.00,10.00,0.00,30.07,M,10.00,M,OVC,M,M,M,2600.00,M,M,M,M,M,M,M,M,M,M,45.54,KMCJ 300655Z AUTO 36010KT 10SM OVC026 10/06 A3007 RMK A01,M
MCJ,2020-01-30 07:15,50.00,42.80,76.18,360.00,7.00,0.00,30.07,M,10.00,M,FEW,OVC,M,M,1500.00,2600.00,M,M,M,M,M,M,M,M,M,46.72,KMCJ 300715Z AUTO 36007KT 10SM FEW015 OVC026 10/06 A3007 RMK A01,M
MCJ,2020-01-30 07:35,50.00,42.80,76.18,350.00,6.00,0.00,30.06,M,10.00,M,SCT,OVC,M,M,1500.00,2500.00,M,M,M,M,M,M,M,M,M,47.21,KMCJ 300735Z AUTO 35006KT 10SM SCT015 OVC025 10/06 A3006 RMK A01,M
MCJ,2020-01-30 07:55,48.20,42.80,81.47,360.00,5.00,0.00,30.05,M,10.00,M,FEW,OVC,M,M,1400.00,2400.00,M,M,M,M,M,M,M,M,M,45.63,KMCJ 300755Z AUTO 36005KT 10SM FEW014 OVC024 09/06 A3005 RMK A01,M
MCJ,2020-01-30 08:15,50.00,44.60,81.61,360.00,7.00,0.00,30.05,M,10.00,M,OVC,M,M,M,2500.00,M,M,M,M,M,M,M,M,M,M,46.72,KMCJ 300815Z AUTO 36007KT 10SM OVC025 10/07 A3005 RMK A01,M
MCJ,2020-01-30 08:35,50.00,44.60,81.61,360.00,6.00,0.00,30.04,M,10.00,M,FEW,OVC,M,M,1200.00,2600.00,M,M,M,M,M,M,M,M,M,47.21,KMCJ 300835Z AUTO 36006KT 10SM FEW012 OVC026 10/07 A3004 RMK A01,M
MCJ,2020-01-30 08:55,48.20,44.60,87.28,360.00,4.00,0.00,30.03,M,10.00,M,FEW,OVC,M,M,1200.00,2400.00,M,M,M,M,M,M,M,M,M,46.34,KMCJ 300855Z AUTO 36004KT 10SM FEW012 OVC024 09/07 A3003 RMK A01,M
MCJ,2020-01-30 09:15,48.20,44.60,87.28,10.00,9.00,0.00,30.02,M,10.00,M,OVC,M,M,M,2700.00,M,M,M,M,M,M,M,M,M,M,43.66,KMCJ 300915Z AUTO 01009KT 10SM OVC027 09/07 A3002 RMK A01,M
MCJ,2020-01-30 09:35,48.20,44.60,87.28,360.00,8.00,0.00,30.03,M,10.00,M,SCT,OVC,M,M,1100.00,2800.00,M,M,M,M,M,M,M,M,M,44.07,KMCJ 300935Z AUTO 36008KT 10SM SCT011 OVC028 09/07 A3003 RMK A01,M
MCJ,2020-01-30 09:55,48.20,44.60,87.28,360.00,9.00,0.00,30.03,M,10.00,M,BKN,OVC,M,M,1100.00,3000.00,M,M,M,M,M,M,M,M,M,43.66,KMCJ 300955Z AUTO 36009KT 10SM BKN011 OVC030 09/07 A3003 RMK A01,M
MCJ,2020-01-30 10:15,48.20,44.60,87.28,360.00,10.00,0.00,30.03,M,10.00,M,OVC,M,M,M,1100.00,M,M,M,M,M,M,M,M,M,M,43.28,KMCJ 301015Z AUTO 36010KT 10SM OVC011 09/07 A3003 RMK A01,M
MCJ,2020-01-30 10:35,48.20,44.60,87.28,350.00,7.00,0.00,30.05,M,10.00,M,OVC,M,M,M,1000.00,M,M,M,M,M,M,M,M,M,M,44.53,KMCJ 301035Z AUTO 35007KT 10SM OVC010 09/07 A3005 RMK A01,M
MCJ,2020-01-30 10:55,48.20,44.60,87.28,340.00,5.00,0.00,30.06,M,10.00,M,OVC,M,M,M,1000.00,M,M,M,M,M,M,M,M,M,M,45.63,KMCJ 301055Z AUTO 34005KT 10SM OVC010 09/07 A3006 RMK A01,M
MCJ,2020-01-30 11:15,48.20,44.60,87.28,340.00,4.00,0.00,30.07,M,10.00,M,OVC,M,M,M,1000.00,M,M,M,M,M,M,M,M,M,M,46.34,KMCJ 301115Z AUTO 34004KT 10SM OVC010 09/07 A3007 RMK A01,M
MCJ,2020-01-30 11:35,48.20,44.60,87.28,340.00,5.00,0.00,30.07,M,10.00,M,OVC,M,M,M,1000.00,M,M,M,M,M,M,M,M,M,M,45.63,KMCJ 301135Z AUTO 34005KT 10SM OVC010 09/07 A3007 RMK A01,M
MCJ,2020-01-30 11:55,48.20,44.60,87.28,350.00,5.00,0.00,30.07,M,10.00,M,OVC,M,M,M,1000.00,M,M,M,M,M,M,M,M,M,M,45.63,KMCJ 301155Z AUTO 35005KT 10SM OVC010 09/07 A3007 RMK A01,M
MCJ,2020-01-30 12:15,48.20,44.60,87.28,360.00,6.00,0.00,30.08,M,10.00,M,OVC,M,M,M,1000.00,M,M,M,M,M,M,M,M,M,M,45.04,KMCJ 301215Z AUTO 36006KT 10SM OVC010 09/07 A3008 RMK A01,M
MCJ,2020-01-30 12:35,48.20,44.60,87.28,360.00,5.00,0.00,30.08,M,10.00,M,OVC,M,M,M,1000.00,M,M,M,M,M,M,M,M,M,M,45.63,KMCJ 301235Z AUTO 36005KT 10SM OVC010 09/07 A3008 RMK A01,M
MCJ,2020-01-30 12:55,48.20,44.60,87.28,350.00,7.00,0.00,30.09,M,10.00,M,OVC,M,M,M,1000.00,M,M,M,M,M,M,M,M,M,M,44.53,KMCJ 301255Z AUTO 35007KT 10SM OVC010 09/07 A3009 RMK A01,M
MCJ,2020-01-30 13:15,48.20,44.60,87.28,10.00,6.00,0.00,30.08,M,10.00,M,OVC,M,M,M,1000.00,M,M,M,M,M,M,M,M,M,M,45.04,KMCJ 301315Z AUTO 01006KT 10SM OVC010 09/07 A3008 RMK A01,M
MCJ,2020-01-30 13:35,48.20,44.60,87.28,350.00,8.00,0.00,30.09,M,10.00,M,OVC,M,M,M,1000.00,M,M,M,M,M,M,M,M,M,M,44.07,KMCJ 301335Z AUTO 35008KT 10SM OVC010 09/07 A3009 RMK A01,M
MCJ,2020-01-30 13:55,50.00,44.60,81.61,360.00,8.00,0.00,30.10,M,10.00,M,OVC,M,M,M,1100.00,M,M,M,M,M,M,M,M,M,M,46.29,KMCJ 301355Z AUTO 36008KT 10SM OVC011 10/07 A3010 RMK A01,M
MCJ,2020-01-30 14:15,50.00,44.60,81.61,360.00,7.00,0.00,30.10,M,10.00,M,OVC,M,M,M,1100.00,M,M,M,M,M,M,M,M,M,M,46.72,KMCJ 301415Z AUTO 36007KT 10SM OVC011 10/07 A3010 RMK A01,M
MCJ,2020-01-30 14:35,50.00,44.60,81.61,360.00,8.00,0.00,30.10,M,10.00,M,OVC,M,M,M,1000.00,M,M,M,M,M,M,M,M,M,M,46.29,KMCJ 301435Z AUTO 36008KT 10SM OVC010 10/07 A3010 RMK A01,M
MCJ,2020-01-30 14:55,50.00,44.60,81.61,360.00,7.00,0.00,30.11,M,10.00,M,OVC,M,M,M,1000.00,M,M,M,M,M,M,M,M,M,M,46.72,KMCJ 301455Z AUTO 36007KT 10SM OVC010 10/07 A3011 RMK A01,M
MCJ,2020-01-30 15:15,50.00,44.60,81.61,360.00,7.00,0.00,30.11,M,10.00,M,OVC,M,M,M,900.00,M,M,M,M,M,M,M,M,M,M,46.72,KMCJ 301515Z AUTO 36007KT 10SM OVC009 10/07 A3011 RMK A01,M
MCJ,2020-01-30 15:35,50.00,44.60,81.61,360.00,7.00,0.00,30.11,M,9.00,12.00,OVC,M,M,M,900.00,M,M,M,M,M,M,M,M,M,M,46.72,KMCJ 301535Z AUTO 36007G12KT 330V030 9SM OVC009 10/07 A3011 RMK A01,M
MCJ,2020-01-30 15:55,50.00,44.60,81.61,350.00,6.00,0.00,30.12,M,9.00,M,OVC,M,M,M,900.00,M,M,M,M,M,M,M,M,M,M,47.21,KMCJ 301555Z AUTO 35006KT 9SM OVC009 10/07 A3012 RMK A01,M
MCJ,2020-01-30 16:15,50.00,46.40,87.37,20.00,8.00,0.00,30.10,M,10.00,M,OVC,M,M,M,900.00,M,M,M,M,M,M,M,M,M,M,46.29,KMCJ 301615Z AUTO 02008KT 10SM OVC009 10/08 A3010 RMK A01,M
MCJ,2020-01-30 16:35,51.80,44.60,76.34,M,5.00,0.00,30.10,M,10.00,13.00,OVC,M,M,M,900.00,M,M,M,M,M,M,M,M,M,M,51.80,KMCJ 301635Z AUTO VRB05G13KT 10SM OVC009 11/07 A3010 RMK A01,M
MCJ,2020-01-30 16:55,51.80,46.40,81.74,30.00,8.00,0.00,30.10,M,9.00,M,OVC,M,M,M,900.00,M,M,M,M,M,M,M,M,M,M,51.80,KMCJ 301655Z AUTO 03008KT 9SM OVC009 11/08 A3010 RMK A01,M
MCJ,2020-01-30 17:15,51.80,46.40,81.74,360.00,8.00,0.00,30.09,M,9.00,M,OVC,M,M,M,1000.00,M,M,M,M,M,M,M,M,M,M,51.80,KMCJ 301715Z AUTO 36008KT 9SM OVC010 11/08 A3009 RMK A01,M
MCJ,2020-01-30 17:35,51.80,46.40,81.74,M,4.00,0.00,30.10,M,9.00,11.00,OVC,M,M,M,1000.00,M,M,M,M,M,M,M,M,M,M,51.80,KMCJ 301735Z AUTO VRB04G11KT 9SM OVC010 11/08 A3010 RMK A01,M
MCJ,2020-01-30 17:55,53.60,46.40,76.50,M,4.00,0.00,30.09,M,10.00,M,OVC,M,M,M,1100.00,M,M,M,M,M,M,M,M,M,M,53.60,KMCJ 301755Z AUTO VRB04KT 10SM OVC011 12/08 A3009 RMK A01,M
MCJ,2020-01-30 18:15,51.80,46.40,81.74,360.00,8.00,0.00,30.08,M,10.00,M,OVC,M,M,M,1200.00,M,M,M,M,M,M,M,M,M,M,51.80,KMCJ 301815Z AUTO 36008KT 10SM OVC012 11/08 A3008 RMK A01,M
MCJ,2020-01-30 18:35,53.60,46.40,76.50,350.00,8.00,0.00,30.07,M,9.00,M,OVC,M,M,M,1200.00,M,M,M,M,M,M,M,M,M,M,53.60,KMCJ 301835Z AUTO 35008KT 9SM OVC012 12/08 A3007 RMK A01,M
MCJ,2020-01-30 18:55,53.60,46.40,76.50,M,5.00,0.00,30.06,M,10.00,M,OVC,M,M,M,1300.00,M,M,M,M,M,M,M,M,M,M,53.60,KMCJ 301855Z AUTO VRB05KT 10SM OVC013 12/08 A3006 RMK A01,M
MCJ,2020-01-30 19:15,53.60,46.40,76.50,20.00,6.00,0.00,30.05,M,10.00,M,OVC,M,M,M,1400.00,M,M,M,M,M,M,M,M,M,M,53.60,KMCJ 301915Z AUTO 02006KT 10SM OVC014 12/08 A3005 RMK A01,M
MCJ,2020-01-30 19:35,53.60,46.40,76.50,30.00,5.00,0.00,30.04,M,10.00,M,OVC,M,M,M,1400.00,M,M,M,M,M,M,M,M,M,M,53.60,KMCJ 301935Z AUTO 03005KT 10SM OVC014 12/08 A3004 RMK A01,M
MCJ,2020-01-30 19:55,53.60,46.40,76.50,40.00,6.00,0.00,30.03,M,6.00,M,OVC,M,M,M,1600.00,M,M,M,HZ,M,M,M,M,M,M,53.60,KMCJ 301955Z AUTO 04006KT 6SM HZ OVC016 12/08 A3003 RMK A01,M
MCJ,2020-01-30 20:15,55.40,46.40,71.64,M,3.00,0.00,30.03,M,9.00,M,OVC,M,M,M,1500.00,M,M,M,M,M,M,M,M,M,M,55.40,KMCJ 302015Z AUTO VRB03KT 9SM OVC015 13/08 A3003 RMK A01,M
MCJ,2020-01-30 20:35,53.60,46.40,76.50,40.00,8.00,0.00,30.02,M,9.00,M,OVC,M,M,M,1400.00,M,M,M,M,M,M,M,M,M,M,53.60,KMCJ 302035Z AUTO 04008KT 9SM OVC014 12/08 A3002 RMK A01,M
MCJ,2020-01-30 20:55,53.60,46.40,76.50,20.00,6.00,0.00,30.02,M,9.00,M,OVC,M,M,M,1400.00,M,M,M,M,M,M,M,M,M,M,53.60,KMCJ 302055Z AUTO 02006KT 9SM OVC014 12/08 A3002 RMK A01,M
MCJ,2020-01-30 21:15,53.60,46.40,76.50,30.00,6.00,0.00,30.02,M,9.00,M,OVC,M,M,M,1400.00,M,M,M,M,M,M,M,M,M,M,53.60,KMCJ 302115Z AUTO 03006KT 9SM OVC014 12/08 A3002 RMK A01,M
MCJ,2020-01-30 21:35,55.40,46.40,71.64,M,5.00,0.00,30.01,M,9.00,M,OVC,M,M,M,1500.00,M,M,M,M,M,M,M,M,M,M,55.40,KMCJ 302135Z AUTO VRB05KT 9SM OVC015 13/08 A3001 RMK A01,M
MCJ,2020-01-30 21:55,53.60,48.20,81.87,60.00,5.00,0.00,30.01,M,9.00,M,OVC,M,M,M,1500.00,M,M,M,M,M,M,M,M,M,M,53.60,KMCJ 302155Z AUTO 06005KT 9SM OVC015 12/09 A3001 RMK A01,M
MCJ,2020-01-30 22:15,55.40,48.20,76.66,30.00,4.00,0.00,30.01,M,9.00,M,BKN,BKN,M,M,1500.00,9000.00,M,M,M,M,M,M,M,M,M,55.40,KMCJ 302215Z AUTO 03004KT 9SM BKN015 BKN090 13/09 A3001 RMK A01,M
MCJ,2020-01-30 22:35,55.40,48.20,76.66,40.00,3.00,0.00,30.01,M,9.00,M,SCT,BKN,OVC,M,1500.00,2200.00,9000.00,M,M,M,M,M,M,M,M,55.40,KMCJ 302235Z AUTO 04003KT 9SM SCT015 BKN022 OVC090 13/09 A3001 RMK A01,M
MCJ,2020-01-30 22:55,55.40,48.20,76.66,0.00,0.00,0.00,30.01,M,9.00,M,FEW,SCT,OVC,M,1500.00,2300.00,9000.00,M,M,M,M,M,M,M,M,55.40,KMCJ 302255Z AUTO 00000KT 9SM FEW015 SCT023 OVC090 13/09 A3001 RMK A01,M
MCJ,2020-01-30 23:15,55.40,48.20,76.66,M,3.00,0.00,30.02,M,8.00,M,SCT,BKN,BKN,M,1700.00,2300.00,9000.00,M,M,M,M,M,M,M,M,55.40,KMCJ 302315Z AUTO VRB03KT 8SM SCT017 BKN023 BKN090 13/09 A3002 RMK A01,M
MCJ,2020-01-30 23:35,55.40,48.20,76.66,30.00,4.00,0.00,30.02,M,9.00,M,BKN,BKN,OVC,M,1600.00,2100.00,9000.00,M,M,M,M,M,M,M,M,55.40,KMCJ 302335Z AUTO 03004KT 9SM BKN016 BKN021 OVC090 13/09 A3002 RMK A01,M
MCJ,2020-01-30 23:55,55.40,48.20,76.66,350.00,3.00,0.00,30.03,M,9.00,M,BKN,BKN,OVC,M,1600.00,2200.00,3900.00,M,M,M,M,M,M,M,M,55.40,KMCJ 302355Z AUTO 35003KT 9SM BKN016 BKN022 OVC039 13/09 A3003 RMK A01,M
MCJ,2020-01-31 00:15,53.60,48.20,81.87,360.00,4.00,0.00,30.03,M,9.00,M,OVC,M,M,M,1600.00,M,M,M,M,M,M,M,M,M,M,53.60,KMCJ 310015Z AUTO 36004KT 9SM OVC016 12/09 A3003 RMK A01,M
MCJ,2020-01-31 00:35,53.60,48.20,81.87,340.00,6.00,0.00,30.04,M,10.00,M,OVC,M,M,M,1600.00,M,M,M,M,M,M,M,M,M,M,53.60,KMCJ 310035Z AUTO 34006KT 10SM OVC016 12/09 A3004 RMK A01,M
MCJ,2020-01-31 00:55,53.60,48.20,81.87,350.00,6.00,0.00,30.05,M,10.00,M,OVC,M,M,M,1600.00,M,M,M,M,M,M,M,M,M,M,53.60,KMCJ 310055Z AUTO 35006KT 10SM OVC016 12/09 A3005 RMK A01,M
MCJ,2020-01-31 01:15,53.60,48.20,81.87,350.00,4.00,0.00,30.06,M,10.00,M,OVC,M,M,M,1600.00,M,M,M,M,M,M,M,M,M,M,53.60,KMCJ 310115Z AUTO 35004KT 10SM OVC016 12/09 A3006 RMK A01,M
MCJ,2020-01-31 01:35,53.60,48.20,81.87,340.00,6.00,0.00,30.06,M,10.00,M,BKN,BKN,OVC,M,1800.00,4000.00,9000.00,M,M,M,M,M,M,M,M,53.60,KMCJ 310135Z AUTO 34006KT 10SM BKN018 BKN040 OVC090 12/09 A3006 RMK A01,M
MCJ,2020-01-31 01:55,53.60,48.20,81.87,350.00,7.00,0.00,30.07,M,10.00,M,BKN,BKN,OVC,M,1700.00,2400.00,4000.00,M,M,M,M,M,M,M,M,53.60,KMCJ 310155Z AUTO 35007KT 10SM BKN017 BKN024 OVC040 12/09 A3007 RMK A01,M
MCJ,2020-01-31 02:15,53.60,48.20,81.87,340.00,7.00,0.00,30.08,M,10.00,M,OVC,M,M,M,1700.00,M,M,M,M,M,M,M,M,M,M,53.60,KMCJ 310215Z AUTO 34007KT 10SM OVC017 12/09 A3008 RMK A01,M
MCJ,2020-01-31 02:35,53.60,48.20,81.87,340.00,7.00,0.00,30.09,M,10.00,M,BKN,BKN,OVC,M,1800.00,3900.00,5500.00,M,M,M,M,M,M,M,M,53.60,KMCJ 310235Z AUTO 34007KT 10SM BKN018 BKN039 OVC055 12/09 A3009 RMK A01,M
MCJ,2020-01-31 02:55,53.60,48.20,81.87,20.00,5.00,0.00,30.08,M,10.00,M,FEW,FEW,OVC,M,1800.00,4100.00,9500.00,M,M,M,M,M,M,M,M,53.60,KMCJ 310255Z AUTO 02005KT 10SM FEW018 FEW041 OVC095 12/09 A3008 RMK A01,M
MCJ,2020-01-31 03:15,53.60,48.20,81.87,10.00,7.00,0.00,30.08,M,10.00,M,SCT,OVC,M,M,1700.00,9000.00,M,M,M,M,M,M,M,M,M,53.60,KMCJ 310315Z AUTO 01007KT 10SM SCT017 OVC090 12/09 A3008 RMK A01,M
MCJ,2020-01-31 03:35,53.60,46.40,76.50,20.00,6.00,0.00,30.08,M,10.00,M,OVC,M,M,M,1700.00,M,M,M,M,M,M,M,M,M,M,53.60,KMCJ 310335Z AUTO 02006KT 10SM OVC017 12/08 A3008 RMK A01,M
MCJ,2020-01-31 03:55,53.60,46.40,76.50,360.00,9.00,0.00,30.08,M,10.00,M,OVC,M,M,M,1700.00,M,M,M,M,M,M,M,M,M,M,53.60,KMCJ 310355Z AUTO 36009KT 10SM OVC017 12/08 A3008 RMK A01,M
MCJ,2020-01-31 04:15,53.60,48.20,81.87,360.00,8.00,0.00,30.09,M,10.00,M,OVC,M,M,M,1800.00,M,M,M,M,M,M,M,M,M,M,53.60,KMCJ 310415Z AUTO 36008KT 10SM OVC018 12/09 A3009 RMK A01,M
MCJ,2020-01-31 04:35,53.60,48.20,81.87,350.00,7.00,0.00,30.09,M,10.00,M,OVC,M,M,M,1800.00,M,M,M,M,M,M,M,M,M,M,53.60,KMCJ 310435Z AUTO 35007KT 10SM OVC018 12/09 A3009 RMK A01,M
MCJ,2020-01-31 04:55,53.60,48.20,81.87,360.00,4.00,0.00,30.09,M,10.00,M,OVC,M,M,M,1900.00,M,M,M,M,M,M,M,M,M,M,53.60,KMCJ 310455Z AUTO 36004KT 10SM OVC019 12/09 A3009 RMK A01,M
MCJ,2020-01-31 05:15,53.60,48.20,81.87,30.00,7.00,0.00,30.08,M,10.00,M,OVC,M,M,M,1900.00,M,M,M,M,M,M,M,M,M,M,53.60,KMCJ 310515Z AUTO 03007KT 10SM OVC019 12/09 A3008 RMK A01,M
MCJ,2020-01-31 05:35,53.60,48.20,81.87,30.00,7.00,0.00,30.07,M,10.00,14.00,OVC,M,M,M,1900.00,M,M,M,M,M,M,M,M,M,M,53.60,KMCJ 310535Z AUTO 03007G14KT 340V050 10SM OVC019 12/09 A3007 RMK A01,M
MCJ,2020-01-31 05:55,53.60,48.20,81.87,10.00,6.00,0.00,30.07,M,10.00,M,OVC,M,M,M,1900.00,M,M,M,M,M,M,M,M,M,M,53.60,KMCJ 310555Z AUTO 01006KT 10SM OVC019 12/09 A3007 RMK A01,M
MCJ,2020-01-31 06:15,53.60,48.20,81.87,40.00,5.00,0.00,30.06,M,10.00,M,OVC,M,M,M,2000.00,M,M,M,M,M,M,M,M,M,M,53.60,KMCJ 310615Z AUTO 04005KT 10SM OVC020 12/09 A3006 RMK A01,M
MCJ,2020-01-31 06:35,53.60,48.20,81.87,M,5.00,0.00,30.07,M,10.00,M,FEW,OVC,M,M,1300.00,2100.00,M,M,M,M,M,M,M,M,M,53.60,KMCJ 310635Z AUTO VRB05KT 10SM FEW013 OVC021 12/09 A3007 RMK A01,M
MCJ,2020-01-31 06:55,53.60,48.20,81.87,50.00,5.00,0.00,30.08,M,10.00,M,BKN,OVC,M,M,1400.00,2200.00,M,M,M,M,M,M,M,M,M,53.60,KMCJ 310655Z AUTO 05005KT 10SM BKN014 OVC022 12/09 A3008 RMK A01,M
MCJ,2020-01-31 07:15,53.60,48.20,81.87,30.00,3.00,0.00,30.09,M,10.00,M,OVC,M,M,M,1200.00,M,M,M,M,M,M,M,M,M,M,53.60,KMCJ 310715Z AUTO 03003KT 10SM OVC012 12/09 A3009 RMK A01,M
MCJ,2020-01-31 07:35,53.60,48.20,81.87,0.00,0.00,0.00,30.09,M,10.00,M,M,M,M,M,M,M,M,M,M,M,M,M,M,M,M,53.60,KMCJ 310735Z AUTO 00000KT 10SM 12/09 A3009 RMK A01,M
MCJ,2020-01-31 07:55,51.80,48.20,87.47,340.00,4.00,0.00,30.10,M,10.00,M,M,M,M,M,M,M,M,M,M,M,M,M,M,M,M,51.80,KMCJ 310755Z AUTO 34004KT 10SM 11/09 A3010 RMK A01,M
MCJ,2020-01-31 08:15,51.80,48.20,87.47,0.00,0.00,0.00,30.09,M,10.00,M,BKN,OVC,M,M,1400.00,2500.00,M,M,M,M,M,M,M,M,M,51.80,KMCJ 310815Z AUTO 00000KT 10SM BKN014 OVC025 11/09 A3009 RMK A01,M
MCJ,2020-01-31 08:35,51.80,48.20,87.47,M,5.00,0.00,30.08,M,10.00,M,SCT,BKN,BKN,M,1100.00,1600.00,2400.00,M,M,M,M,M,M,M,M,51.80,KMCJ 310835Z AUTO VRB05KT 10SM SCT011 BKN016 BKN024 11/09 A3008 RMK A01,M
MCJ,2020-01-31 08:55,51.80,48.20,87.47,360.00,4.00,0.00,30.07,M,10.00,M,SCT,BKN,M,M,1100.00,1600.00,M,M,M,M,M,M,M,M,M,51.80,KMCJ 310855Z AUTO 36004KT 10SM SCT011 BKN016 11/09 A3007 RMK A01,M
MCJ,2020-01-31 09:15,50.00,48.20,93.50,340.00,6.00,0.00,30.07,M,10.00,M,FEW,M,M,M,1100.00,M,M,M,M,M,M,M,M,M,M,47.21,KMCJ 310915Z AUTO 34006KT 10SM FEW011 10/09 A3007 RMK A01,M
MCJ,2020-01-31 09:35,50.00,48.20,93.50,340.00,4.00,0.00,30.08,M,8.00,M,SCT,M,M,M,1000.00,M,M,M,M,M,M,M,M,M,M,48.44,KMCJ 310935Z AUTO 34004KT 8SM SCT010 10/09 A3008 RMK A01,M
MCJ,2020-01-31 09:55,50.00,48.20,93.50,M,6.00,0.00,30.08,M,10.00,M,FEW,M,M,M,1000.00,M,M,M,M,M,M,M,M,M,M,47.21,KMCJ 310955Z AUTO VRB06KT 10SM FEW010 10/09 A3008 RMK A01,M
MCJ,2020-01-31 10:15,50.00,48.20,93.50,340.00,3.00,0.00,30.09,M,10.00,M,CLR,M,M,M,M,M,M,M,M,M,M,M,M,M,M,49.27,KMCJ 311015Z AUTO 34003KT 10SM CLR 10/09 A3009 RMK A01,M
MCJ,2020-01-31 10:35,50.00,48.20,93.50,340.00,6.00,0.00,30.09,M,10.00,M,SCT,SCT,M,M,4400.00,9000.00,M,M,M,M,M,M,M,M,M,47.21,KMCJ 311035Z AUTO 34006KT 10SM SCT044 SCT090 10/09 A3009 RMK A01,M
MCJ,2020-01-31 10:55,50.00,48.20,93.50,340.00,5.00,0.00,30.09,M,10.00,M,SCT,SCT,SCT,M,700.00,4400.00,6000.00,M,M,M,M,M,M,M,M,47.77,KMCJ 311055Z AUTO 34005KT 10SM SCT007 SCT044 SCT060 10/09 A3009 RMK A01,M
MCJ,2020-01-31 11:15,50.00,48.20,93.50,340.00,6.00,0.00,30.09,M,10.00,M,FEW,BKN,M,M,700.00,5500.00,M,M,M,M,M,M,M,M,M,47.21,KMCJ 311115Z AUTO 34006KT 10SM FEW007 BKN055 10/09 A3009 RMK A01,M
MCJ,2020-01-31 11:35,50.00,48.20,93.50,340.00,7.00,0.00,30.09,M,10.00,M,SCT,M,M,M,5500.00,M,M,M,M,M,M,M,M,M,M,46.72,KMCJ 311135Z AUTO 34007KT 10SM SCT055 10/09 A3009 RMK A01,M
MCJ,2020-01-31 11:55,48.20,48.20,100.00,350.00,6.00,0.00,30.09,M,10.00,M,CLR,M,M,M,M,M,M,M,M,M,M,M,M,M,M,45.04,KMCJ 311155Z AUTO 35006KT 10SM CLR 09/09 A3009 RMK A01,M
MCJ,2020-01-31 12:15,48.20,48.20,100.00,350.00,6.00,0.00,30.09,M,9.00,M,CLR,M,M,M,M,M,M,M,M,M,M,M,M,M,M,45.04,KMCJ 311215Z AUTO 35006KT 9SM CLR 09/09 A3009 RMK A01,M
MCJ,2020-01-31 12:35,48.20,48.20,100.00,350.00,5.00,0.00,30.11,M,10.00,M,CLR,M,M,M,M,M,M,M,M,M,M,M,M,M,M,45.63,KMCJ 311235Z AUTO 35005KT 10SM CLR 09/09 A3011 RMK A01,M
MCJ,2020-01-31 12:55,50.00,48.20,93.50,350.00,4.00,0.00,30.11,M,9.00,M,BKN,M,M,M,5000.00,M,M,M,M,M,M,M,M,M,M,48.44,KMCJ 311255Z AUTO 35004KT 9SM BKN050 10/09 A3011 RMK A01,M
MCJ,2020-01-31 13:15,50.00,48.20,93.50,340.00,3.00,0.00,30.12,M,9.00,M,FEW,OVC,M,M,700.00,5000.00,M,M,M,M,M,M,M,M,M,49.27,KMCJ 311315Z AUTO 34003KT 9SM FEW007 OVC050 10/09 A3012 RMK A01,M
MCJ,2020-01-31 13:35,50.00,48.20,93.50,330.00,4.00,0.00,30.13,M,8.00,M,BKN,OVC,M,M,700.00,5000.00,M,M,M,M,M,M,M,M,M,48.44,KMCJ 311335Z AUTO 33004KT 8SM BKN007 OVC050 10/09 A3013 RMK A01,M
MCJ,2020-01-31 13:55,50.00,48.20,93.50,360.00,5.00,0.00,30.13,M,8.00,M,OVC,M,M,M,700.00,M,M,M,M,M,M,M,M,M,M,47.77,KMCJ 311355Z AUTO 36005KT 8SM OVC007 10/09 A3013 RMK A01,M
MCJ,2020-01-31 14:15,50.00,48.20,93.50,350.00,6.00,0.00,30.14,M,7.00,M,OVC,M,M,M,700.00,M,M,M,M,M,M,M,M,M,M,47.21,KMCJ 311415Z AUTO 35006KT 7SM OVC007 10/09 A3014 RMK A01,M
MCJ,2020-01-31 14:35,50.00,48.20,93.50,350.00,8.00,0.00,30.15,M,8.00,M,OVC,M,M,M,700.00,M,M,M,M,M,M,M,M,M,M,46.29,KMCJ 311435Z AUTO 35008KT 8SM OVC007 10/09 A3015 RMK A01,M
MCJ,2020-01-31 14:55,51.80,48.20,87.47,10.00,6.00,0.00,30.15,M,8.00,M,OVC,M,M,M,700.00,M,M,M,M,M,M,M,M,M,M,51.80,KMCJ 311455Z AUTO 01006KT 8SM OVC007 11/09 A3015 RMK A01,M
MCJ,2020-01-31 15:15,51.80,48.20,87.47,350.00,5.00,0.00,30.16,M,7.00,M,OVC,M,M,M,700.00,M,M,M,M,M,M,M,M,M,M,51.80,KMCJ 311515Z AUTO 35005KT 7SM OVC007 11/09 A3016 RMK A01,M
MCJ,2020-01-31 15:35,51.80,48.20,87.47,350.00,8.00,0.00,30.16,M,6.00,M,OVC,M,M,M,800.00,M,M,M,BR,M,M,M,M,M,M,51.80,KMCJ 311535Z AUTO 35008KT 6SM BR OVC008 11/09 A3016 RMK A01,M
MCJ,2020-01-31 15:55,51.80,48.20,87.47,360.00,7.00,0.00,30.17,M,7.00,M,BKN,BKN,OVC,M,900.00,2200.00,6000.00,M,M,M,M,M,M,M,M,51.80,KMCJ 311555Z AUTO 36007KT 7SM BKN009 BKN022 OVC060 11/09 A3017 RMK A01,M
MCJ,2020-01-31 16:15,51.80,48.20,87.47,350.00,5.00,0.00,30.18,M,7.00,M,SCT,BKN,OVC,M,900.00,1500.00,5500.00,M,M,M,M,M,M,M,M,51.80,KMCJ 311615Z AUTO 35005KT 7SM SCT009 BKN015 OVC055 11/09 A3018 RMK A01,M
MCJ,2020-01-31 16:35,51.80,48.20,87.47,M,4.00,0.00,30.18,M,7.00,M,FEW,OVC,M,M,1000.00,1500.00,M,M,M,M,M,M,M,M,M,51.80,KMCJ 311635Z AUTO VRB04KT 7SM FEW010 OVC015 11/09 A3018 RMK A01,M
MCJ,2020-01-31 16:55,53.60,48.20,81.87,340.00,5.00,0.00,30.17,M,8.00,M,OVC,M,M,M,1400.00,M,M,M,M,M,M,M,M,M,M,53.60,KMCJ 311655Z AUTO 34005KT 8SM OVC014 12/09 A3017 RMK A01,M
MCJ,2020-01-31 17:15,53.60,46.40,76.50,350.00,6.00,0.00,30.17,M,8.00,M,OVC,M,M,M,1400.00,M,M,M,M,M,M,M,M,M,M,53.60,KMCJ 311715Z AUTO 35006KT 8SM OVC014 12/08 A3017 RMK A01,M
MCJ,2020-01-31 17:35,53.60,46.40,76.50,350.00,5.00,0.00,30.17,M,9.00,M,OVC,M,M,M,1700.00,M,M,M,M,M,M,M,M,M,M,53.60,KMCJ 311735Z AUTO 35005KT 9SM OVC017 12/08 A3017 RMK A01,M
MCJ,2020-01-31 17:55,53.60,46.40,76.50,340.00,7.00,0.00,30.16,M,9.00,M,OVC,M,M,M,1900.00,M,M,M,M,M,M,M,M,M,M,53.60,KMCJ 311755Z AUTO 34007KT 9SM OVC019 12/08 A3016 RMK A01,M
MCJ,2020-01-31 18:15,55.40,44.60,66.91,330.00,7.00,0.00,30.16,M,9.00,M,BKN,OVC,M,M,2000.00,2500.00,M,M,M,M,M,M,M,M,M,55.40,KMCJ 311815Z AUTO 33007KT 9SM BKN020 OVC025 13/07 A3016 RMK A01,M
MCJ,2020-01-31 18:35,55.40,44.60,66.91,330.00,7.00,0.00,30.14,M,10.00,M,FEW,OVC,M,M,2000.00,2600.00,M,M,M,M,M,M,M,M,M,55.40,KMCJ 311835Z AUTO 33007KT 10SM FEW020 OVC026 13/07 A3014 RMK A01,M
MCJ,2020-01-31 18:55,57.20,44.60,62.69,340.00,6.00,0.00,30.13,M,10.00,M,BKN,OVC,M,M,2800.00,5500.00,M,M,M,M,M,M,M,M,M,57.20,KMCJ 311855Z AUTO 34006KT 10SM BKN028 OVC055 14/07 A3013 RMK A01,M
MCJ,2020-01-31 19:15,57.20,42.80,58.52,340.00,5.00,0.00,30.12,M,10.00,M,OVC,M,M,M,2700.00,M,M,M,M,M,M,M,M,M,M,57.20,KMCJ 311915Z AUTO 34005KT 10SM OVC027 14/06 A3012 RMK A01,M
MCJ,2020-01-31 19:35,59.00,41.00,51.18,M,6.00,0.00,30.10,M,10.00,M,OVC,M,M,M,2900.00,M,M,M,M,M,M,M,M,M,M,59.00,KMCJ 311935Z AUTO VRB06KT 10SM OVC029 15/05 A3010 RMK A01,M
MCJ,2020-01-31 19:55,60.80,41.00,48.00,320.00,7.00,0.00,30.10,M,10.00,M,BKN,M,M,M,3000.00,M,M,M,M,M,M,M,M,M,M,60.80,KMCJ 311955Z AUTO 32007KT 10SM BKN030 16/05 A3010 RMK A01,M
MCJ,2020-01-31 20:15,60.80,41.00,48.00,M,4.00,0.00,30.10,M,10.00,10.00,SCT,SCT,M,M,3400.00,4000.00,M,M,M,M,M,M,M,M,M,60.80,KMCJ 312015Z AUTO VRB04G10KT 10SM SCT034 SCT040 16/05 A3010 RMK A01,M
MCJ,2020-01-31 20:35,59.00,41.00,51.18,M,6.00,0.00,30.09,M,10.00,M,SCT,SCT,M,M,3600.00,4400.00,M,M,M,M,M,M,M,M,M,59.00,KMCJ 312035Z AUTO VRB06KT 10SM SCT036 SCT044 15/05 A3009 RMK A01,M
MCJ,2020-01-31 20:55,59.00,41.00,51.18,M,4.00,0.00,30.08,M,10.00,M,FEW,SCT,M,M,4000.00,4700.00,M,M,M,M,M,M,M,M,M,59.00,KMCJ 312055Z AUTO VRB04KT 10SM FEW040 SCT047 15/05 A3008 RMK A01,M
MCJ,2020-01-31 21:15,60.80,41.00,48.00,M,6.00,0.00,30.08,M,10.00,M,SCT,SCT,M,M,3500.00,4100.00,M,M,M,M,M,M,M,M,M,60.80,KMCJ 312115Z AUTO VRB06KT 10SM SCT035 SCT041 16/05 A3008 RMK A01,M
MCJ,2020-01-31 21:35,60.80,41.00,48.00,M,5.00,0.00,30.08,M,10.00,M,OVC,M,M,M,3900.00,M,M,M,M,M,M,M,M,M,M,60.80,KMCJ 312135Z AUTO VRB05KT 10SM OVC039 16/05 A3008 RMK A01,M
MCJ,2020-01-31 21:55,59.00,42.80,54.86,M,5.00,0.00,30.08,M,10.00,10.00,OVC,M,M,M,3700.00,M,M,M,M,M,M,M,M,M,M,59.00,KMCJ 312155Z AUTO VRB05G10KT 10SM OVC037 15/06 A3008 RMK A01,M
MCJ,2020-01-31 22:15,57.20,42.80,58.52,M,6.00,0.00,30.09,M,10.00,12.00,BKN,OVC,M,M,3200.00,3800.00,M,M,M,M,M,M,M,M,M,57.20,KMCJ 312215Z AUTO VRB06G12KT 10SM BKN032 OVC038 14/06 A3009 RMK A01,M
MCJ,2020-01-31 22:35,57.20,42.80,58.52,M,5.00,0.00,30.10,M,10.00,M,BKN,BKN,OVC,M,3200.00,3800.00,4500.00,M,M,M,M,M,M,M,M,57.20,KMCJ 312235Z AUTO VRB05KT 10SM BKN032 BKN038 OVC045 14/06 A3010 RMK A01,M
MCJ,2020-01-31 22:55,57.20,42.80,58.52,M,6.00,0.00,30.10,M,10.00,M,SCT,BKN,OVC,M,3200.00,3900.00,4400.00,M,M,M,M,M,M,M,M,57.20,KMCJ 312255Z AUTO VRB06KT 10SM SCT032 BKN039 OVC044 14/06 A3010 RMK A01,M
MCJ,2020-01-31 23:15,55.40,42.80,62.46,M,6.00,0.00,30.11,M,10.00,M,SCT,OVC,M,M,3500.00,4200.00,M,M,M,M,M,M,M,M,M,55.40,KMCJ 312315Z AUTO VRB06KT 10SM SCT035 OVC042 13/06 A3011 RMK A01,M
MCJ,2020-01-31 23:35,55.40,42.80,62.46,M,5.00,0.00,30.12,M,10.00,M,OVC,M,M,M,4100.00,M,M,M,M,M,M,M,M,M,M,55.40,KMCJ 312335Z AUTO VRB05KT 10SM OVC041 13/06 A3012 RMK A01,M
MCJ,2020-01-31 23:55,55.40,41.00,58.27,M,6.00,0.00,30.13,M,10.00,M,OVC,M,M,M,4100.00,M,M,M,M,M,M,M,M,M,M,55.40,KMCJ 312355Z AUTO VRB06KT 10SM OVC041 13/05 A3013 RMK A01,M
